{"type":"FeatureCollection","features":[{"type":"Feature","properties":{"ac_name":"ANINI","ac_no":41,"ac_category":"GEN","st_name":"ARUNACHAL PRADESH"},"geometry":{"type":"Polygon","coordinates":[[[95.2678,29.0561],[95.2688,29.0481],[95.2756,29.044],[95.276,29.0289],[95.2654,29.025],[95.2557,29.007],[95.2455,29.0014],[95.2453,28.9886],[95.258,28.9813],[95.2569,28.9703],[95.2633,28.9655],[95.2574,28.9512],[95.2692,28.9452],[95.2811,28.9459],[95.3014,28.9585],[95.3094,28.9555],[95.3071,28.9465],[95.3149,28.9417],[95.3148,28.9345],[95.3277,28.9283],[95.3304,28.9202],[95.3189,28.9115],[95.3266,28.9076],[95.3281,28.8952],[95.3174,28.8868],[95.3247,28.8776],[95.3222,28.8643],[95.328,28.8579],[95.3238,28.8443],[95.3311,28.8349],[95.3394,28.8351],[95.3463,28.8274],[95.3561,28.8258],[95.3538,28.8181],[95.3607,28.7909],[95.3776,28.779],[95.3731,28.7652],[95.3834,28.7484],[95.3929,28.7423],[95.37,28.7169],[95.3539,28.7067],[95.3611,28.6867],[95.3606,28.6603],[95.3687,28.6463],[95.3669,28.6273],[95.3773,28.6162],[95.3781,28.6032],[95.3902,28.593],[95.3991,28.5942],[95.4192,28.6349],[95.4313,28.6435],[95.439,28.6414],[95.4538,28.6141],[95.474,28.5988],[95.4892,28.5939],[95.5165,28.5968],[95.5522,28.5717],[95.5725,28.5634],[95.6036,28.5589],[95.6661,28.5339],[95.6961,28.5268],[95.7287,28.5347],[95.7461,28.5281],[95.7617,28.514],[95.7809,28.5093],[95.8094,28.4911],[95.8305,28.4645],[95.8333,28.4426],[95.8395,28.4356],[95.8842,28.42],[95.9221,28.3826],[95.9373,28.3783],[95.951,28.3804],[96.0375,28.4318],[96.0664,28.4352],[96.1061,28.4305],[96.1527,28.4118],[96.1829,28.4066],[96.2397,28.4539],[96.2706,28.4542],[96.2991,28.4604],[96.3244,28.49],[96.326,28.5241],[96.3244,28.5294],[96.3534,28.556],[96.4053,28.5593],[96.3997,28.5897],[96.4213,28.5804],[96.4268,28.5825],[96.4432,28.6013],[96.4929,28.6335],[96.494,28.6391],[96.4695,28.6801],[96.4717,28.6837],[96.4895,28.684],[96.5213,28.7045],[96.5589,28.7073],[96.5849,28.717],[96.6126,28.7552],[96.6151,28.7741],[96.603,28.8],[96.5751,28.8262],[96.5369,28.88],[96.5382,28.917],[96.5233,28.9441],[96.5185,28.9672],[96.4929,28.9586],[96.4872,28.9616],[96.4772,28.9904],[96.5251,29.0758],[96.4771,29.0567],[96.4588,29.0424],[96.4357,29.0342],[96.3467,29.029],[96.3215,29.0095],[96.2937,28.9954],[96.2556,28.9559],[96.2482,28.9395],[96.1746,28.9009],[96.1664,28.9026],[96.1629,28.9188],[96.1452,28.9343],[96.1541,28.9433],[96.1552,28.9524],[96.1805,28.9654],[96.1849,28.985],[96.1507,29.0503],[96.1149,29.0748],[96.1699,29.0848],[96.186,29.0918],[96.2007,29.1031],[96.2179,29.1353],[96.2282,29.1436],[96.2493,29.1474],[96.2607,29.1574],[96.3467,29.1681],[96.3589,29.1787],[96.3719,29.2152],[96.3882,29.2309],[96.3934,29.2538],[96.3757,29.2811],[96.3638,29.283],[96.346,29.2647],[96.3133,29.2565],[96.2936,29.2332],[96.2442,29.2326],[96.2109,29.2725],[96.2041,29.2913],[96.184,29.307],[96.1868,29.3424],[96.1764,29.3625],[96.159,29.3811],[96.1512,29.3973],[96.1145,29.4257],[96.0887,29.46],[96.0571,29.4568],[96.0039,29.4104],[95.9886,29.4052],[95.9585,29.381],[95.8823,29.39],[95.8497,29.3571],[95.8417,29.3522],[95.8282,29.3542],[95.7979,29.3348],[95.7925,29.3364],[95.7846,29.3549],[95.7791,29.3549],[95.7469,29.3276],[95.7449,29.3147],[95.7285,29.3009],[95.7166,29.2968],[95.7033,29.2989],[95.6845,29.2757],[95.6394,29.2483],[95.6001,29.2604],[95.589,29.2409],[95.5871,29.2164],[95.5391,29.2125],[95.5466,29.179],[95.5479,29.1269],[95.5047,29.1414],[95.4975,29.1387],[95.4869,29.0745],[95.4553,29.0352],[95.4226,29.0394],[95.4111,29.0324],[95.401,29.0336],[95.3466,29.0445],[95.304,29.0614],[95.2678,29.0561]]]}},{"type":"Feature","properties":{"ac_name":"TUTING-YINKGKIONG","ac_no":34,"ac_category":"GEN","st_name":"ARUNACHAL PRADESH"},"geometry":{"type":"Polygon","coordinates":[[[95.2678,29.0561],[95.2514,29.0671],[95.2521,29.1085],[95.1981,29.1063],[95.1233,29.1151],[95.1151,29.12],[95.1,29.1427],[95.0414,29.1514],[94.9993,29.1721],[94.9885,29.1727],[95.02,29.142],[95.0274,29.1326],[95.0245,29.1296],[94.9968,29.14],[94.9695,29.1589],[94.9207,29.1615],[94.8738,29.1836],[94.8486,29.1823],[94.8,29.1639],[94.7949,29.1691],[94.7949,29.1797],[94.8,29.2094],[94.7796,29.2406],[94.7135,29.3041],[94.6798,29.3276],[94.6441,29.3468],[94.6308,29.3485],[94.6262,29.3455],[94.6216,29.3126],[94.6079,29.2968],[94.5803,29.2806],[94.5746,29.2503],[94.5603,29.2286],[94.5355,29.2184],[94.4969,29.2164],[94.4337,29.2267],[94.4164,29.2125],[94.3748,29.19],[94.3701,29.1661],[94.3594,29.1523],[94.2902,29.148],[94.2601,29.1166],[94.2171,29.0838],[94.1873,29.0388],[94.3427,28.9839],[94.3676,28.9566],[94.4799,28.8585],[94.517,28.8366],[94.5153,28.8209],[94.5253,28.8116],[94.5351,28.8107],[94.5615,28.8103],[94.5922,28.7919],[94.6078,28.7971],[94.6201,28.7939],[94.6333,28.7843],[94.6339,28.7667],[94.6966,28.7284],[94.7455,28.6864],[94.7466,28.588],[94.7601,28.56],[94.7775,28.5593],[94.762,28.5472],[94.7588,28.534],[94.7738,28.5353],[94.7956,28.5463],[94.8196,28.5681],[94.8368,28.5692],[94.8578,28.5639],[94.8781,28.5524],[94.9016,28.5488],[94.9396,28.5692],[94.9578,28.5729],[94.9724,28.5654],[94.9888,28.5291],[95.0382,28.5155],[95.0841,28.5267],[95.1105,28.5008],[95.1016,28.4835],[95.1097,28.4601],[95.1693,28.5111],[95.1859,28.5349],[95.1878,28.5977],[95.1962,28.6229],[95.2083,28.6411],[95.2672,28.667],[95.2941,28.6842],[95.3495,28.7034],[95.3579,28.7114],[95.37,28.7169],[95.3929,28.7423],[95.3834,28.7484],[95.3731,28.7652],[95.3776,28.779],[95.3607,28.7909],[95.3538,28.8181],[95.3561,28.8258],[95.3463,28.8274],[95.3394,28.8351],[95.3311,28.8349],[95.3238,28.8443],[95.328,28.8579],[95.3222,28.8643],[95.3247,28.8776],[95.3174,28.8868],[95.3281,28.8952],[95.3266,28.9076],[95.3189,28.9115],[95.3304,28.9202],[95.3277,28.9283],[95.3148,28.9345],[95.3149,28.9417],[95.3071,28.9465],[95.3094,28.9555],[95.3014,28.9585],[95.2811,28.9459],[95.2692,28.9452],[95.2574,28.9512],[95.2633,28.9655],[95.2569,28.9703],[95.258,28.9813],[95.2453,28.9886],[95.2455,29.0014],[95.2557,29.007],[95.2654,29.025],[95.276,29.0289],[95.2756,29.044],[95.2688,29.0481],[95.2678,29.0561]]]}},{"type":"Feature","properties":{"ac_name":"MECHUKA","ac_no":33,"ac_category":"GEN","st_name":"ARUNACHAL PRADESH"},"geometry":{"type":"Polygon","coordinates":[[[94.1873,29.0388],[94.1742,29.0074],[94.1752,28.9914],[94.1605,28.9737],[94.1573,28.9543],[94.0686,28.8956],[94.0321,28.853],[94.0169,28.8507],[93.997,28.8409],[94.002,28.8193],[93.9875,28.8062],[93.9872,28.7978],[94.0035,28.7837],[94.0033,28.7749],[93.9704,28.7508],[93.9621,28.7124],[94.0156,28.6686],[94.0233,28.6513],[94.0061,28.6218],[94.0014,28.5778],[94.0592,28.5488],[94.0851,28.5338],[94.0968,28.5361],[94.1073,28.5244],[94.1056,28.4976],[94.1148,28.4758],[94.1264,28.4671],[94.1391,28.4445],[94.1518,28.4362],[94.1626,28.4324],[94.1733,28.4351],[94.1845,28.4295],[94.2192,28.4363],[94.2316,28.4282],[94.2417,28.4468],[94.2675,28.4323],[94.2928,28.4288],[94.3085,28.417],[94.3017,28.396],[94.3085,28.3756],[94.3221,28.3687],[94.3296,28.3579],[94.3679,28.3532],[94.3766,28.3406],[94.3861,28.3359],[94.4016,28.3385],[94.44,28.3863],[94.4471,28.4152],[94.4761,28.4637],[94.4809,28.4898],[94.4745,28.5894],[94.4792,28.7101],[94.4862,28.7318],[94.5108,28.76],[94.5225,28.7669],[94.5302,28.7815],[94.5351,28.8107],[94.5253,28.8116],[94.5153,28.8209],[94.517,28.8366],[94.4799,28.8585],[94.3676,28.9566],[94.3427,28.9839],[94.1873,29.0388]]]}},{"type":"Feature","properties":{"ac_name":"RUMGONG","ac_no":32,"ac_category":"GEN","st_name":"ARUNACHAL PRADESH"},"geometry":{"type":"Polygon","coordinates":[[[94.5351,28.8107],[94.5302,28.7815],[94.5225,28.7669],[94.5108,28.76],[94.4862,28.7318],[94.4792,28.7101],[94.4745,28.5894],[94.4809,28.4898],[94.4761,28.4637],[94.4471,28.4152],[94.49,28.373],[94.5595,28.3252],[94.5989,28.3203],[94.6399,28.2991],[94.6752,28.3039],[94.711,28.2954],[94.7298,28.2744],[94.731,28.2481],[94.7562,28.2207],[94.8481,28.2074],[94.8989,28.2145],[94.8905,28.2274],[94.8811,28.2326],[94.8924,28.2354],[94.8989,28.2323],[94.9059,28.2381],[94.9349,28.2445],[94.9358,28.2513],[94.9204,28.2726],[94.92,28.2958],[94.9128,28.3028],[94.898,28.3442],[94.8894,28.3512],[94.8789,28.4057],[94.8698,28.4134],[94.8402,28.4153],[94.8105,28.4239],[94.8063,28.4202],[94.7634,28.4237],[94.7462,28.4578],[94.7517,28.472],[94.7418,28.4983],[94.7469,28.5043],[94.7483,28.5214],[94.7588,28.534],[94.762,28.5472],[94.7775,28.5593],[94.7601,28.56],[94.7466,28.588],[94.7455,28.6864],[94.6966,28.7284],[94.6339,28.7667],[94.6333,28.7843],[94.6201,28.7939],[94.6078,28.7971],[94.5922,28.7919],[94.5615,28.8103],[94.5351,28.8107]]]}},{"type":"Feature","properties":{"ac_name":"MARIYANG-GEKU","ac_no":40,"ac_category":"GEN","st_name":"ARUNACHAL PRADESH"},"geometry":{"type":"Polygon","coordinates":[[[95.3781,28.6032],[95.3773,28.6162],[95.3669,28.6273],[95.3687,28.6463],[95.3606,28.6603],[95.3611,28.6867],[95.3539,28.7067],[95.37,28.7169],[95.3579,28.7114],[95.3495,28.7034],[95.2941,28.6842],[95.2672,28.667],[95.2083,28.6411],[95.1962,28.6229],[95.1878,28.5977],[95.1859,28.5349],[95.1693,28.5111],[95.1097,28.4601],[95.1045,28.4443],[95.0817,28.4151],[95.0824,28.3952],[95.1043,28.3788],[95.1174,28.3765],[95.1065,28.2634],[95.139,28.2288],[95.1308,28.2169],[95.1368,28.2045],[95.1687,28.2005],[95.1782,28.195],[95.1836,28.1742],[95.1924,28.1646],[95.2239,28.1521],[95.2357,28.1571],[95.2596,28.1785],[95.2695,28.1964],[95.2787,28.2021],[95.2957,28.1988],[95.3031,28.2025],[95.2982,28.2141],[95.3051,28.2239],[95.342,28.2446],[95.3462,28.284],[95.3832,28.3121],[95.3743,28.3214],[95.3774,28.3337],[95.3687,28.3442],[95.3692,28.3583],[95.3379,28.3658],[95.3392,28.4069],[95.3199,28.4263],[95.3394,28.4409],[95.3346,28.4526],[95.3388,28.4803],[95.353,28.4904],[95.3661,28.492],[95.3723,28.5001],[95.3766,28.509],[95.3955,28.5141],[95.3953,28.5315],[95.4118,28.5507],[95.4028,28.5699],[95.3837,28.5723],[95.3781,28.6032]]]}},{"type":"Feature","properties":{"ac_name":"DAMBUK","ac_no":42,"ac_category":"GEN","st_name":"ARUNACHAL PRADESH"},"geometry":{"type":"Polygon","coordinates":[[[95.3723,28.5001],[95.3661,28.492],[95.353,28.4904],[95.3388,28.4803],[95.3346,28.4526],[95.3394,28.4409],[95.3199,28.4263],[95.3392,28.4069],[95.3379,28.3658],[95.3692,28.3583],[95.3687,28.3442],[95.3774,28.3337],[95.3743,28.3214],[95.3832,28.3121],[95.3893,28.3076],[95.3984,28.315],[95.4366,28.3143],[95.4492,28.3002],[95.4509,28.2881],[95.4625,28.2773],[95.4603,28.2648],[95.4653,28.2575],[95.4819,28.2698],[95.4926,28.2683],[95.5142,28.2739],[95.5358,28.2848],[95.543,28.2798],[95.5408,28.2753],[95.5498,28.2757],[95.549,28.2683],[95.563,28.2573],[95.5597,28.1691],[95.5679,28.1342],[95.5677,28.0889],[95.5594,28.0416],[95.5422,28.0162],[95.5397,28.0047],[95.5673,27.9348],[95.5747,27.9398],[95.5864,27.9373],[95.6048,27.9548],[95.8208,27.9713],[95.971,27.9613],[95.9912,27.9748],[95.9874,28.0005],[95.9933,28.0524],[95.9799,28.0722],[96.0016,28.0956],[96.005,28.1111],[96.0253,28.13],[96.0261,28.1356],[95.9571,28.1339],[95.8724,28.0937],[95.8322,28.091],[95.7984,28.0806],[95.7889,28.0836],[95.7819,28.1041],[95.7734,28.111],[95.7574,28.097],[95.7456,28.0985],[95.7388,28.1049],[95.7448,28.1295],[95.7273,28.1429],[95.7259,28.1585],[95.7066,28.1975],[95.6981,28.2336],[95.7541,28.3046],[95.8395,28.4356],[95.8333,28.4426],[95.8305,28.4645],[95.8094,28.4911],[95.7809,28.5093],[95.7617,28.514],[95.7461,28.5281],[95.7287,28.5347],[95.6961,28.5268],[95.6661,28.5339],[95.6036,28.5589],[95.5725,28.5634],[95.5522,28.5717],[95.5165,28.5968],[95.4892,28.5939],[95.474,28.5988],[95.4538,28.6141],[95.439,28.6414],[95.4313,28.6435],[95.4192,28.6349],[95.3991,28.5942],[95.3902,28.593],[95.3781,28.6032],[95.3837,28.5723],[95.4028,28.5699],[95.4118,28.5507],[95.3953,28.5315],[95.3955,28.5141],[95.3766,28.509],[95.3723,28.5001]]]}},{"type":"Feature","properties":{"ac_name":"ROING","ac_no":43,"ac_category":"GEN","st_name":"ARUNACHAL PRADESH"},"geometry":{"type":"Polygon","coordinates":[[[96.326,28.5241],[96.3244,28.49],[96.2991,28.4604],[96.2706,28.4542],[96.2397,28.4539],[96.1829,28.4066],[96.1527,28.4118],[96.1061,28.4305],[96.0664,28.4352],[96.0375,28.4318],[95.951,28.3804],[95.9373,28.3783],[95.9221,28.3826],[95.8842,28.42],[95.8395,28.4356],[95.7541,28.3046],[95.6981,28.2336],[95.7066,28.1975],[95.7259,28.1585],[95.7273,28.1429],[95.7448,28.1295],[95.7388,28.1049],[95.7456,28.0985],[95.7574,28.097],[95.7734,28.111],[95.7819,28.1041],[95.7889,28.0836],[95.7984,28.0806],[95.8322,28.091],[95.8724,28.0937],[95.9571,28.1339],[96.0261,28.1356],[96.0327,28.1471],[96.0302,28.1602],[96.0466,28.1716],[96.0517,28.1973],[96.0827,28.1894],[96.1045,28.1897],[96.1176,28.1779],[96.1419,28.17],[96.1438,28.1753],[96.1684,28.1871],[96.2154,28.231],[96.2301,28.2388],[96.2678,28.239],[96.2382,28.2996],[96.2552,28.3092],[96.2667,28.3304],[96.2904,28.3447],[96.2965,28.3667],[96.304,28.374],[96.3137,28.3835],[96.3031,28.3998],[96.2623,28.4086],[96.34,28.4652],[96.3655,28.4747],[96.3715,28.4822],[96.3652,28.5],[96.326,28.5241]]]}},{"type":"Feature","properties":{"ac_name":"NACHO","ac_no":22,"ac_category":"GEN","st_name":"ARUNACHAL PRADESH"},"geometry":{"type":"Polygon","coordinates":[[[93.9621,28.7124],[93.9363,28.6764],[93.9213,28.6697],[93.8671,28.7031],[93.8459,28.7068],[93.7771,28.668],[93.7335,28.6888],[93.6875,28.6789],[93.6221,28.6573],[93.5359,28.6585],[93.5266,28.6609],[93.5206,28.6735],[93.5114,28.6795],[93.4933,28.6837],[93.4814,28.6747],[93.4764,28.6533],[93.4689,28.6518],[93.459,28.6681],[93.4479,28.6758],[93.4141,28.6526],[93.3531,28.6386],[93.3392,28.6399],[93.3299,28.608],[93.3021,28.5993],[93.2997,28.5918],[93.3074,28.566],[93.291,28.5431],[93.2779,28.5045],[93.2373,28.4824],[93.2095,28.4519],[93.1846,28.4396],[93.183,28.4324],[93.2277,28.4079],[93.2334,28.4002],[93.2211,28.361],[93.2216,28.335],[93.2265,28.3357],[93.2293,28.3445],[93.2457,28.3609],[93.2597,28.3671],[93.2828,28.3649],[93.2942,28.3404],[93.3369,28.3534],[93.3442,28.3455],[93.3604,28.3437],[93.3608,28.3299],[93.3785,28.3235],[93.3788,28.3116],[93.3839,28.3128],[93.3862,28.3064],[93.4085,28.3068],[93.4143,28.2885],[93.4317,28.28],[93.4452,28.2832],[93.453,28.272],[93.464,28.2731],[93.4761,28.2812],[93.497,28.2768],[93.5124,28.2681],[93.5318,28.2702],[93.5453,28.2673],[93.5543,28.2592],[93.5651,28.2638],[93.5668,28.259],[93.5907,28.2706],[93.6133,28.2725],[93.6277,28.3069],[93.6602,28.3047],[93.6677,28.3154],[93.6799,28.322],[93.722,28.2913],[93.7461,28.2846],[93.7656,28.2629],[93.8235,28.2465],[93.8682,28.2523],[93.8785,28.26],[93.8903,28.29],[93.9003,28.3007],[93.9318,28.3183],[93.9871,28.3733],[94.0046,28.4065],[94.0144,28.4416],[94.0111,28.4853],[94.0286,28.519],[94.0592,28.5488],[94.0014,28.5778],[94.0061,28.6218],[94.0233,28.6513],[94.0156,28.6686],[93.9621,28.7124]]]}},{"type":"Feature","properties":{"ac_name":"HAUYULIANG","ac_no":45,"ac_category":"GEN","st_name":"ARUNACHAL PRADESH"},"geometry":{"type":"Polygon","coordinates":[[[96.304,28.374],[96.3285,28.3544],[96.3371,28.3396],[96.3344,28.328],[96.3017,28.2838],[96.295,28.2679],[96.2954,28.2493],[96.2978,28.2366],[96.3355,28.1851],[96.3355,28.1722],[96.3259,28.1479],[96.3272,28.1312],[96.3023,28.1058],[96.273,28.0913],[96.2733,28.0804],[96.2878,28.0618],[96.3709,27.9979],[96.3918,27.975],[96.3965,27.9575],[96.4164,27.9233],[96.4309,27.914],[96.5288,27.9007],[96.5859,27.8533],[96.6083,27.8598],[96.6139,27.8576],[96.6202,27.8482],[96.6191,27.8359],[96.6302,27.8275],[96.6344,27.8151],[96.6346,27.8037],[96.6285,27.7955],[96.6126,27.7739],[96.6133,27.7661],[96.6398,27.7379],[96.6206,27.7203],[96.6162,27.7094],[96.6189,27.6987],[96.6292,27.6847],[96.6487,27.6739],[96.68,27.669],[96.6999,27.6605],[96.7055,27.6508],[96.7288,27.6454],[96.7564,27.6214],[96.7683,27.6162],[96.7826,27.6426],[96.8023,27.6326],[96.8259,27.6328],[96.8488,27.6241],[96.8613,27.631],[96.8965,27.616],[96.9035,27.6138],[96.9126,27.6288],[96.9214,27.6329],[96.9351,27.6617],[96.983,27.6665],[96.9854,27.6859],[97.0084,27.7103],[97.0193,27.7395],[97.0315,27.7429],[97.0321,27.7498],[97.0403,27.7481],[97.0475,27.7393],[97.0615,27.7486],[97.0719,27.7387],[97.0877,27.7342],[97.0976,27.7505],[97.1009,27.7667],[97.0946,27.7801],[97.0986,27.785],[97.1204,27.79],[97.1335,27.8066],[97.1565,27.8141],[97.1651,27.8209],[97.164,27.8277],[97.1832,27.8374],[97.1988,27.8559],[97.2527,27.901],[97.3049,27.9213],[97.3201,27.9031],[97.3173,27.8807],[97.3396,27.8852],[97.3609,27.8762],[97.3851,27.8874],[97.3747,27.9091],[97.3838,27.9177],[97.3718,27.9356],[97.3744,27.9775],[97.3875,28.0033],[97.4079,28.0064],[97.4115,28.0154],[97.3949,28.0255],[97.3735,28.0306],[97.3644,28.044],[97.37,28.0618],[97.3282,28.057],[97.3083,28.0617],[97.3043,28.0689],[97.3068,28.0851],[97.3357,28.1114],[97.3367,28.1164],[97.3214,28.1402],[97.3275,28.1549],[97.3604,28.1884],[97.3688,28.1924],[97.389,28.1831],[97.3972,28.1854],[97.3973,28.1924],[97.3715,28.2176],[97.3483,28.2264],[97.3244,28.2431],[97.31,28.2441],[97.3033,28.2563],[97.2791,28.2687],[97.2384,28.2677],[97.2214,28.2926],[97.1898,28.2871],[97.1711,28.2919],[97.1493,28.327],[97.1234,28.3493],[97.0901,28.3629],[97.0493,28.3513],[97.0202,28.3195],[96.994,28.3095],[96.9716,28.3171],[96.9504,28.3334],[96.9235,28.3386],[96.9176,28.357],[96.8964,28.3796],[96.8603,28.3721],[96.85,28.3621],[96.8094,28.362],[96.7722,28.3681],[96.7611,28.3983],[96.7491,28.4159],[96.7321,28.425],[96.7043,28.4318],[96.6628,28.4603],[96.5779,28.4578],[96.5085,28.413],[96.4783,28.4194],[96.4566,28.414],[96.4303,28.3865],[96.4211,28.3457],[96.4109,28.3415],[96.3976,28.3393],[96.3904,28.3575],[96.3783,28.3589],[96.3693,28.3893],[96.3137,28.3835],[96.304,28.374]]]}},{"type":"Feature","properties":{"ac_name":"PANGIN","ac_no":35,"ac_category":"GEN","st_name":"ARUNACHAL PRADESH"},"geometry":{"type":"Polygon","coordinates":[[[95.1097,28.4601],[95.1016,28.4835],[95.1105,28.5008],[95.0841,28.5267],[95.0382,28.5155],[94.9888,28.5291],[94.9724,28.5654],[94.9578,28.5729],[94.9396,28.5692],[94.9016,28.5488],[94.8781,28.5524],[94.8578,28.5639],[94.8368,28.5692],[94.8196,28.5681],[94.7956,28.5463],[94.7738,28.5353],[94.7588,28.534],[94.7483,28.5214],[94.7469,28.5043],[94.7418,28.4983],[94.7517,28.472],[94.7462,28.4578],[94.7634,28.4237],[94.8063,28.4202],[94.8105,28.4239],[94.8402,28.4153],[94.8698,28.4134],[94.8789,28.4057],[94.8894,28.3512],[94.898,28.3442],[94.9128,28.3028],[94.92,28.2958],[94.9204,28.2726],[94.9358,28.2513],[94.9349,28.2445],[94.9059,28.2381],[94.8989,28.2323],[94.8924,28.2354],[94.8811,28.2326],[94.8905,28.2274],[94.8989,28.2145],[94.9141,28.1962],[94.9081,28.1589],[94.9169,28.1465],[94.9312,28.1449],[94.9489,28.129],[94.928,28.0967],[94.9154,28.0914],[94.9,28.0768],[94.9174,28.0607],[94.9241,28.0655],[94.9963,28.0593],[95.0227,28.0488],[95.0424,28.0276],[95.0546,28.0016],[95.0853,28.0246],[95.0998,28.0545],[95.0999,28.0688],[95.1022,28.0847],[95.1237,28.1324],[95.1309,28.1926],[95.1368,28.2045],[95.1308,28.2169],[95.139,28.2288],[95.1065,28.2634],[95.1174,28.3765],[95.1043,28.3788],[95.0824,28.3952],[95.0817,28.4151],[95.1045,28.4443],[95.1097,28.4601]]]}},{"type":"Feature","properties":{"ac_name":"TEZU","ac_no":44,"ac_category":"GEN","st_name":"ARUNACHAL PRADESH"},"geometry":{"type":"Polygon","coordinates":[[[96.0261,28.1356],[96.0253,28.13],[96.005,28.1111],[96.0016,28.0956],[95.9799,28.0722],[95.9933,28.0524],[95.9874,28.0005],[95.9912,27.9748],[95.971,27.9613],[95.9478,27.9371],[95.9484,27.9318],[95.9544,27.9315],[95.9482,27.924],[95.9525,27.9204],[95.9351,27.9092],[95.9407,27.9057],[95.9297,27.9031],[95.9374,27.8984],[95.9283,27.8952],[95.926,27.8988],[95.919,27.895],[95.9232,27.8879],[95.9153,27.8892],[95.9249,27.8819],[95.9153,27.8836],[95.9106,27.8704],[95.9064,27.866],[95.901,27.8678],[95.9046,27.862],[95.895,27.8622],[95.8951,27.8574],[95.8901,27.8601],[95.887,27.8532],[95.9186,27.85],[95.9609,27.8385],[95.9948,27.8445],[96.0444,27.8505],[96.0716,27.8473],[96.1673,27.8622],[96.1965,27.8606],[96.2616,27.845],[96.2968,27.8224],[96.3195,27.8144],[96.425,27.8054],[96.4765,27.7928],[96.5348,27.7859],[96.6285,27.7955],[96.6346,27.8037],[96.6344,27.8151],[96.6302,27.8275],[96.6191,27.8359],[96.6202,27.8482],[96.6139,27.8576],[96.6083,27.8598],[96.5859,27.8533],[96.5288,27.9007],[96.4309,27.914],[96.4164,27.9233],[96.3965,27.9575],[96.3918,27.975],[96.3709,27.9979],[96.2878,28.0618],[96.2733,28.0804],[96.273,28.0913],[96.3023,28.1058],[96.3272,28.1312],[96.3259,28.1479],[96.3355,28.1722],[96.3355,28.1851],[96.2978,28.2366],[96.2954,28.2493],[96.295,28.2679],[96.3017,28.2838],[96.3344,28.328],[96.3371,28.3396],[96.3285,28.3544],[96.304,28.374],[96.2965,28.3667],[96.2904,28.3447],[96.2667,28.3304],[96.2552,28.3092],[96.2382,28.2996],[96.2678,28.239],[96.2301,28.2388],[96.2154,28.231],[96.1684,28.1871],[96.1438,28.1753],[96.1419,28.17],[96.1176,28.1779],[96.1045,28.1897],[96.0827,28.1894],[96.0517,28.1973],[96.0466,28.1716],[96.0302,28.1602],[96.0327,28.1471],[96.0261,28.1356]]]}},{"type":"Feature","properties":{"ac_name":"TALIHA","ac_no":23,"ac_category":"GEN","st_name":"ARUNACHAL PRADESH"},"geometry":{"type":"Polygon","coordinates":[[[94.0592,28.5488],[94.0286,28.519],[94.0111,28.4853],[94.0144,28.4416],[94.0046,28.4065],[93.9871,28.3733],[93.9318,28.3183],[93.9003,28.3007],[93.8903,28.29],[93.8785,28.26],[93.8682,28.2523],[93.9588,28.2045],[93.9934,28.1812],[94.0062,28.1608],[94.0243,28.0827],[94.0723,28.0614],[94.0909,28.0473],[94.108,28.0491],[94.1342,28.0794],[94.1821,28.1196],[94.1854,28.1346],[94.1833,28.1505],[94.3649,28.2073],[94.3692,28.2442],[94.3834,28.2581],[94.4169,28.2543],[94.3941,28.2636],[94.3898,28.2786],[94.3748,28.295],[94.3776,28.309],[94.4032,28.3279],[94.4016,28.3385],[94.3861,28.3359],[94.3766,28.3406],[94.3679,28.3532],[94.3296,28.3579],[94.3221,28.3687],[94.3085,28.3756],[94.3017,28.396],[94.3085,28.417],[94.2928,28.4288],[94.2675,28.4323],[94.2417,28.4468],[94.2316,28.4282],[94.2192,28.4363],[94.1845,28.4295],[94.1733,28.4351],[94.1626,28.4324],[94.1518,28.4362],[94.1391,28.4445],[94.1264,28.4671],[94.1148,28.4758],[94.1056,28.4976],[94.1073,28.5244],[94.0968,28.5361],[94.0851,28.5338],[94.0592,28.5488]]]}},{"type":"Feature","properties":{"ac_name":"LIROMOBA","ac_no":27,"ac_category":"GEN","st_name":"ARUNACHAL PRADESH"},"geometry":{"type":"Polygon","coordinates":[[[94.4471,28.4152],[94.44,28.3863],[94.4016,28.3385],[94.4032,28.3279],[94.3776,28.309],[94.3748,28.295],[94.3898,28.2786],[94.3941,28.2636],[94.4169,28.2543],[94.3834,28.2581],[94.3692,28.2442],[94.3649,28.2073],[94.3564,28.1986],[94.3744,28.1811],[94.3777,28.1587],[94.3914,28.142],[94.3865,28.1211],[94.3976,28.1048],[94.3918,28.0828],[94.4083,28.0692],[94.4543,28.0544],[94.5194,28.0562],[94.5615,28.0714],[94.6304,28.1082],[94.6774,28.1205],[94.6962,28.1288],[94.7105,28.1482],[94.7093,28.1653],[94.695,28.1946],[94.731,28.2481],[94.7298,28.2744],[94.711,28.2954],[94.6752,28.3039],[94.6399,28.2991],[94.5989,28.3203],[94.5595,28.3252],[94.49,28.373],[94.4471,28.4152]]]}},{"type":"Feature","properties":{"ac_name":"MEBO","ac_no":39,"ac_category":"GEN","st_name":"ARUNACHAL PRADESH"},"geometry":{"type":"Polygon","coordinates":[[[95.3832,28.3121],[95.3462,28.284],[95.342,28.2446],[95.3051,28.2239],[95.2982,28.2141],[95.3031,28.2025],[95.2957,28.1988],[95.2787,28.2021],[95.2695,28.1964],[95.2817,28.1805],[95.2917,28.1753],[95.3359,28.1722],[95.3593,28.1618],[95.3663,28.153],[95.3722,28.1171],[95.3944,28.1044],[95.436,28.0913],[95.4631,28.0683],[95.4695,28.0602],[95.4709,28.0471],[95.4649,28.0243],[95.4638,27.9874],[95.4776,27.8808],[95.4718,27.8672],[95.5141,27.8794],[95.5337,27.8981],[95.5434,27.8991],[95.5452,27.9116],[95.563,27.9191],[95.5673,27.9348],[95.5397,28.0047],[95.5422,28.0162],[95.5594,28.0416],[95.5677,28.0889],[95.5679,28.1342],[95.5597,28.1691],[95.563,28.2573],[95.549,28.2683],[95.5498,28.2757],[95.5408,28.2753],[95.543,28.2798],[95.5358,28.2848],[95.5142,28.2739],[95.4926,28.2683],[95.4819,28.2698],[95.4653,28.2575],[95.4603,28.2648],[95.4625,28.2773],[95.4509,28.2881],[95.4492,28.3002],[95.4366,28.3143],[95.3984,28.315],[95.3893,28.3076],[95.3832,28.3121]]]}},{"type":"Feature","properties":{"ac_name":"KOLORIANG","ac_no":21,"ac_category":"GEN","st_name":"ARUNACHAL PRADESH"},"geometry":{"type":"Polygon","coordinates":[[[93.464,28.2731],[93.453,28.272],[93.4452,28.2832],[93.4317,28.28],[93.4143,28.2885],[93.4085,28.3068],[93.3862,28.3064],[93.3839,28.3128],[93.3788,28.3116],[93.3785,28.3235],[93.3608,28.3299],[93.3604,28.3437],[93.3442,28.3455],[93.3369,28.3534],[93.2942,28.3404],[93.2828,28.3649],[93.2597,28.3671],[93.2457,28.3609],[93.2293,28.3445],[93.2265,28.3357],[93.2216,28.335],[93.2086,28.3227],[93.1955,28.3175],[93.1567,28.318],[93.1266,28.3263],[93.0972,28.3066],[93.0739,28.3088],[93.0481,28.302],[93.0255,28.3028],[93.0355,28.2627],[93.0021,28.2303],[92.9917,28.234],[92.9878,28.2509],[92.9664,28.2614],[92.9148,28.2346],[92.9071,28.2148],[92.897,28.2042],[92.8298,28.1711],[92.8231,28.1735],[92.818,28.2012],[92.8015,28.2019],[92.7849,28.1834],[92.7384,28.1512],[92.6889,28.1254],[92.682,28.1176],[92.6629,28.0673],[92.6647,28.0624],[92.683,28.0582],[92.7112,28.0328],[92.741,27.9889],[92.7342,27.9767],[92.7568,27.9578],[92.7812,27.956],[92.7861,27.952],[92.8169,27.9606],[92.8329,27.9572],[92.8373,27.9617],[92.8378,27.9606],[92.8603,27.9582],[92.86,27.9501],[92.8656,27.9459],[92.8689,27.9493],[92.8889,27.9366],[92.9315,27.925],[92.933,27.9173],[92.9272,27.9103],[92.9314,27.8783],[92.9384,27.8713],[92.9442,27.8507],[92.9463,27.8466],[92.9605,27.8455],[92.9662,27.8309],[92.9789,27.8237],[93.0035,27.8283],[93.0116,27.8225],[93.0747,27.827],[93.096,27.8093],[93.1306,27.8224],[93.1529,27.8212],[93.1572,27.8176],[93.1759,27.8214],[93.1867,27.8322],[93.1919,27.8461],[93.2173,27.8322],[93.2288,27.8188],[93.2936,27.823],[93.3475,27.8388],[93.4115,27.8421],[93.4519,27.8565],[93.4815,27.8622],[93.5065,27.8611],[93.4993,27.9039],[93.4879,27.9144],[93.4926,27.9286],[93.5249,27.9539],[93.5526,27.9835],[93.5711,28.0148],[93.5837,28.0177],[93.6059,28.0129],[93.576,28.0845],[93.5355,28.1302],[93.5058,28.1778],[93.464,28.2731]]]}},{"type":"Feature","properties":{"ac_name":"ALONG WEST","ac_no":30,"ac_category":"GEN","st_name":"ARUNACHAL PRADESH"},"geometry":{"type":"Polygon","coordinates":[[[94.7562,28.2207],[94.731,28.2481],[94.695,28.1946],[94.7093,28.1653],[94.7105,28.1482],[94.6962,28.1288],[94.6774,28.1205],[94.6815,28.0949],[94.6976,28.0646],[94.7061,28.0583],[94.7289,28.0481],[94.7765,28.0508],[94.763,28.0674],[94.758,28.0871],[94.7705,28.1262],[94.7564,28.1472],[94.7527,28.1669],[94.7589,28.1963],[94.7531,28.2125],[94.7562,28.2207]]]}},{"type":"Feature","properties":{"ac_name":"TALI","ac_no":20,"ac_category":"GEN","st_name":"ARUNACHAL PRADESH"},"geometry":{"type":"Polygon","coordinates":[[[93.497,28.2768],[93.4761,28.2812],[93.464,28.2731],[93.5058,28.1778],[93.5355,28.1302],[93.576,28.0845],[93.6059,28.0129],[93.6081,27.9649],[93.6311,27.9794],[93.7109,27.9745],[93.7241,27.9519],[93.744,27.9379],[93.784,27.9408],[93.8287,27.9367],[93.8542,27.9076],[93.8773,27.9016],[93.9257,27.8711],[93.9272,27.8851],[93.9218,27.8928],[93.8907,27.8973],[93.8835,27.9007],[93.8826,27.9097],[93.8909,27.9163],[93.911,27.9207],[93.938,27.9189],[93.9611,27.923],[93.9804,27.9426],[94.0103,27.9501],[94.0155,27.9553],[93.9878,27.975],[93.949,27.9807],[93.941,28.0004],[93.9124,28.0128],[93.9097,28.0294],[93.888,28.0379],[93.874,28.0534],[93.8747,28.0732],[93.8546,28.0813],[93.8808,28.1078],[93.8764,28.1209],[93.8926,28.1288],[93.8465,28.2078],[93.8418,28.2363],[93.8235,28.2465],[93.7656,28.2629],[93.7461,28.2846],[93.722,28.2913],[93.6799,28.322],[93.6677,28.3154],[93.6602,28.3047],[93.6277,28.3069],[93.6133,28.2725],[93.5907,28.2706],[93.5668,28.259],[93.5651,28.2638],[93.5543,28.2592],[93.5453,28.2673],[93.5318,28.2702],[93.5124,28.2681],[93.497,28.2768]]]}},{"type":"Feature","properties":{"ac_name":"PASIGHAT EAST","ac_no":38,"ac_category":"GEN","st_name":"ARUNACHAL PRADESH"},"geometry":{"type":"Polygon","coordinates":[[[95.2695,28.1964],[95.2596,28.1785],[95.2357,28.1571],[95.2239,28.1521],[95.1924,28.1646],[95.1836,28.1742],[95.1782,28.195],[95.1687,28.2005],[95.1368,28.2045],[95.1309,28.1926],[95.1237,28.1324],[95.1022,28.0847],[95.0999,28.0688],[95.1394,28.0698],[95.1615,28.062],[95.2377,28.0189],[95.2635,28.0103],[95.3353,28.0057],[95.4163,28.0088],[95.4516,28.0015],[95.4638,27.9874],[95.4649,28.0243],[95.4709,28.0471],[95.4695,28.0602],[95.4631,28.0683],[95.436,28.0913],[95.3944,28.1044],[95.3722,28.1171],[95.3663,28.153],[95.3593,28.1618],[95.3359,28.1722],[95.2917,28.1753],[95.2817,28.1805],[95.2695,28.1964]]]}},{"type":"Feature","properties":{"ac_name":"ALONG EAST","ac_no":31,"ac_category":"GEN","st_name":"ARUNACHAL PRADESH"},"geometry":{"type":"Polygon","coordinates":[[[94.8989,28.2145],[94.8481,28.2074],[94.7562,28.2207],[94.7531,28.2125],[94.7589,28.1963],[94.7527,28.1669],[94.7564,28.1472],[94.7705,28.1262],[94.758,28.0871],[94.763,28.0674],[94.7765,28.0508],[94.8714,28.0431],[94.903,28.0522],[94.9174,28.0607],[94.9,28.0768],[94.9154,28.0914],[94.928,28.0967],[94.9489,28.129],[94.9312,28.1449],[94.9169,28.1465],[94.9081,28.1589],[94.9141,28.1962],[94.8989,28.2145]]]}},{"type":"Feature","properties":{"ac_name":"DAPORIJO","ac_no":24,"ac_category":"GEN","st_name":"ARUNACHAL PRADESH"},"geometry":{"type":"Polygon","coordinates":[[[93.8682,28.2523],[93.8235,28.2465],[93.8418,28.2363],[93.8465,28.2078],[93.8926,28.1288],[93.8764,28.1209],[93.8808,28.1078],[93.8546,28.0813],[93.8747,28.0732],[93.874,28.0534],[93.888,28.0379],[93.9097,28.0294],[93.9124,28.0128],[93.941,28.0004],[93.949,27.9807],[93.9878,27.975],[94.0155,27.9553],[94.018,27.9548],[94.0255,27.9657],[94.0516,27.98],[94.054,27.9865],[94.0498,28.0028],[94.0159,28.0039],[94.0129,28.0073],[94.0178,28.0256],[94.0296,28.0317],[94.0642,28.0235],[94.0914,27.9882],[94.1411,27.9598],[94.1684,27.9613],[94.2088,27.9704],[94.2328,27.9684],[94.242,27.9694],[94.2369,27.9806],[94.2433,28.0136],[94.2164,28.0639],[94.2139,28.0906],[94.1901,28.1103],[94.1854,28.1346],[94.1821,28.1196],[94.1342,28.0794],[94.108,28.0491],[94.0909,28.0473],[94.0723,28.0614],[94.0243,28.0827],[94.0062,28.1608],[93.9934,28.1812],[93.9588,28.2045],[93.8682,28.2523]]]}},{"type":"Feature","properties":{"ac_name":"DAMPORIJO","ac_no":26,"ac_category":"GEN","st_name":"ARUNACHAL PRADESH"},"geometry":{"type":"Polygon","coordinates":[[[94.3649,28.2073],[94.1833,28.1505],[94.1854,28.1346],[94.1901,28.1103],[94.2139,28.0906],[94.2164,28.0639],[94.2433,28.0136],[94.2369,27.9806],[94.242,27.9694],[94.2328,27.9684],[94.2473,27.9642],[94.2755,27.9447],[94.2944,27.925],[94.3048,27.9022],[94.2376,27.8162],[94.239,27.8094],[94.2684,27.812],[94.3182,27.7763],[94.3293,27.7607],[94.335,27.7602],[94.366,27.7797],[94.382,27.7974],[94.3947,27.7966],[94.4139,27.8098],[94.4385,27.8129],[94.4441,27.8287],[94.4562,27.8284],[94.4699,27.8382],[94.4772,27.8353],[94.4924,27.8405],[94.5037,27.8364],[94.5335,27.85],[94.5771,27.8561],[94.5891,27.8617],[94.5948,27.8708],[94.5929,27.8901],[94.558,27.9025],[94.5425,27.9255],[94.5227,27.9665],[94.532,27.986],[94.5129,28.0155],[94.4842,28.0218],[94.467,28.0488],[94.4543,28.0544],[94.4083,28.0692],[94.3918,28.0828],[94.3976,28.1048],[94.3865,28.1211],[94.3914,28.142],[94.3777,28.1587],[94.3744,28.1811],[94.3564,28.1986],[94.3649,28.2073]]]}},{"type":"Feature","properties":{"ac_name":"BASAR","ac_no":29,"ac_category":"GEN","st_name":"ARUNACHAL PRADESH"},"geometry":{"type":"Polygon","coordinates":[[[94.9174,28.0607],[94.903,28.0522],[94.8714,28.0431],[94.7765,28.0508],[94.7289,28.0481],[94.7061,28.0583],[94.6976,28.0646],[94.6815,28.0949],[94.6774,28.1205],[94.6304,28.1082],[94.5615,28.0714],[94.5194,28.0562],[94.4543,28.0544],[94.467,28.0488],[94.4842,28.0218],[94.5129,28.0155],[94.532,27.986],[94.5227,27.9665],[94.5425,27.9255],[94.558,27.9025],[94.5929,27.8901],[94.6581,27.884],[94.6705,27.8609],[94.6824,27.851],[94.7096,27.8322],[94.7353,27.8218],[94.8096,27.808],[94.8949,27.8083],[94.8907,27.81],[94.9008,27.8291],[94.9089,27.8339],[94.9051,27.8424],[94.9289,27.8571],[94.9091,27.8599],[94.9055,27.8804],[94.9242,27.8895],[94.9268,27.906],[94.9468,27.9373],[94.9461,27.9493],[94.9534,27.9557],[94.9565,27.9743],[94.957,27.9809],[94.9215,27.9975],[94.9001,27.9958],[94.8803,28.0004],[94.8864,28.0123],[94.9017,28.0204],[94.9095,28.035],[94.9304,28.0479],[94.9174,28.0607]]]}},{"type":"Feature","properties":{"ac_name":"PASIGHAT WEST","ac_no":37,"ac_category":"GEN","st_name":"ARUNACHAL PRADESH"},"geometry":{"type":"Polygon","coordinates":[[[95.4638,27.9874],[95.4516,28.0015],[95.4163,28.0088],[95.3353,28.0057],[95.2635,28.0103],[95.2377,28.0189],[95.1615,28.062],[95.1394,28.0698],[95.0999,28.0688],[95.0998,28.0545],[95.0853,28.0246],[95.0546,28.0016],[95.0699,27.9492],[95.0794,27.8427],[95.0891,27.82],[95.1024,27.8049],[95.309,27.868],[95.3795,27.8393],[95.4718,27.8672],[95.4776,27.8808],[95.4638,27.9874]]]}},{"type":"Feature","properties":{"ac_name":"NARI-KOYU","ac_no":36,"ac_category":"GEN","st_name":"ARUNACHAL PRADESH"},"geometry":{"type":"Polygon","coordinates":[[[94.9241,28.0655],[94.9174,28.0607],[94.9304,28.0479],[94.9095,28.035],[94.9017,28.0204],[94.8864,28.0123],[94.8803,28.0004],[94.9001,27.9958],[94.9215,27.9975],[94.957,27.9809],[94.9565,27.9743],[94.9534,27.9557],[94.9461,27.9493],[94.9468,27.9373],[94.9268,27.906],[94.9242,27.8895],[94.9055,27.8804],[94.9091,27.8599],[94.9289,27.8571],[94.9051,27.8424],[94.9089,27.8339],[94.9008,27.8291],[94.8907,27.81],[94.8949,27.8083],[94.8956,27.8013],[94.8842,27.7847],[94.873,27.7802],[94.8591,27.7575],[94.8702,27.7333],[95.1024,27.8049],[95.0891,27.82],[95.0794,27.8427],[95.0699,27.9492],[95.0546,28.0016],[95.0424,28.0276],[95.0227,28.0488],[94.9963,28.0593],[94.9241,28.0655]]]}},{"type":"Feature","properties":{"ac_name":"CHOWKHAM","ac_no":46,"ac_category":"GEN","st_name":"ARUNACHAL PRADESH"},"geometry":{"type":"Polygon","coordinates":[[[96.6285,27.7955],[96.5348,27.7859],[96.4765,27.7928],[96.425,27.8054],[96.3195,27.8144],[96.2968,27.8224],[96.2616,27.845],[96.1965,27.8606],[96.1673,27.8622],[96.0716,27.8473],[96.0444,27.8505],[95.9948,27.8445],[95.9976,27.8318],[95.9907,27.81],[95.9693,27.7974],[95.9606,27.7834],[95.9614,27.7667],[95.9758,27.7422],[96.0026,27.7188],[96.0187,27.7116],[96.1254,27.693],[96.1215,27.6763],[96.087,27.6195],[96.0965,27.6136],[96.1257,27.6197],[96.1331,27.6152],[96.1327,27.6065],[96.1699,27.598],[96.2158,27.5773],[96.2247,27.5683],[96.2642,27.5634],[96.2684,27.5579],[96.2889,27.5555],[96.3276,27.5793],[96.3362,27.5985],[96.3483,27.6062],[96.3518,27.6246],[96.3727,27.645],[96.3837,27.6389],[96.3941,27.6488],[96.4397,27.6525],[96.4524,27.6412],[96.4802,27.6461],[96.5085,27.6432],[96.5191,27.6367],[96.5306,27.6468],[96.5495,27.6469],[96.5664,27.6569],[96.582,27.6562],[96.5962,27.6541],[96.6088,27.6467],[96.6138,27.6382],[96.6407,27.628],[96.6581,27.6338],[96.6691,27.6474],[96.6822,27.6548],[96.6999,27.6605],[96.68,27.669],[96.6487,27.6739],[96.6292,27.6847],[96.6189,27.6987],[96.6162,27.7094],[96.6206,27.7203],[96.6398,27.7379],[96.6133,27.7661],[96.6126,27.7739],[96.6285,27.7955]]]}},{"type":"Feature","properties":{"ac_name":"RAGA","ac_no":25,"ac_category":"GEN","st_name":"ARUNACHAL PRADESH"},"geometry":{"type":"Polygon","coordinates":[[[94.2328,27.9684],[94.2088,27.9704],[94.1684,27.9613],[94.1411,27.9598],[94.0914,27.9882],[94.0642,28.0235],[94.0296,28.0317],[94.0178,28.0256],[94.0129,28.0073],[94.0159,28.0039],[94.0498,28.0028],[94.054,27.9865],[94.0516,27.98],[94.0255,27.9657],[94.018,27.9548],[94.0384,27.9568],[94.0681,27.9392],[94.0476,27.912],[94.0561,27.9063],[94.0601,27.8695],[94.0741,27.8494],[94.0964,27.8599],[94.122,27.8619],[94.1285,27.8579],[94.146,27.867],[94.1601,27.8439],[94.1704,27.8455],[94.1918,27.8366],[94.1934,27.8115],[94.239,27.8094],[94.2376,27.8162],[94.3048,27.9022],[94.2944,27.925],[94.2755,27.9447],[94.2473,27.9642],[94.2328,27.9684]]]}},{"type":"Feature","properties":{"ac_name":"NAMSAI","ac_no":47,"ac_category":"GEN","st_name":"ARUNACHAL PRADESH"},"geometry":{"type":"Polygon","coordinates":[[[95.9948,27.8445],[95.9609,27.8385],[95.9186,27.85],[95.887,27.8532],[95.8706,27.8328],[95.8377,27.8241],[95.838,27.8103],[95.8169,27.8032],[95.7995,27.7732],[95.7758,27.7535],[95.7788,27.7331],[95.7528,27.7246],[95.7535,27.719],[95.7654,27.7147],[95.7627,27.7091],[95.7681,27.7021],[95.7638,27.6935],[95.768,27.6868],[95.7832,27.6871],[95.7905,27.68],[95.7735,27.6719],[95.7705,27.6582],[95.7738,27.6517],[95.7957,27.6416],[95.7965,27.6377],[95.7884,27.6337],[95.8346,27.6365],[95.9117,27.6609],[95.9358,27.6608],[95.9739,27.659],[96.0278,27.6453],[96.057,27.6359],[96.087,27.6195],[96.1215,27.6763],[96.1254,27.693],[96.0187,27.7116],[96.0026,27.7188],[95.9758,27.7422],[95.9614,27.7667],[95.9606,27.7834],[95.9693,27.7974],[95.9907,27.81],[95.9976,27.8318],[95.9948,27.8445]]]}},{"type":"Feature","properties":{"ac_name":"NYAPIN","ac_no":19,"ac_category":"GEN","st_name":"ARUNACHAL PRADESH"},"geometry":{"type":"Polygon","coordinates":[[[93.6081,27.9649],[93.6059,28.0129],[93.5837,28.0177],[93.5711,28.0148],[93.5526,27.9835],[93.5249,27.9539],[93.4926,27.9286],[93.4879,27.9144],[93.4993,27.9039],[93.5065,27.8611],[93.4815,27.8622],[93.4519,27.8565],[93.4115,27.8421],[93.3475,27.8388],[93.2936,27.823],[93.2288,27.8188],[93.2388,27.8009],[93.2327,27.7791],[93.2234,27.7667],[93.2248,27.7598],[93.2011,27.7299],[93.2204,27.7181],[93.2238,27.7113],[93.1953,27.6749],[93.2131,27.6551],[93.2295,27.6463],[93.228,27.6368],[93.2387,27.6148],[93.2913,27.6577],[93.3293,27.6697],[93.3992,27.6653],[93.5147,27.6502],[93.5387,27.6546],[93.5324,27.6738],[93.5421,27.7086],[93.567,27.7632],[93.5978,27.8083],[93.5958,27.8407],[93.5847,27.8771],[93.6081,27.9649]]]}},{"type":"Feature","properties":{"ac_name":"RAGA","ac_no":25,"ac_category":"GEN","st_name":"ARUNACHAL PRADESH"},"geometry":{"type":"Polygon","coordinates":[[[94.018,27.9548],[94.0155,27.9553],[94.0103,27.9501],[93.9804,27.9426],[93.9611,27.923],[93.938,27.9189],[93.911,27.9207],[93.8909,27.9163],[93.8826,27.9097],[93.8835,27.9007],[93.8907,27.8973],[93.9218,27.8928],[93.9272,27.8851],[93.9257,27.8711],[93.9106,27.8377],[93.9112,27.8259],[93.9167,27.8183],[93.9446,27.8033],[93.9565,27.7838],[93.9745,27.773],[93.9827,27.7637],[93.9843,27.7513],[93.9788,27.7423],[93.968,27.7369],[93.9238,27.7289],[93.9434,27.7175],[93.9803,27.7227],[93.9922,27.7189],[93.9987,27.7112],[93.9991,27.7027],[93.9791,27.6593],[93.9776,27.6441],[93.9837,27.6334],[94.0349,27.6298],[94.0474,27.6267],[94.0586,27.6148],[94.0435,27.4995],[94.0685,27.4825],[94.0939,27.4833],[94.1197,27.4974],[94.1505,27.5306],[94.1909,27.5359],[94.2054,27.5312],[94.2111,27.5124],[94.2213,27.5036],[94.2344,27.5121],[94.2677,27.5209],[94.2569,27.5374],[94.2582,27.5559],[94.2476,27.5684],[94.2259,27.5745],[94.222,27.5881],[94.2262,27.5989],[94.2125,27.6014],[94.2093,27.6077],[94.2281,27.6355],[94.2445,27.6492],[94.3071,27.6886],[94.3172,27.702],[94.354,27.7173],[94.3529,27.731],[94.3468,27.7319],[94.3355,27.725],[94.3124,27.741],[94.3182,27.7763],[94.2684,27.812],[94.239,27.8094],[94.1934,27.8115],[94.1918,27.8366],[94.1704,27.8455],[94.1601,27.8439],[94.146,27.867],[94.1285,27.8579],[94.122,27.8619],[94.0964,27.8599],[94.0741,27.8494],[94.0601,27.8695],[94.0561,27.9063],[94.0476,27.912],[94.0681,27.9392],[94.0384,27.9568],[94.018,27.9548]]]}},{"type":"Feature","properties":{"ac_name":"PALIN","ac_no":18,"ac_category":"GEN","st_name":"ARUNACHAL PRADESH"},"geometry":{"type":"Polygon","coordinates":[[[93.9257,27.8711],[93.8773,27.9016],[93.8542,27.9076],[93.8287,27.9367],[93.784,27.9408],[93.744,27.9379],[93.7241,27.9519],[93.7109,27.9745],[93.6311,27.9794],[93.6081,27.9649],[93.5847,27.8771],[93.5958,27.8407],[93.5978,27.8083],[93.567,27.7632],[93.5421,27.7086],[93.5324,27.6738],[93.5387,27.6546],[93.6119,27.668],[93.6311,27.6472],[93.6621,27.643],[93.6858,27.6484],[93.7233,27.6731],[93.7751,27.6627],[93.8131,27.6918],[93.8891,27.7057],[93.913,27.7272],[93.9238,27.7289],[93.968,27.7369],[93.9788,27.7423],[93.9843,27.7513],[93.9827,27.7637],[93.9745,27.773],[93.9565,27.7838],[93.9446,27.8033],[93.9167,27.8183],[93.9112,27.8259],[93.9106,27.8377],[93.9257,27.8711]]]}},{"type":"Feature","properties":{"ac_name":"LIKABALI","ac_no":28,"ac_category":"GEN","st_name":"ARUNACHAL PRADESH"},"geometry":{"type":"Polygon","coordinates":[[[94.5929,27.8901],[94.5948,27.8708],[94.5891,27.8617],[94.5771,27.8561],[94.5335,27.85],[94.5037,27.8364],[94.4924,27.8405],[94.4772,27.8353],[94.4699,27.8382],[94.4562,27.8284],[94.4441,27.8287],[94.4385,27.8129],[94.4139,27.8098],[94.3947,27.7966],[94.382,27.7974],[94.366,27.7797],[94.335,27.7602],[94.3293,27.7607],[94.3182,27.7763],[94.3124,27.741],[94.3355,27.725],[94.3468,27.7319],[94.3529,27.731],[94.354,27.7173],[94.3172,27.702],[94.3071,27.6886],[94.2445,27.6492],[94.2281,27.6355],[94.2093,27.6077],[94.2193,27.6098],[94.236,27.632],[94.247,27.6332],[94.2511,27.6379],[94.2615,27.6359],[94.267,27.6293],[94.2604,27.6179],[94.2542,27.6157],[94.2559,27.6118],[94.2709,27.6043],[94.2775,27.5893],[94.2873,27.5891],[94.2899,27.5966],[94.2988,27.6021],[94.3089,27.591],[94.3243,27.5847],[94.3332,27.5865],[94.3363,27.5791],[94.3451,27.5824],[94.3641,27.5743],[94.3915,27.5887],[94.4027,27.5853],[94.4181,27.5978],[94.4326,27.6009],[94.4321,27.5892],[94.4517,27.5716],[94.4616,27.5554],[94.4771,27.5763],[94.4987,27.5724],[94.5211,27.5845],[94.522,27.5916],[94.5356,27.5927],[94.5441,27.6009],[94.5619,27.6051],[94.5714,27.6029],[94.5871,27.6186],[94.6068,27.6188],[94.6235,27.6276],[94.6333,27.6244],[94.6491,27.6395],[94.6644,27.6464],[94.6829,27.6463],[94.6881,27.6654],[94.7099,27.6569],[94.7168,27.6584],[94.7252,27.6693],[94.7419,27.6599],[94.7542,27.6609],[94.7691,27.6797],[94.7899,27.6861],[94.794,27.6956],[94.8212,27.6922],[94.8407,27.7007],[94.8478,27.7059],[94.8521,27.7273],[94.8702,27.7333],[94.8591,27.7575],[94.873,27.7802],[94.8842,27.7847],[94.8956,27.8013],[94.8949,27.8083],[94.8096,27.808],[94.7353,27.8218],[94.7096,27.8322],[94.6824,27.851],[94.6705,27.8609],[94.6581,27.884],[94.5929,27.8901]]]}},{"type":"Feature","properties":{"ac_name":"BORDUMSA-DIYUM","ac_no":49,"ac_category":"GEN","st_name":"ARUNACHAL PRADESH"},"geometry":{"type":"Polygon","coordinates":[[[96.6999,27.6605],[96.6822,27.6548],[96.6691,27.6474],[96.6581,27.6338],[96.6407,27.628],[96.6138,27.6382],[96.6088,27.6467],[96.5962,27.6541],[96.582,27.6562],[96.5664,27.6569],[96.5495,27.6469],[96.5306,27.6468],[96.5191,27.6367],[96.5085,27.6432],[96.4802,27.6461],[96.4524,27.6412],[96.4397,27.6525],[96.3941,27.6488],[96.3837,27.6389],[96.3727,27.645],[96.3518,27.6246],[96.3483,27.6062],[96.3362,27.5985],[96.3276,27.5793],[96.2889,27.5555],[96.2684,27.5579],[96.2642,27.5634],[96.2247,27.5683],[96.2158,27.5773],[96.1699,27.598],[96.1327,27.6065],[96.1331,27.6152],[96.1257,27.6197],[96.0965,27.6136],[96.0614,27.6064],[96.0534,27.593],[96.0018,27.5568],[95.9986,27.5597],[95.8741,27.5469],[95.8762,27.5118],[95.8866,27.4975],[95.8733,27.4919],[95.8706,27.4666],[95.8532,27.4571],[95.8569,27.4453],[95.8468,27.4387],[95.842,27.4266],[95.845,27.4207],[95.8601,27.4082],[95.857,27.4199],[95.8708,27.4263],[95.8754,27.4347],[95.8836,27.4349],[95.886,27.3982],[95.8987,27.413],[95.9082,27.4346],[95.9392,27.4374],[95.9461,27.4348],[95.9448,27.4272],[95.9548,27.4197],[95.9609,27.429],[95.9617,27.418],[95.9652,27.4186],[95.969,27.428],[95.9753,27.4193],[95.9702,27.4152],[95.9826,27.4122],[95.9839,27.405],[95.9929,27.3978],[96.02,27.4109],[96.0927,27.4294],[96.1348,27.4156],[96.1787,27.4155],[96.1534,27.4644],[96.1438,27.527],[96.2939,27.5335],[96.3373,27.5289],[96.3962,27.5149],[96.4763,27.5068],[96.5794,27.4695],[96.6054,27.4648],[96.6045,27.4915],[96.618,27.5204],[96.7288,27.6454],[96.7055,27.6508],[96.6999,27.6605]]]}},{"type":"Feature","properties":{"ac_name":"BAMENG","ac_no":8,"ac_category":"GEN","st_name":"ARUNACHAL PRADESH"},"geometry":{"type":"Polygon","coordinates":[[[92.8373,27.9617],[92.8329,27.9572],[92.8169,27.9606],[92.7861,27.952],[92.7812,27.956],[92.7568,27.9578],[92.7342,27.9767],[92.7027,27.9333],[92.6706,27.8996],[92.6065,27.877],[92.5621,27.8205],[92.5453,27.8169],[92.5166,27.8397],[92.5028,27.841],[92.4685,27.8147],[92.4724,27.8076],[92.461,27.7821],[92.4694,27.7773],[92.4815,27.7705],[92.516,27.7345],[92.5105,27.7143],[92.5301,27.68],[92.5352,27.6462],[92.5309,27.6289],[92.5392,27.6195],[92.567,27.622],[92.5946,27.6304],[92.6056,27.6242],[92.6102,27.6191],[92.6073,27.5976],[92.6201,27.5872],[92.6103,27.5746],[92.6064,27.5626],[92.6096,27.5553],[92.6436,27.5521],[92.6473,27.5351],[92.6578,27.5254],[92.666,27.5358],[92.679,27.5375],[92.7167,27.5552],[92.7719,27.5493],[92.7804,27.5549],[92.7905,27.554],[92.8151,27.5181],[92.8098,27.4769],[92.8038,27.4667],[92.8853,27.4616],[92.9268,27.4503],[92.978,27.4738],[93.0073,27.477],[93.0695,27.4925],[93.119,27.5152],[93.124,27.5201],[93.1256,27.5449],[93.1335,27.5536],[93.1934,27.58],[93.1804,27.6169],[93.1642,27.6427],[93.156,27.6477],[93.0859,27.6585],[93.0551,27.6794],[93.0343,27.7036],[92.9793,27.7246],[92.9005,27.8332],[92.8378,27.9606],[92.8373,27.9617]]]}},{"type":"Feature","properties":{"ac_name":"MIAO","ac_no":50,"ac_category":"GEN","st_name":"ARUNACHAL PRADESH"},"geometry":{"type":"Polygon","coordinates":[[[96.7288,27.6454],[96.618,27.5204],[96.6045,27.4915],[96.6054,27.4648],[96.5794,27.4695],[96.4763,27.5068],[96.3962,27.5149],[96.3373,27.5289],[96.2939,27.5335],[96.1438,27.527],[96.1534,27.4644],[96.1787,27.4155],[96.264,27.4288],[96.3718,27.4253],[96.3955,27.4174],[96.4144,27.3985],[96.4212,27.365],[96.4114,27.3236],[96.4004,27.3075],[96.3987,27.2901],[96.4026,27.2932],[96.4077,27.2878],[96.4214,27.3014],[96.4406,27.3063],[96.4509,27.3012],[96.4577,27.3066],[96.4882,27.2962],[96.4902,27.3025],[96.5076,27.299],[96.5176,27.2855],[96.5239,27.2864],[96.5315,27.2963],[96.5413,27.3002],[96.5425,27.3089],[96.5511,27.3136],[96.5509,27.3183],[96.5643,27.3186],[96.5885,27.3357],[96.5962,27.3336],[96.5912,27.348],[96.6057,27.3658],[96.6257,27.3664],[96.647,27.3594],[96.6603,27.3644],[96.6725,27.3577],[96.6756,27.3614],[96.6977,27.3577],[96.7023,27.36],[96.7037,27.3723],[96.7295,27.3594],[96.7452,27.3584],[96.7513,27.3526],[96.7668,27.3574],[96.7985,27.344],[96.8222,27.3091],[96.8481,27.2904],[96.8469,27.2716],[96.8582,27.262],[96.885,27.2593],[96.8879,27.2478],[96.8815,27.2398],[96.8878,27.2355],[96.8856,27.2269],[96.8547,27.2108],[96.8599,27.1898],[96.9013,27.1686],[96.9313,27.1616],[96.9559,27.1642],[96.9842,27.1544],[96.9929,27.1402],[97.0087,27.1402],[97.0272,27.1295],[97.0306,27.1314],[97.0362,27.1242],[97.0339,27.1185],[97.062,27.0992],[97.0634,27.0918],[97.0709,27.0898],[97.0766,27.0992],[97.0968,27.0968],[97.0948,27.104],[97.1004,27.109],[97.1054,27.1046],[97.1191,27.1043],[97.125,27.0958],[97.1382,27.0915],[97.1495,27.1176],[97.1616,27.1232],[97.1636,27.1422],[97.151,27.1493],[97.147,27.1653],[97.1363,27.1655],[97.1246,27.1747],[97.1219,27.1904],[97.0905,27.2136],[97.0882,27.2388],[97.0549,27.2654],[97.0547,27.2752],[97.0405,27.2822],[97.0281,27.3085],[97.0243,27.3062],[97.0149,27.313],[97.0087,27.3105],[96.9984,27.3188],[96.9902,27.3441],[96.981,27.3458],[96.9786,27.3564],[96.9621,27.3729],[96.9676,27.3812],[96.9604,27.3946],[96.9624,27.4016],[96.9347,27.4153],[96.9324,27.4314],[96.9034,27.4528],[96.9105,27.4867],[96.926,27.508],[96.9353,27.5083],[96.9277,27.5121],[96.9265,27.527],[96.9196,27.5367],[96.9067,27.5443],[96.9084,27.5794],[96.8902,27.5794],[96.8895,27.6045],[96.8929,27.6159],[96.8965,27.616],[96.8613,27.631],[96.8488,27.6241],[96.8259,27.6328],[96.8023,27.6326],[96.7826,27.6426],[96.7683,27.6162],[96.7564,27.6214],[96.7288,27.6454]]]}},{"type":"Feature","properties":{"ac_name":"CHAYANGTAJO","ac_no":9,"ac_category":"GEN","st_name":"ARUNACHAL PRADESH"},"geometry":{"type":"Polygon","coordinates":[[[92.8378,27.9606],[92.9005,27.8332],[92.9793,27.7246],[93.0343,27.7036],[93.0551,27.6794],[93.0859,27.6585],[93.156,27.6477],[93.1642,27.6427],[93.1804,27.6169],[93.1934,27.58],[93.1335,27.5536],[93.1256,27.5449],[93.124,27.5201],[93.119,27.5152],[93.0695,27.4925],[93.0913,27.4555],[93.096,27.4368],[93.138,27.4084],[93.1495,27.3856],[93.1878,27.3719],[93.2238,27.3696],[93.2801,27.3865],[93.3181,27.408],[93.3704,27.4137],[93.3641,27.4202],[93.345,27.4264],[93.33,27.4424],[93.3147,27.4413],[93.3274,27.4607],[93.3222,27.4669],[93.3208,27.4871],[93.3021,27.5171],[93.2942,27.5214],[93.3159,27.5333],[93.3183,27.5444],[93.3286,27.5496],[93.3306,27.5564],[93.3002,27.5789],[93.2821,27.5771],[93.2841,27.588],[93.2718,27.5949],[93.2594,27.5934],[93.2404,27.6035],[93.2282,27.6026],[93.2387,27.6148],[93.228,27.6368],[93.2295,27.6463],[93.2131,27.6551],[93.1953,27.6749],[93.2238,27.7113],[93.2204,27.7181],[93.2011,27.7299],[93.2248,27.7598],[93.2234,27.7667],[93.2327,27.7791],[93.2388,27.8009],[93.2288,27.8188],[93.2173,27.8322],[93.1919,27.8461],[93.1867,27.8322],[93.1759,27.8214],[93.1572,27.8176],[93.1529,27.8212],[93.1306,27.8224],[93.096,27.8093],[93.0747,27.827],[93.0116,27.8225],[93.0035,27.8283],[92.9789,27.8237],[92.9662,27.8309],[92.9605,27.8455],[92.9463,27.8466],[92.9442,27.8507],[92.9384,27.8713],[92.9314,27.8783],[92.9272,27.9103],[92.933,27.9173],[92.9315,27.925],[92.8889,27.9366],[92.8689,27.9493],[92.8656,27.9459],[92.86,27.9501],[92.8603,27.9582],[92.8378,27.9606]]]}},{"type":"Feature","properties":{"ac_name":"LEKANG","ac_no":48,"ac_category":"GEN","st_name":"ARUNACHAL PRADESH"},"geometry":{"type":"Polygon","coordinates":[[[96.0965,27.6136],[96.087,27.6195],[96.057,27.6359],[96.0278,27.6453],[95.9739,27.659],[95.9358,27.6608],[95.9117,27.6609],[95.8346,27.6365],[95.7884,27.6337],[95.7894,27.6259],[95.7791,27.6249],[95.7786,27.6187],[95.7904,27.6119],[95.7925,27.5978],[95.8056,27.6011],[95.8181,27.5968],[95.8123,27.5836],[95.8145,27.5741],[95.8235,27.5743],[95.8333,27.5602],[95.8414,27.5621],[95.86,27.5436],[95.8741,27.5469],[95.9986,27.5597],[96.0018,27.5568],[96.0534,27.593],[96.0614,27.6064],[96.0965,27.6136]]]}},{"type":"Feature","properties":{"ac_name":"MUKTO","ac_no":3,"ac_category":"GEN","st_name":"ARUNACHAL PRADESH"},"geometry":{"type":"Polygon","coordinates":[[[92.4685,27.8147],[92.4564,27.8028],[92.4453,27.8003],[92.4154,27.8226],[92.3996,27.82],[92.3845,27.8151],[92.3814,27.7946],[92.3519,27.7902],[92.3176,27.7778],[92.309,27.7788],[92.2864,27.8072],[92.2658,27.8576],[92.257,27.8619],[92.236,27.8624],[92.2022,27.8568],[92.158,27.8368],[92.0572,27.7589],[92.0396,27.757],[91.9973,27.7682],[91.9917,27.7467],[91.9971,27.6794],[91.9665,27.6266],[91.9905,27.6227],[91.9777,27.6167],[91.9784,27.6056],[92.0035,27.5983],[91.9972,27.5898],[92.0006,27.5836],[92.0172,27.5852],[92.0289,27.5811],[92.0253,27.568],[92.0142,27.5605],[91.9987,27.5614],[91.9806,27.5468],[91.9629,27.5403],[91.9023,27.5425],[91.8616,27.5307],[91.8205,27.5173],[91.8238,27.5084],[91.8211,27.4695],[91.8301,27.4687],[91.8507,27.4823],[91.8646,27.4818],[91.8738,27.4725],[91.8925,27.4729],[91.9,27.4679],[91.9242,27.471],[91.9408,27.4603],[91.9508,27.4605],[91.9668,27.4664],[91.9805,27.4646],[91.9905,27.4739],[92.0126,27.4814],[92.0196,27.5021],[92.0492,27.5167],[92.0932,27.5182],[92.1123,27.5252],[92.1244,27.5395],[92.1328,27.5626],[92.1521,27.5774],[92.2094,27.5803],[92.2224,27.603],[92.2222,27.6273],[92.2334,27.6439],[92.2448,27.6509],[92.2699,27.6485],[92.343,27.6726],[92.3797,27.6662],[92.3934,27.6727],[92.4134,27.709],[92.409,27.7175],[92.4172,27.7408],[92.4128,27.7557],[92.4218,27.7667],[92.4583,27.7778],[92.461,27.7821],[92.4724,27.8076],[92.4685,27.8147]]]}},{"type":"Feature","properties":{"ac_name":"YACHULI","ac_no":16,"ac_category":"GEN","st_name":"ARUNACHAL PRADESH"},"geometry":{"type":"Polygon","coordinates":[[[93.9837,27.6334],[93.9776,27.6441],[93.9791,27.6593],[93.9991,27.7027],[93.9987,27.7112],[93.9922,27.7189],[93.9803,27.7227],[93.9434,27.7175],[93.9238,27.7289],[93.913,27.7272],[93.8891,27.7057],[93.8131,27.6918],[93.7751,27.6627],[93.7233,27.6731],[93.6858,27.6484],[93.6621,27.643],[93.6311,27.6472],[93.6119,27.668],[93.5387,27.6546],[93.5147,27.6502],[93.5624,27.602],[93.6177,27.5322],[93.6074,27.4937],[93.5679,27.472],[93.5554,27.4525],[93.5573,27.438],[93.5694,27.4329],[93.5786,27.4348],[93.5959,27.4009],[93.6003,27.3676],[93.613,27.3573],[93.631,27.3603],[93.6557,27.3484],[93.6658,27.3362],[93.6853,27.3356],[93.7407,27.3528],[93.7671,27.3462],[93.7847,27.3505],[93.8065,27.3712],[93.8269,27.3581],[93.8355,27.3635],[93.8352,27.3925],[93.831,27.4008],[93.8273,27.4248],[93.8498,27.4403],[93.8526,27.465],[93.8892,27.4914],[93.8496,27.52],[93.7987,27.5812],[93.7905,27.6001],[93.7952,27.6118],[93.8221,27.6255],[93.9032,27.6166],[93.9224,27.6244],[93.9837,27.6334]]]}},{"type":"Feature","properties":{"ac_name":"LUMLA","ac_no":1,"ac_category":"GEN","st_name":"ARUNACHAL PRADESH"},"geometry":{"type":"Polygon","coordinates":[[[91.7308,27.8084],[91.6965,27.8221],[91.6718,27.8567],[91.6443,27.8542],[91.6241,27.8577],[91.6099,27.854],[91.5966,27.8621],[91.587,27.8563],[91.5797,27.8621],[91.5723,27.8608],[91.567,27.8528],[91.5613,27.8518],[91.5551,27.8586],[91.5465,27.8556],[91.5679,27.8154],[91.5754,27.8127],[91.6013,27.8209],[91.6305,27.8008],[91.6335,27.7716],[91.6419,27.7652],[91.6423,27.758],[91.6319,27.747],[91.626,27.7059],[91.6123,27.6929],[91.5986,27.6925],[91.6007,27.6865],[91.594,27.6832],[91.5919,27.6718],[91.569,27.6524],[91.5599,27.6334],[91.5653,27.6199],[91.5782,27.6082],[91.5789,27.5995],[91.5641,27.5841],[91.5964,27.5394],[91.6112,27.5415],[91.6224,27.5132],[91.6459,27.4988],[91.6492,27.4846],[91.655,27.4828],[91.6919,27.5026],[91.7124,27.491],[91.7155,27.4734],[91.7217,27.4701],[91.7515,27.474],[91.7754,27.4643],[91.811,27.4723],[91.8211,27.4695],[91.8238,27.5084],[91.8205,27.5173],[91.8616,27.5307],[91.8562,27.5382],[91.8592,27.5497],[91.8303,27.5462],[91.8133,27.5542],[91.8043,27.5744],[91.7397,27.6632],[91.7275,27.7029],[91.7274,27.7442],[91.7328,27.7709],[91.7308,27.8084]]]}},{"type":"Feature","properties":{"ac_name":"DIRANG","ac_no":4,"ac_category":"GEN","st_name":"ARUNACHAL PRADESH"},"geometry":{"type":"Polygon","coordinates":[[[92.461,27.7821],[92.4583,27.7778],[92.4218,27.7667],[92.4128,27.7557],[92.4172,27.7408],[92.409,27.7175],[92.4134,27.709],[92.3934,27.6727],[92.3797,27.6662],[92.343,27.6726],[92.2699,27.6485],[92.2448,27.6509],[92.2334,27.6439],[92.2222,27.6273],[92.2224,27.603],[92.2094,27.5803],[92.1521,27.5774],[92.1328,27.5626],[92.1244,27.5395],[92.1123,27.5252],[92.0932,27.5182],[92.0492,27.5167],[92.0196,27.5021],[92.0126,27.4814],[92.0201,27.4793],[92.0205,27.4472],[92.0252,27.4412],[92.04,27.4361],[92.0452,27.4249],[92.0433,27.4124],[92.0557,27.3996],[92.0475,27.3679],[92.0495,27.3578],[92.0613,27.3448],[92.0599,27.3267],[92.079,27.3098],[92.1183,27.2922],[92.1206,27.2796],[92.1309,27.2702],[92.1456,27.2659],[92.2155,27.2759],[92.2495,27.2659],[92.3122,27.2577],[92.3555,27.2572],[92.4049,27.2625],[92.4422,27.2783],[92.4298,27.2934],[92.4258,27.3082],[92.4284,27.3177],[92.4412,27.3311],[92.4352,27.3417],[92.4372,27.3552],[92.4218,27.4031],[92.3777,27.4752],[92.3741,27.4983],[92.3835,27.5316],[92.4023,27.5613],[92.4049,27.6385],[92.4174,27.6957],[92.4694,27.7773],[92.461,27.7821]]]}},{"type":"Feature","properties":{"ac_name":"BOMDILA","ac_no":7,"ac_category":"GEN","st_name":"ARUNACHAL PRADESH"},"geometry":{"type":"Polygon","coordinates":[[[92.4694,27.7773],[92.4174,27.6957],[92.4049,27.6385],[92.4023,27.5613],[92.3835,27.5316],[92.3741,27.4983],[92.3777,27.4752],[92.4218,27.4031],[92.4372,27.3552],[92.4352,27.3417],[92.4412,27.3311],[92.4284,27.3177],[92.4258,27.3082],[92.4298,27.2934],[92.4422,27.2783],[92.4539,27.275],[92.4748,27.2571],[92.4684,27.2076],[92.4479,27.1408],[92.4651,27.1146],[92.4841,27.1336],[92.4988,27.1618],[92.5601,27.2071],[92.5803,27.2308],[92.5592,27.2922],[92.5421,27.3145],[92.5266,27.3239],[92.5384,27.3429],[92.5456,27.3481],[92.5563,27.3442],[92.5651,27.3464],[92.5969,27.3661],[92.6468,27.3521],[92.6663,27.3595],[92.6792,27.3694],[92.709,27.4403],[92.7245,27.4395],[92.7586,27.422],[92.7779,27.417],[92.7929,27.4254],[92.806,27.442],[92.8038,27.4667],[92.8098,27.4769],[92.8151,27.5181],[92.7905,27.554],[92.7804,27.5549],[92.7719,27.5493],[92.7167,27.5552],[92.679,27.5375],[92.666,27.5358],[92.6578,27.5254],[92.6473,27.5351],[92.6436,27.5521],[92.6096,27.5553],[92.6064,27.5626],[92.6103,27.5746],[92.6201,27.5872],[92.6073,27.5976],[92.6102,27.6191],[92.6056,27.6242],[92.5946,27.6304],[92.567,27.622],[92.5392,27.6195],[92.5309,27.6289],[92.5352,27.6462],[92.5301,27.68],[92.5105,27.7143],[92.516,27.7345],[92.4815,27.7705],[92.4694,27.7773]]]}},{"type":"Feature","properties":{"ac_name":"TAWANG","ac_no":2,"ac_category":"GEN","st_name":"ARUNACHAL PRADESH"},"geometry":{"type":"Polygon","coordinates":[[[91.7308,27.8084],[91.7328,27.7709],[91.7274,27.7442],[91.7275,27.7029],[91.7397,27.6632],[91.8043,27.5744],[91.8133,27.5542],[91.8303,27.5462],[91.8592,27.5497],[91.8562,27.5382],[91.8616,27.5307],[91.9023,27.5425],[91.9629,27.5403],[91.9806,27.5468],[91.9987,27.5614],[92.0142,27.5605],[92.0253,27.568],[92.0289,27.5811],[92.0172,27.5852],[92.0006,27.5836],[91.9972,27.5898],[92.0035,27.5983],[91.9784,27.6056],[91.9777,27.6167],[91.9905,27.6227],[91.9665,27.6266],[91.9971,27.6794],[91.9917,27.7467],[91.9973,27.7682],[91.9858,27.7698],[91.9677,27.7512],[91.9575,27.7505],[91.947,27.7285],[91.9207,27.7149],[91.9103,27.7261],[91.8806,27.7217],[91.8724,27.7343],[91.8625,27.7368],[91.8473,27.7755],[91.8356,27.7798],[91.8264,27.8103],[91.8175,27.8033],[91.8063,27.8088],[91.7734,27.8012],[91.7308,27.8084]]]}},{"type":"Feature","properties":{"ac_name":"ZIRO-HAPOLI","ac_no":17,"ac_category":"GEN","st_name":"ARUNACHAL PRADESH"},"geometry":{"type":"Polygon","coordinates":[[[94.0435,27.4995],[94.0586,27.6148],[94.0474,27.6267],[94.0349,27.6298],[93.9837,27.6334],[93.9224,27.6244],[93.9032,27.6166],[93.8221,27.6255],[93.7952,27.6118],[93.7905,27.6001],[93.7987,27.5812],[93.8496,27.52],[93.8892,27.4914],[93.9418,27.5113],[94.0435,27.4995]]]}},{"type":"Feature","properties":{"ac_name":"NAMPONG","ac_no":51,"ac_category":"GEN","st_name":"ARUNACHAL PRADESH"},"geometry":{"type":"Polygon","coordinates":[[[96.1787,27.4155],[96.1348,27.4156],[96.0927,27.4294],[96.02,27.4109],[95.9929,27.3978],[96.004,27.3737],[96.0168,27.3621],[96.0081,27.3572],[95.9889,27.3563],[95.987,27.346],[95.9653,27.328],[95.9757,27.3245],[95.9624,27.3231],[95.962,27.3169],[95.955,27.3176],[95.96,27.3109],[95.9078,27.2895],[95.9062,27.2823],[95.897,27.2823],[95.9043,27.274],[95.8933,27.2675],[95.8919,27.2553],[95.8692,27.2601],[95.8565,27.2709],[95.8538,27.2789],[95.8591,27.2873],[95.8239,27.2793],[95.8235,27.2107],[95.8387,27.1916],[95.9058,27.1632],[95.9058,27.1057],[95.9225,27.1095],[95.949,27.129],[96.0232,27.241],[96.035,27.2421],[96.0418,27.2372],[96.0537,27.1957],[96.064,27.2058],[96.0772,27.2082],[96.0899,27.2232],[96.1203,27.2315],[96.1551,27.2484],[96.1853,27.2492],[96.1939,27.2615],[96.2095,27.2614],[96.2286,27.2788],[96.2707,27.2713],[96.2742,27.2834],[96.3062,27.2941],[96.3402,27.2849],[96.3459,27.2854],[96.3522,27.2949],[96.3748,27.285],[96.3987,27.2901],[96.4004,27.3075],[96.4114,27.3236],[96.4212,27.365],[96.4144,27.3985],[96.3955,27.4174],[96.3718,27.4253],[96.264,27.4288],[96.1787,27.4155]]]}},{"type":"Feature","properties":{"ac_name":"SAGALEE","ac_no":15,"ac_category":"GEN","st_name":"ARUNACHAL PRADESH"},"geometry":{"type":"Polygon","coordinates":[[[93.5147,27.6502],[93.3992,27.6653],[93.3293,27.6697],[93.2913,27.6577],[93.2387,27.6148],[93.2282,27.6026],[93.2404,27.6035],[93.2594,27.5934],[93.2718,27.5949],[93.2841,27.588],[93.2821,27.5771],[93.3002,27.5789],[93.3306,27.5564],[93.3286,27.5496],[93.3183,27.5444],[93.3159,27.5333],[93.2942,27.5214],[93.3021,27.5171],[93.3208,27.4871],[93.3222,27.4669],[93.3274,27.4607],[93.3147,27.4413],[93.33,27.4424],[93.345,27.4264],[93.3641,27.4202],[93.3704,27.4137],[93.3681,27.4049],[93.3732,27.3904],[93.3675,27.3791],[93.3739,27.3701],[93.3183,27.3493],[93.2883,27.3277],[93.2942,27.2898],[93.2536,27.2729],[93.2529,27.2653],[93.2257,27.2519],[93.2338,27.2381],[93.2241,27.2352],[93.226,27.2208],[93.2195,27.2157],[93.2195,27.1999],[93.2275,27.1964],[93.2742,27.2108],[93.2818,27.1996],[93.3006,27.1866],[93.3009,27.1788],[93.3117,27.173],[93.2958,27.1647],[93.4421,27.1798],[93.4537,27.177],[93.4731,27.1495],[93.5219,27.1493],[93.5429,27.1454],[93.5531,27.1488],[93.5664,27.1669],[93.5738,27.1939],[93.6553,27.2002],[93.6916,27.2134],[93.7037,27.2112],[93.6985,27.2205],[93.7325,27.2476],[93.7658,27.2606],[93.785,27.2783],[93.8078,27.29],[93.8299,27.2919],[93.8532,27.3108],[93.8682,27.3066],[93.8838,27.3082],[93.933,27.3285],[93.9331,27.3433],[93.9418,27.3552],[93.9398,27.3647],[93.9092,27.3787],[93.831,27.4008],[93.8352,27.3925],[93.8355,27.3635],[93.8269,27.3581],[93.8065,27.3712],[93.7847,27.3505],[93.7671,27.3462],[93.7407,27.3528],[93.6853,27.3356],[93.6658,27.3362],[93.6557,27.3484],[93.631,27.3603],[93.613,27.3573],[93.6003,27.3676],[93.5959,27.4009],[93.5786,27.4348],[93.5694,27.4329],[93.5573,27.438],[93.5554,27.4525],[93.5679,27.472],[93.6074,27.4937],[93.6177,27.5322],[93.5624,27.602],[93.5147,27.6502]]]}},{"type":"Feature","properties":{"ac_name":"DOIMUKH","ac_no":14,"ac_category":"GEN","st_name":"ARUNACHAL PRADESH"},"geometry":{"type":"Polygon","coordinates":[[[94.2213,27.5036],[94.2111,27.5124],[94.2054,27.5312],[94.1909,27.5359],[94.1505,27.5306],[94.1197,27.4974],[94.0939,27.4833],[94.0685,27.4825],[94.0435,27.4995],[93.9418,27.5113],[93.8892,27.4914],[93.8526,27.465],[93.8498,27.4403],[93.8273,27.4248],[93.831,27.4008],[93.9092,27.3787],[93.9398,27.3647],[93.9418,27.3552],[93.9331,27.3433],[93.933,27.3285],[93.8838,27.3082],[93.8682,27.3066],[93.8532,27.3108],[93.8299,27.2919],[93.8078,27.29],[93.785,27.2783],[93.7658,27.2606],[93.7325,27.2476],[93.6985,27.2205],[93.7037,27.2112],[93.7215,27.1931],[93.737,27.1879],[93.7446,27.1539],[93.7759,27.1261],[93.7759,27.1084],[93.7635,27.0918],[93.7527,27.0912],[93.7296,27.0785],[93.7004,27.0715],[93.6766,27.0764],[93.6198,27.0576],[93.6035,27.047],[93.591,27.0307],[93.5774,27.0399],[93.5521,27.0813],[93.5533,27.0971],[93.5219,27.1493],[93.4731,27.1495],[93.4537,27.177],[93.4421,27.1798],[93.2958,27.1647],[93.2764,27.1603],[93.2697,27.1536],[93.2468,27.1552],[93.235,27.1437],[93.2143,27.1379],[93.2121,27.1175],[93.2308,27.1083],[93.251,27.11],[93.2719,27.1036],[93.293,27.0779],[93.3125,27.0794],[93.3424,27.0367],[93.3441,27.0109],[93.3393,27.0069],[93.3398,26.9929],[93.3647,26.9824],[93.3806,26.9849],[93.3783,26.9759],[93.3877,26.9736],[93.3909,26.9584],[93.3986,26.9572],[93.3995,26.9571],[93.4484,26.9506],[93.4622,26.9377],[93.4862,26.9417],[93.4886,26.9361],[93.5237,26.9485],[93.5605,26.9527],[93.5866,26.9504],[93.6147,26.9604],[93.6593,26.9667],[93.6758,26.9746],[93.6981,26.9943],[93.725,27.0221],[93.7671,27.0397],[93.7674,27.0528],[93.7701,27.0512],[93.773,27.0591],[93.7791,27.0488],[93.7816,27.0606],[93.786,27.0516],[93.7947,27.0546],[93.7935,27.0603],[93.7965,27.0568],[93.8015,27.0628],[93.8031,27.0581],[93.8109,27.0597],[93.8078,27.0676],[93.8155,27.0611],[93.8251,27.063],[93.8245,27.0687],[93.8306,27.0661],[93.8375,27.0752],[93.8343,27.0825],[93.8383,27.0869],[93.8321,27.0872],[93.8351,27.0955],[93.8302,27.0982],[93.8359,27.104],[93.8372,27.1079],[93.8298,27.1097],[93.8203,27.1223],[93.8095,27.123],[93.8128,27.1297],[93.8024,27.1324],[93.7971,27.1287],[93.796,27.1386],[93.8065,27.1401],[93.806,27.1516],[93.8695,27.2026],[93.9843,27.3228],[94.022,27.3462],[94.0301,27.3457],[94.0595,27.3615],[94.081,27.3964],[94.1551,27.457],[94.1593,27.4626],[94.1564,27.4752],[94.1759,27.4822],[94.1879,27.4925],[94.2092,27.4928],[94.2213,27.5036]]]}},{"type":"Feature","properties":{"ac_name":"CHANGLANG NORTH","ac_no":53,"ac_category":"GEN","st_name":"ARUNACHAL PRADESH"},"geometry":{"type":"Polygon","coordinates":[[[95.6338,27.2305],[95.6409,27.2088],[95.6406,27.1931],[95.6683,27.1787],[95.6721,27.1683],[95.6668,27.134],[95.6602,27.1226],[95.6445,27.1115],[95.639,27.1001],[95.6493,27.0739],[95.6701,27.0913],[95.6876,27.0952],[95.6919,27.0914],[95.7266,27.0388],[95.743,26.9846],[95.75,27.0021],[95.7462,27.0369],[95.7572,27.0956],[95.7749,27.127],[95.7952,27.1352],[95.834,27.1114],[95.8542,27.1052],[95.8848,27.1025],[95.9058,27.1057],[95.9058,27.1632],[95.8387,27.1916],[95.8235,27.2107],[95.8239,27.2793],[95.805,27.2732],[95.7993,27.2765],[95.8009,27.2844],[95.7796,27.2697],[95.7423,27.2663],[95.7272,27.2594],[95.72,27.2497],[95.7106,27.2529],[95.7018,27.2489],[95.6816,27.251],[95.6338,27.2305]]]}},{"type":"Feature","properties":{"ac_name":"SEPPA EAST","ac_no":10,"ac_category":"GEN","st_name":"ARUNACHAL PRADESH"},"geometry":{"type":"Polygon","coordinates":[[[93.0695,27.4925],[93.0073,27.477],[92.978,27.4738],[92.9268,27.4503],[92.8853,27.4616],[92.8038,27.4667],[92.806,27.442],[92.8051,27.429],[92.8109,27.4251],[92.8038,27.4172],[92.8151,27.4136],[92.8165,27.4169],[92.8208,27.4126],[92.8841,27.4396],[92.8885,27.4126],[92.8665,27.4047],[92.8627,27.397],[92.8728,27.3893],[92.9133,27.3809],[92.911,27.3736],[92.8956,27.3598],[92.9306,27.3584],[93.0068,27.3729],[93.0284,27.4044],[93.0233,27.4452],[93.0344,27.4564],[93.0459,27.4593],[93.0558,27.449],[93.0563,27.4183],[93.0504,27.3969],[93.0293,27.3706],[93.0417,27.3621],[93.0147,27.3488],[92.9865,27.3504],[92.9769,27.3421],[92.9909,27.3379],[93.0837,27.339],[93.0856,27.3214],[93.101,27.3116],[93.0517,27.3038],[93.0623,27.2953],[93.2136,27.3115],[93.2397,27.3346],[93.2708,27.3542],[93.3183,27.3493],[93.3739,27.3701],[93.3675,27.3791],[93.3732,27.3904],[93.3681,27.4049],[93.3704,27.4137],[93.3181,27.408],[93.2801,27.3865],[93.2238,27.3696],[93.1878,27.3719],[93.1495,27.3856],[93.138,27.4084],[93.096,27.4368],[93.0913,27.4555],[93.0695,27.4925]]]}},{"type":"Feature","properties":{"ac_name":"CHANGLANG SOUTH","ac_no":52,"ac_category":"GEN","st_name":"ARUNACHAL PRADESH"},"geometry":{"type":"Polygon","coordinates":[[[96.0537,27.1957],[96.0418,27.2372],[96.035,27.2421],[96.0232,27.241],[95.949,27.129],[95.9225,27.1095],[95.9058,27.1057],[95.8848,27.1025],[95.8542,27.1052],[95.834,27.1114],[95.7952,27.1352],[95.7749,27.127],[95.7572,27.0956],[95.7462,27.0369],[95.75,27.0021],[95.743,26.9846],[95.7266,27.0388],[95.6919,27.0914],[95.6876,27.0952],[95.6701,27.0913],[95.6493,27.0739],[95.6498,27.0633],[95.6289,27.0269],[95.631,27.0111],[95.6428,26.9907],[95.6595,26.9853],[95.681,26.985],[95.6819,26.9619],[95.6933,26.9444],[95.694,26.9177],[95.6872,26.9037],[95.6778,26.8986],[95.6945,26.8921],[95.7058,26.8806],[95.7166,26.8789],[95.7345,26.894],[95.745,26.8963],[95.7506,26.909],[95.7479,26.9261],[95.7598,26.9367],[95.7552,26.954],[95.7684,26.977],[95.7812,26.9777],[95.7834,26.9901],[95.7961,26.9981],[95.8023,27.0151],[95.831,27.0075],[95.8426,27.0142],[95.8702,27.0131],[95.879,27.0227],[95.894,27.0258],[95.904,27.0391],[95.9101,27.0366],[95.9457,27.0514],[95.9674,27.0985],[95.9847,27.1124],[95.9988,27.1354],[96.0101,27.1423],[96.0223,27.1797],[96.0537,27.1957]]]}},{"type":"Feature","properties":{"ac_name":"SEPPA WEST","ac_no":11,"ac_category":"GEN","st_name":"ARUNACHAL PRADESH"},"geometry":{"type":"Polygon","coordinates":[[[92.8208,27.4126],[92.8231,27.3788],[92.8122,27.3791],[92.8148,27.3546],[92.8052,27.3577],[92.806,27.3519],[92.8004,27.3497],[92.8052,27.3456],[92.8048,27.329],[92.8208,27.3129],[92.84,27.3039],[92.8431,27.2901],[92.8771,27.2903],[92.8901,27.2811],[92.8855,27.2756],[92.8961,27.2664],[92.8989,27.2292],[92.9577,27.1817],[93.0231,27.1199],[93.057,27.0652],[93.0699,27.0561],[93.0592,27.0787],[93.053,27.1101],[93.0641,27.1432],[93.1125,27.2086],[93.1265,27.2165],[93.1563,27.2234],[93.1761,27.2348],[93.1931,27.2833],[93.2136,27.3115],[93.0623,27.2953],[93.0517,27.3038],[93.101,27.3116],[93.0856,27.3214],[93.0837,27.339],[92.9909,27.3379],[92.9769,27.3421],[92.9865,27.3504],[93.0147,27.3488],[93.0417,27.3621],[93.0293,27.3706],[93.0504,27.3969],[93.0563,27.4183],[93.0558,27.449],[93.0459,27.4593],[93.0344,27.4564],[93.0233,27.4452],[93.0284,27.4044],[93.0068,27.3729],[92.9306,27.3584],[92.8956,27.3598],[92.911,27.3736],[92.9133,27.3809],[92.8728,27.3893],[92.8627,27.397],[92.8665,27.4047],[92.8885,27.4126],[92.8841,27.4396],[92.8208,27.4126]]]}},{"type":"Feature","properties":{"ac_name":"NAMSANG","ac_no":54,"ac_category":"GEN","st_name":"ARUNACHAL PRADESH"},"geometry":{"type":"Polygon","coordinates":[[[95.5956,27.2232],[95.5789,27.2291],[95.5744,27.2438],[95.5542,27.2485],[95.5478,27.2575],[95.5344,27.2643],[95.531,27.2609],[95.5248,27.2636],[95.5179,27.2575],[95.5086,27.2618],[95.5043,27.2492],[95.4879,27.2431],[95.472,27.2189],[95.4581,27.21],[95.4558,27.2038],[95.4665,27.1818],[95.4594,27.1767],[95.4649,27.1715],[95.4634,27.1628],[95.4534,27.1579],[95.462,27.1499],[95.4537,27.13],[95.4448,27.1352],[95.4448,27.129],[95.4396,27.126],[95.42,27.1257],[95.4003,27.1098],[95.384,27.1055],[95.3828,27.0986],[95.3749,27.0929],[95.3698,27.0944],[95.3704,27.1012],[95.363,27.1028],[95.368,27.1071],[95.3435,27.0966],[95.3733,27.0712],[95.4232,27.0512],[95.4466,27.0625],[95.4973,27.0646],[95.5379,27.0771],[95.5613,27.1009],[95.6602,27.1226],[95.6668,27.134],[95.6721,27.1683],[95.6683,27.1787],[95.6406,27.1931],[95.6409,27.2088],[95.6338,27.2305],[95.6184,27.2326],[95.5956,27.2232]]]}},{"type":"Feature","properties":{"ac_name":"THRIZINO-BURAGAON","ac_no":6,"ac_category":"GEN","st_name":"ARUNACHAL PRADESH"},"geometry":{"type":"Polygon","coordinates":[[[92.806,27.442],[92.7929,27.4254],[92.7779,27.417],[92.7586,27.422],[92.7245,27.4395],[92.709,27.4403],[92.6792,27.3694],[92.6663,27.3595],[92.6468,27.3521],[92.5969,27.3661],[92.5651,27.3464],[92.5563,27.3442],[92.5456,27.3481],[92.5384,27.3429],[92.5266,27.3239],[92.5421,27.3145],[92.5592,27.2922],[92.5803,27.2308],[92.5601,27.2071],[92.4988,27.1618],[92.4841,27.1336],[92.4651,27.1146],[92.4445,27.0831],[92.452,27.0621],[92.4555,27.0163],[92.4623,26.994],[92.4566,26.9763],[92.4643,26.9607],[92.5037,26.9636],[92.5623,26.9579],[92.5833,26.9598],[92.6115,26.972],[92.6446,26.9863],[92.6464,27.0146],[92.6238,27.0288],[92.5977,27.053],[92.5902,27.0791],[92.6002,27.0971],[92.5942,27.1047],[92.6018,27.1082],[92.608,27.1403],[92.6246,27.1489],[92.6499,27.152],[92.6972,27.1726],[92.7167,27.176],[92.7495,27.1945],[92.7659,27.1934],[92.7827,27.1789],[92.8146,27.1763],[92.815,27.1922],[92.8084,27.2],[92.8229,27.2137],[92.8338,27.2141],[92.8282,27.2246],[92.8366,27.2325],[92.8255,27.2394],[92.8178,27.2534],[92.801,27.2563],[92.8004,27.2669],[92.8075,27.2729],[92.8027,27.2795],[92.8059,27.2949],[92.8117,27.2965],[92.8211,27.2871],[92.8431,27.2901],[92.84,27.3039],[92.8208,27.3129],[92.8048,27.329],[92.8052,27.3456],[92.8004,27.3497],[92.806,27.3519],[92.8052,27.3577],[92.8148,27.3546],[92.8122,27.3791],[92.8231,27.3788],[92.8208,27.4126],[92.8165,27.4169],[92.8151,27.4136],[92.8038,27.4172],[92.8109,27.4251],[92.8051,27.429],[92.806,27.442]]]}},{"type":"Feature","properties":{"ac_name":"PAKKE-KASANG","ac_no":12,"ac_category":"GEN","st_name":"ARUNACHAL PRADESH"},"geometry":{"type":"Polygon","coordinates":[[[93.3183,27.3493],[93.2708,27.3542],[93.2397,27.3346],[93.2136,27.3115],[93.1931,27.2833],[93.1761,27.2348],[93.1563,27.2234],[93.1265,27.2165],[93.1125,27.2086],[93.0641,27.1432],[93.053,27.1101],[93.0592,27.0787],[93.0699,27.0561],[93.057,27.0652],[93.0231,27.1199],[92.9577,27.1817],[92.8989,27.2292],[92.8961,27.2664],[92.8855,27.2756],[92.8901,27.2811],[92.8771,27.2903],[92.8431,27.2901],[92.8211,27.2871],[92.8117,27.2965],[92.8059,27.2949],[92.8027,27.2795],[92.8075,27.2729],[92.8004,27.2669],[92.801,27.2563],[92.8178,27.2534],[92.8255,27.2394],[92.8366,27.2325],[92.8282,27.2246],[92.8338,27.2141],[92.8229,27.2137],[92.8084,27.2],[92.815,27.1922],[92.8146,27.1763],[92.7827,27.1789],[92.7659,27.1934],[92.7495,27.1945],[92.7167,27.176],[92.6972,27.1726],[92.6499,27.152],[92.6246,27.1489],[92.608,27.1403],[92.6018,27.1082],[92.5942,27.1047],[92.6002,27.0971],[92.5902,27.0791],[92.5977,27.053],[92.6238,27.0288],[92.6464,27.0146],[92.661,27.0381],[92.7121,27.0266],[92.7461,27.031],[92.7697,27.0332],[92.805,27.0247],[92.832,27.0122],[92.888,26.9994],[92.9183,26.9828],[92.9174,26.963],[92.9791,26.9376],[93.0226,26.9134],[93.0631,26.9222],[93.0882,26.9146],[93.107,26.9256],[93.1568,26.9334],[93.2493,26.9518],[93.3235,26.9601],[93.3986,26.9572],[93.3909,26.9584],[93.3877,26.9736],[93.3783,26.9759],[93.3806,26.9849],[93.3647,26.9824],[93.3398,26.9929],[93.3393,27.0069],[93.3441,27.0109],[93.3424,27.0367],[93.3125,27.0794],[93.293,27.0779],[93.2719,27.1036],[93.251,27.11],[93.2308,27.1083],[93.2121,27.1175],[93.2143,27.1379],[93.235,27.1437],[93.2468,27.1552],[93.2697,27.1536],[93.2764,27.1603],[93.2958,27.1647],[93.3117,27.173],[93.3009,27.1788],[93.3006,27.1866],[93.2818,27.1996],[93.2742,27.2108],[93.2275,27.1964],[93.2195,27.1999],[93.2195,27.2157],[93.226,27.2208],[93.2241,27.2352],[93.2338,27.2381],[93.2257,27.2519],[93.2529,27.2653],[93.2536,27.2729],[93.2942,27.2898],[93.2883,27.3277],[93.3183,27.3493]]]}},{"type":"Feature","properties":{"ac_name":"KHONSA EAST","ac_no":55,"ac_category":"GEN","st_name":"ARUNACHAL PRADESH"},"geometry":{"type":"Polygon","coordinates":[[[95.6493,27.0739],[95.639,27.1001],[95.6445,27.1115],[95.6602,27.1226],[95.5613,27.1009],[95.5379,27.0771],[95.5468,27.0648],[95.5488,27.0483],[95.5453,27.0393],[95.5044,27.0014],[95.5049,26.9874],[95.5776,26.9739],[95.59,26.9561],[95.5923,26.9194],[95.598,26.9219],[95.6493,26.8863],[95.6672,26.9029],[95.6778,26.8986],[95.6872,26.9037],[95.694,26.9177],[95.6933,26.9444],[95.6819,26.9619],[95.681,26.985],[95.6595,26.9853],[95.6428,26.9907],[95.631,27.0111],[95.6289,27.0269],[95.6498,27.0633],[95.6493,27.0739]]]}},{"type":"Feature","properties":{"ac_name":"KANUBARI","ac_no":58,"ac_category":"GEN","st_name":"ARUNACHAL PRADESH"},"geometry":{"type":"Polygon","coordinates":[[[95.3733,27.0712],[95.3435,27.0966],[95.2908,27.0662],[95.2763,27.0528],[95.2764,27.0421],[95.26,27.0357],[95.2587,27.0304],[95.2467,27.0242],[95.2313,27.0433],[95.2302,27.036],[95.2227,27.0365],[95.211,27.0286],[95.2043,27.0383],[95.1962,27.0372],[95.1946,27.0317],[95.197,26.9968],[95.1905,26.9929],[95.1915,26.9849],[95.2024,26.982],[95.2016,26.9739],[95.2113,26.9663],[95.202,26.9576],[95.209,26.9525],[95.2066,26.9421],[95.2122,26.9301],[95.2261,26.9266],[95.2319,26.9197],[95.2285,26.8921],[95.2581,26.8992],[95.3443,26.9327],[95.3924,26.9272],[95.3802,26.9662],[95.382,27.0384],[95.3733,27.0712]]]}},{"type":"Feature","properties":{"ac_name":"BORDURIA- BAGAPANI","ac_no":57,"ac_category":"GEN","st_name":"ARUNACHAL PRADESH"},"geometry":{"type":"Polygon","coordinates":[[[95.5379,27.0771],[95.4973,27.0646],[95.4466,27.0625],[95.4232,27.0512],[95.3733,27.0712],[95.382,27.0384],[95.3802,26.9662],[95.3924,26.9272],[95.4042,26.9091],[95.4248,26.914],[95.441,26.9262],[95.4537,26.9522],[95.4785,26.9787],[95.4965,26.9885],[95.5049,26.9874],[95.5044,27.0014],[95.5453,27.0393],[95.5488,27.0483],[95.5468,27.0648],[95.5379,27.0771]]]}},{"type":"Feature","properties":{"ac_name":"ITANAGAR","ac_no":13,"ac_category":"GEN","st_name":"ARUNACHAL PRADESH"},"geometry":{"type":"Polygon","coordinates":[[[93.7037,27.2112],[93.6916,27.2134],[93.6553,27.2002],[93.5738,27.1939],[93.5664,27.1669],[93.5531,27.1488],[93.5429,27.1454],[93.5219,27.1493],[93.5533,27.0971],[93.5521,27.0813],[93.5774,27.0399],[93.591,27.0307],[93.6035,27.047],[93.6198,27.0576],[93.6766,27.0764],[93.7004,27.0715],[93.7296,27.0785],[93.7527,27.0912],[93.7635,27.0918],[93.7759,27.1084],[93.7759,27.1261],[93.7446,27.1539],[93.737,27.1879],[93.7215,27.1931],[93.7037,27.2112]]]}},{"type":"Feature","properties":{"ac_name":"KALAKTANG","ac_no":5,"ac_category":"GEN","st_name":"ARUNACHAL PRADESH"},"geometry":{"type":"Polygon","coordinates":[[[92.4422,27.2783],[92.4049,27.2625],[92.3555,27.2572],[92.3122,27.2577],[92.2495,27.2659],[92.2155,27.2759],[92.1456,27.2659],[92.1309,27.2702],[92.1206,27.2796],[92.1161,27.2727],[92.1025,27.2685],[92.071,27.2768],[92.0406,27.2661],[92.0409,27.2613],[92.0667,27.2444],[92.0705,27.2231],[92.0581,27.2025],[92.0571,27.189],[92.0261,27.1712],[92.0242,27.1618],[92.0251,27.1537],[92.0372,27.1378],[92.0229,27.1143],[92.0285,27.078],[92.0369,27.0696],[92.0344,27.0642],[92.0425,27.0597],[92.0455,27.0513],[92.0646,27.0516],[92.0772,27.0392],[92.0803,27.0199],[92.1038,27.007],[92.1026,26.9823],[92.1045,26.977],[92.1136,26.975],[92.1178,26.9595],[92.1123,26.9486],[92.1174,26.9317],[92.1082,26.8931],[92.1245,26.889],[92.195,26.8901],[92.2546,26.9101],[92.2751,26.9022],[92.3028,26.9077],[92.3026,26.9231],[92.3632,26.9349],[92.3649,26.9324],[92.3683,26.9288],[92.3983,26.9251],[92.4119,26.943],[92.426,26.9413],[92.4473,26.9591],[92.4643,26.9607],[92.4566,26.9763],[92.4623,26.994],[92.4555,27.0163],[92.452,27.0621],[92.4445,27.0831],[92.4651,27.1146],[92.4479,27.1408],[92.4684,27.2076],[92.4748,27.2571],[92.4539,27.275],[92.4422,27.2783]]]}},{"type":"Feature","properties":{"ac_name":"KHONSA WEST","ac_no":56,"ac_category":"GEN","st_name":"ARUNACHAL PRADESH"},"geometry":{"type":"Polygon","coordinates":[[[95.5049,26.9874],[95.4965,26.9885],[95.4785,26.9787],[95.4537,26.9522],[95.441,26.9262],[95.4248,26.914],[95.4042,26.9091],[95.4089,26.896],[95.4449,26.8862],[95.4545,26.8702],[95.488,26.864],[95.5135,26.8451],[95.53,26.8263],[95.5361,26.827],[95.5432,26.8354],[95.5566,26.8326],[95.5696,26.8163],[95.608,26.8132],[95.6266,26.8428],[95.6263,26.8619],[95.6342,26.8684],[95.6315,26.8737],[95.6439,26.8761],[95.6493,26.8863],[95.598,26.9219],[95.5923,26.9194],[95.59,26.9561],[95.5776,26.9739],[95.5049,26.9874]]]}},{"type":"Feature","properties":{"ac_name":"LONGDING-PUMAO","ac_no":59,"ac_category":"GEN","st_name":"ARUNACHAL PRADESH"},"geometry":{"type":"Polygon","coordinates":[[[95.4042,26.9091],[95.3924,26.9272],[95.3443,26.9327],[95.2581,26.8992],[95.2285,26.8921],[95.2281,26.8808],[95.2087,26.8823],[95.1995,26.871],[95.186,26.8657],[95.1809,26.856],[95.187,26.8478],[95.2029,26.8464],[95.197,26.8361],[95.1973,26.8226],[95.2047,26.8047],[95.212,26.7995],[95.2083,26.7951],[95.2422,26.7834],[95.2288,26.7753],[95.2325,26.7682],[95.2232,26.7596],[95.2176,26.7559],[95.2405,26.7522],[95.3754,26.7632],[95.3836,26.7689],[95.3989,26.7994],[95.4545,26.8702],[95.4449,26.8862],[95.4089,26.896],[95.4042,26.9091]]]}},{"type":"Feature","properties":{"ac_name":"PONGCHOU-WAKKA","ac_no":60,"ac_category":"GEN","st_name":"ARUNACHAL PRADESH"},"geometry":{"type":"Polygon","coordinates":[[[95.53,26.8263],[95.5135,26.8451],[95.488,26.864],[95.4545,26.8702],[95.3989,26.7994],[95.3836,26.7689],[95.3754,26.7632],[95.2405,26.7522],[95.2176,26.7559],[95.2149,26.7482],[95.2194,26.7458],[95.2099,26.7287],[95.2221,26.7224],[95.2258,26.7103],[95.2328,26.7058],[95.2302,26.694],[95.2339,26.6825],[95.2492,26.6839],[95.2573,26.6761],[95.2596,26.6554],[95.2743,26.6588],[95.3034,26.6508],[95.3137,26.6627],[95.3262,26.6645],[95.3351,26.6736],[95.3602,26.6709],[95.374,26.684],[95.3945,26.6849],[95.4033,26.6944],[95.418,26.6935],[95.431,26.7005],[95.4322,26.7152],[95.4593,26.7429],[95.4739,26.7404],[95.4824,26.7465],[95.4846,26.7584],[95.5047,26.7925],[95.5065,26.8081],[95.5224,26.8135],[95.53,26.8263]]]}}]}