{"type":"FeatureCollection","features":[{"type":"Feature","properties":{"ac_name":"","ac_no":0,"ac_category":"GEN","st_name":"CHANDIGARH"},"geometry":{"type":"Polygon","coordinates":[[[76.83809452932357,30.7542423975531],[76.82653712682958,30.76360605708497],[76.81768727470927,30.76043658771947],[76.8184879654107,30.7541573503105],[76.8137205822554,30.75352357080163],[76.80464303322167,30.76521774323661],[76.81969368313055,30.77293808276426],[76.81469733294072,30.77976690516868],[76.79769391440192,30.77060604209432],[76.7832144618228,30.77048841691125],[76.7916055504272,30.779362234597],[76.77138262636838,30.79523560188974],[76.75075574842882,30.78469028396937],[76.7445615417525,30.76864144277024],[76.72534618191055,30.76621561837802],[76.70627473245307,30.75557461870542],[76.70504681001928,30.74254082213479],[76.71384997218127,30.74118346176669],[76.73080780797945,30.7237402960816],[76.72980099146253,30.70692142777109],[76.73881006506441,30.70541395298048],[76.7391076344999,30.6925654251689],[76.74645365913364,30.69417609170509],[76.7515686707542,30.68405152341389],[76.76257262862339,30.68622272091159],[76.79674665432469,30.66776725249279],[76.80759606052793,30.66765411698686],[76.82884882663785,30.6806951867101],[76.82712504773082,30.6920747914192],[76.84864362082327,30.71794621154302],[76.84299910308626,30.71853553640418],[76.8488577812935,30.72363425399892],[76.8482086378826,30.72996908525893],[76.83217410506593,30.73877149844519],[76.83809452932357,30.7542423975531]]]}}]}