{"type":"FeatureCollection","features":[{"type":"Feature","properties":{"ac_name":"","ac_no":0,"ac_category":"GEN","st_name":"CHANDIGARH"},"geometry":{"type":"Polygon","coordinates":[[[76.838095,30.754242],[76.826537,30.763606],[76.817687,30.760437],[76.818488,30.754157],[76.813721,30.753524],[76.804643,30.765218],[76.819694,30.772938],[76.814697,30.779767],[76.797694,30.770606],[76.783214,30.770488],[76.791606,30.779362],[76.771383,30.795236],[76.750756,30.78469],[76.744562,30.768641],[76.725346,30.766216],[76.706275,30.755575],[76.705047,30.742541],[76.71385,30.741183],[76.730808,30.72374],[76.729801,30.706921],[76.73881,30.705414],[76.739108,30.692565],[76.746454,30.694176],[76.751569,30.684052],[76.762573,30.686223],[76.796747,30.667767],[76.807596,30.667654],[76.828849,30.680695],[76.827125,30.692075],[76.848644,30.717946],[76.842999,30.718536],[76.848858,30.723634],[76.848209,30.729969],[76.832174,30.738771],[76.838095,30.754242]]]}}]}