{"type":"FeatureCollection","features":[{"type":"Feature","properties":{"ac_name":"NERELA","ac_no":1,"ac_category":"GEN","st_name":"NCT OF DELHI"},"geometry":{"type":"Polygon","coordinates":[[[77.05131016561621,28.8549158475261],[77.0397410591741,28.83207795941106],[77.04261767787968,28.82253845202213],[77.07031353500881,28.80416466191224],[77.05830452849996,28.78537492999731],[77.06922114333442,28.77540146542077],[77.07387720361783,28.75747177362767],[77.09112120538616,28.76692336462275],[77.11357233991788,28.75266706001263],[77.12004991690813,28.7568036358453],[77.12215930433874,28.76671553741986],[77.12838742854487,28.76821302932669],[77.12977820947934,28.77284075314524],[77.12330347459817,28.77112018966896],[77.12366388116688,28.77450308230596],[77.13986416006627,28.78010947074673],[77.14030618360404,28.78773588384733],[77.15620677454191,28.79474423131935],[77.18958746003787,28.79042416026646],[77.19004093557103,28.78510722217236],[77.1991042673121,28.78059504287868],[77.21389631814954,28.78548396940159],[77.19953041826018,28.79770968381781],[77.2008549560119,28.81136223262855],[77.21848055027834,28.80877799552491],[77.22260480018937,28.83337368959757],[77.21635056331125,28.84149149306482],[77.21663235902074,28.85204761596723],[77.20894841568128,28.85849840131094],[77.17486236855878,28.85903773756703],[77.1576763263621,28.8370143891219],[77.14599787238149,28.837550172923],[77.14077400725782,28.8617485431162],[77.13181226817802,28.86346443162275],[77.12165928611164,28.85813693279295],[77.11011643992212,28.86980907080284],[77.0914591761741,28.87276031104194],[77.08296510475307,28.88333816882258],[77.07458475770459,28.86734271107387],[77.06121198164792,28.87082005866884],[77.05131016561621,28.8549158475261]]]}},{"type":"Feature","properties":{"ac_name":"BAWANA","ac_no":7,"ac_category":"SC","st_name":"NCT OF DELHI"},"geometry":{"type":"Polygon","coordinates":[[[77.0397410591741,28.83207795941106],[77.02337205768977,28.83904879237136],[76.99410150308033,28.84020161448727],[76.97979831501661,28.82159647417302],[76.9673561307393,28.82799232328133],[76.96189835320493,28.81493662233806],[76.95122519637054,28.81766431466037],[76.94206455137142,28.79849005496319],[76.95365897029065,28.7906194469156],[76.94912766530966,28.77806421086989],[76.95585343679711,28.76741733289624],[76.94974945146181,28.76253112516578],[76.95998244031306,28.76748110721103],[76.96974647915246,28.76112265918657],[76.9837543025207,28.76019589273296],[76.99498993133561,28.74618583670951],[77.0038040461533,28.74406913152489],[77.00653869598264,28.7484283054748],[77.01075135819845,28.74496987192302],[77.01423517376989,28.75482335322684],[77.02506302899256,28.75088729933012],[77.04311889550686,28.76512482069786],[77.05150595887994,28.75427317490168],[77.0488960664838,28.74188303240207],[77.05361082808942,28.72578765003305],[77.05020269167984,28.71884125294796],[77.05484657043453,28.71410337027832],[77.06923934449128,28.70692980946632],[77.08116681769411,28.70450805804285],[77.07133228882755,28.71464283243386],[77.07265083766569,28.72053102537232],[77.09213814881399,28.72399398532747],[77.10143252208297,28.74605815538438],[77.12055497525252,28.74488395954634],[77.11860858041815,28.74811395628026],[77.11357233991788,28.75266706001263],[77.09112120538616,28.76692336462275],[77.07387720361783,28.75747177362767],[77.06922114333442,28.77540146542077],[77.05830452849996,28.78537492999731],[77.07031353500881,28.80416466191224],[77.04261767787968,28.82253845202213],[77.0397410591741,28.83207795941106]]]}},{"type":"Feature","properties":{"ac_name":"BURARI","ac_no":2,"ac_category":"GEN","st_name":"NCT OF DELHI"},"geometry":{"type":"Polygon","coordinates":[[[77.21389631814954,28.78548396940159],[77.1991042673121,28.78059504287868],[77.19004093557103,28.78510722217236],[77.18958746003787,28.79042416026646],[77.15620677454191,28.79474423131935],[77.14030618360404,28.78773588384733],[77.13986416006627,28.78010947074673],[77.12366388116688,28.77450308230596],[77.12330347459817,28.77112018966896],[77.12977820947934,28.77284075314524],[77.12838742854487,28.76821302932669],[77.17673729844691,28.7589287656376],[77.16177398327692,28.74379101690782],[77.16869777075406,28.7403028110969],[77.16215930238812,28.73390446613598],[77.16479217420402,28.73052034930828],[77.18293035875696,28.7297448006451],[77.2047552932419,28.71904652330342],[77.21712141398504,28.71674029061964],[77.21375725983707,28.72719164554603],[77.22195697636275,28.72896031016717],[77.22731156803276,28.72770505603654],[77.23119627149369,28.71650970421599],[77.23950195038732,28.71675749670892],[77.24305252254884,28.72779614416993],[77.23967420887595,28.73859834233758],[77.21449013307729,28.76340378178597],[77.21409330788644,28.78543940727714],[77.21389631814954,28.78548396940159]]]}},{"type":"Feature","properties":{"ac_name":"KARAWAL NAGAR","ac_no":70,"ac_category":"GEN","st_name":"NCT OF DELHI"},"geometry":{"type":"Polygon","coordinates":[[[77.21409330788644,28.78543940727714],[77.21449013307729,28.76340378178597],[77.23967420887595,28.73859834233758],[77.24305252254884,28.72779614416993],[77.23950195038732,28.71675749670892],[77.23680497171195,28.7067143762042],[77.27157729101428,28.69964084439446],[77.26729284573653,28.70375320749761],[77.26894184461737,28.71459286050512],[77.27430447743708,28.71248063258303],[77.28654841309603,28.7245781477006],[77.27577147151509,28.73578190161407],[77.2612505132899,28.73425071968778],[77.2557841335146,28.73894457151334],[77.25618614248157,28.75607533046114],[77.23527015698353,28.76112088858228],[77.23569686206301,28.77116196463042],[77.22174047555056,28.77782372414171],[77.23332538653821,28.78410354675919],[77.21409330788644,28.78543940727714]]]}},{"type":"Feature","properties":{"ac_name":"MUNDKA","ac_no":8,"ac_category":"GEN","st_name":"NCT OF DELHI"},"geometry":{"type":"Polygon","coordinates":[[[76.94974945146181,28.76253112516578],[76.94423774837006,28.75382097204565],[76.95853281390099,28.74343821187403],[76.95590842179706,28.73884302800825],[76.9599314294091,28.73264765157766],[76.94828335828585,28.71275235887625],[76.9684436105017,28.69922021781543],[76.9577384238651,28.68401838998667],[76.95672723230285,28.67259320356063],[76.98864654494706,28.66785131761617],[76.99518350489073,28.65339129330026],[77.00825944843855,28.67188428010142],[77.02656987381519,28.6697210717377],[77.0419096008489,28.67396078798297],[77.04822974343372,28.66133218006987],[77.05661038919793,28.66022457547145],[77.06076424597507,28.63863766462236],[77.07455268186523,28.64743118486715],[77.08455831330829,28.65468673140353],[77.05952162667941,28.66988857182062],[77.0708988576681,28.68278951063619],[77.05504423884253,28.68460486413303],[77.03532765106185,28.68828994792041],[77.02688294711078,28.70546490179055],[77.03661516429248,28.70457247130471],[77.05484657043453,28.71410337027832],[77.05020269167984,28.71884125294796],[77.05361082808942,28.72578765003305],[77.0488960664838,28.74188303240207],[77.05150595887994,28.75427317490168],[77.04311889550686,28.76512482069786],[77.02506302899256,28.75088729933012],[77.01423517376989,28.75482335322684],[77.01075135819845,28.74496987192302],[77.00653869598264,28.7484283054748],[77.0038040461533,28.74406913152489],[76.99498993133561,28.74618583670951],[76.9837543025207,28.76019589273296],[76.96974647915246,28.76112265918657],[76.95998244031306,28.76748110721103],[76.94974945146181,28.76253112516578]]]}},{"type":"Feature","properties":{"ac_name":"BADLI","ac_no":5,"ac_category":"GEN","st_name":"NCT OF DELHI"},"geometry":{"type":"Polygon","coordinates":[[[77.12838742854487,28.76821302932669],[77.12215930433874,28.76671553741986],[77.12004991690813,28.7568036358453],[77.11357233991788,28.75266706001263],[77.11860858041815,28.74811395628026],[77.1276812158622,28.74860425533551],[77.1368575397823,28.73914164829377],[77.12858048239235,28.73046607977561],[77.13669519926471,28.72996553390704],[77.14125207853252,28.73289365935618],[77.14709251054904,28.73664745302863],[77.153729522218,28.72943954293542],[77.16479217420402,28.73052034930828],[77.16215930238812,28.73390446613598],[77.16869777075406,28.7403028110969],[77.16177398327692,28.74379101690782],[77.17673729844691,28.7589287656376],[77.12838742854487,28.76821302932669]]]}},{"type":"Feature","properties":{"ac_name":"ROHINI","ac_no":13,"ac_category":"GEN","st_name":"NCT OF DELHI"},"geometry":{"type":"Polygon","coordinates":[[[77.11860858041815,28.74811395628026],[77.12055497525252,28.74488395954634],[77.12450045146461,28.73893012668721],[77.11379773730623,28.73001453641914],[77.116515167315,28.72762244776823],[77.09669418635411,28.71159249290112],[77.10909005234694,28.7007431950445],[77.11757168336769,28.7040332252126],[77.12124217856109,28.70673769431871],[77.13669519926471,28.72996553390704],[77.12858048239235,28.73046607977561],[77.1368575397823,28.73914164829377],[77.1276812158622,28.74860425533551],[77.11860858041815,28.74811395628026]]]}},{"type":"Feature","properties":{"ac_name":"RITHALA","ac_no":6,"ac_category":"GEN","st_name":"NCT OF DELHI"},"geometry":{"type":"Polygon","coordinates":[[[77.09669418635411,28.71159249290112],[77.116515167315,28.72762244776823],[77.11379773730623,28.73001453641914],[77.12450045146461,28.73893012668721],[77.12055497525252,28.74488395954634],[77.10143252208297,28.74605815538438],[77.09213814881399,28.72399398532747],[77.07265083766569,28.72053102537232],[77.07133228882755,28.71464283243386],[77.08116681769411,28.70450805804285],[77.08537366429688,28.70192598106723],[77.09570346478802,28.70436101203319],[77.0924228198119,28.71152551986408],[77.09669418635411,28.71159249290112]]]}},{"type":"Feature","properties":{"ac_name":"ADARSH NAGAR","ac_no":4,"ac_category":"GEN","st_name":"NCT OF DELHI"},"geometry":{"type":"Polygon","coordinates":[[[77.14125207853252,28.73289365935618],[77.16282572547168,28.70911991400632],[77.1648229099137,28.70661109217362],[77.16679814732694,28.7105133696512],[77.18490336434843,28.70943844223912],[77.19257224646329,28.7184600399833],[77.2047552932419,28.71904652330342],[77.18293035875696,28.7297448006451],[77.16479217420402,28.73052034930828],[77.153729522218,28.72943954293542],[77.14709251054904,28.73664745302863],[77.14125207853252,28.73289365935618]]]}},{"type":"Feature","properties":{"ac_name":"SHALIMAR BAGH","ac_no":14,"ac_category":"GEN","st_name":"NCT OF DELHI"},"geometry":{"type":"Polygon","coordinates":[[[77.13669519926471,28.72996553390704],[77.12124217856109,28.70673769431871],[77.14369103495353,28.6948619936747],[77.14747470761726,28.70206798870591],[77.16282572547168,28.70911991400632],[77.14125207853252,28.73289365935618],[77.13669519926471,28.72996553390704]]]}},{"type":"Feature","properties":{"ac_name":"TIMARPUR","ac_no":3,"ac_category":"GEN","st_name":"NCT OF DELHI"},"geometry":{"type":"Polygon","coordinates":[[[77.23950195038732,28.71675749670892],[77.23119627149369,28.71650970421599],[77.22731156803276,28.72770505603654],[77.22195697636275,28.72896031016717],[77.21375725983707,28.72719164554603],[77.21712141398504,28.71674029061964],[77.2047552932419,28.71904652330342],[77.19257224646329,28.7184600399833],[77.18490336434843,28.70943844223912],[77.18496845642717,28.70484090648629],[77.20119737259249,28.697754560359],[77.19423499595658,28.6874008178547],[77.19625630542872,28.6827289413792],[77.2037600938914,28.68701048767515],[77.21071337023123,28.6777515052021],[77.20290982604772,28.66995806232344],[77.21049620357243,28.66584304516924],[77.22835280185926,28.70166299106747],[77.23570770698583,28.7002859726776],[77.23680497171195,28.7067143762042],[77.23950195038732,28.71675749670892]]]}},{"type":"Feature","properties":{"ac_name":"MUSTAFABAD","ac_no":69,"ac_category":"GEN","st_name":"NCT OF DELHI"},"geometry":{"type":"Polygon","coordinates":[[[77.28654841309603,28.7245781477006],[77.27430447743708,28.71248063258303],[77.26894184461737,28.71459286050512],[77.26729284573653,28.70375320749761],[77.27157729101428,28.69964084439446],[77.27872980191036,28.69925834055481],[77.28658476275848,28.71381847104483],[77.29093765043481,28.72158103711618],[77.28654841309603,28.7245781477006]]]}},{"type":"Feature","properties":{"ac_name":"KIRARI","ac_no":9,"ac_category":"GEN","st_name":"NCT OF DELHI"},"geometry":{"type":"Polygon","coordinates":[[[77.06923934449128,28.70692980946632],[77.05484657043453,28.71410337027832],[77.03661516429248,28.70457247130471],[77.02688294711078,28.70546490179055],[77.03532765106185,28.68828994792041],[77.05504423884253,28.68460486413303],[77.05742199299821,28.69608040750993],[77.06678081645363,28.69827395178485],[77.06923934449128,28.70692980946632]]]}},{"type":"Feature","properties":{"ac_name":"MANGOL PURI","ac_no":12,"ac_category":"SC","st_name":"NCT OF DELHI"},"geometry":{"type":"Polygon","coordinates":[[[77.08537366429688,28.70192598106723],[77.08490646365442,28.69791987200235],[77.07282051837471,28.69573044195299],[77.07780811820761,28.69274591570369],[77.07370635941886,28.69228905818619],[77.0712793889854,28.68287008391095],[77.09506405162301,28.68155161572672],[77.097215590665,28.69449926394708],[77.10909005234694,28.7007431950445],[77.09669418635411,28.71159249290112],[77.0924228198119,28.71152551986408],[77.09570346478802,28.70436101203319],[77.08537366429688,28.70192598106723]]]}},{"type":"Feature","properties":{"ac_name":"MODEL TOWN","ac_no":18,"ac_category":"GEN","st_name":"NCT OF DELHI"},"geometry":{"type":"Polygon","coordinates":[[[77.1648229099137,28.70661109217362],[77.1846569033421,28.67841986814745],[77.20290982604772,28.66995806232344],[77.21071337023123,28.6777515052021],[77.2037600938914,28.68701048767515],[77.19625630542872,28.6827289413792],[77.19423499595658,28.6874008178547],[77.20119737259249,28.697754560359],[77.18496845642717,28.70484090648629],[77.18490336434843,28.70943844223912],[77.16679814732694,28.7105133696512],[77.1648229099137,28.70661109217362]]]}},{"type":"Feature","properties":{"ac_name":"GOKALPUR","ac_no":68,"ac_category":"SC","st_name":"NCT OF DELHI"},"geometry":{"type":"Polygon","coordinates":[[[77.28658476275848,28.71381847104483],[77.27872980191036,28.69925834055481],[77.27979841825174,28.69900318415172],[77.29519941505718,28.69773492118621],[77.30611204762985,28.69560840070731],[77.32387270730001,28.69770547825806],[77.3250283429756,28.70757579081611],[77.3314425630625,28.71278712704056],[77.305599811957,28.71339215888131],[77.29651232034949,28.70432060522654],[77.28658476275848,28.71381847104483]]]}},{"type":"Feature","properties":{"ac_name":"SULTAN PUR MAJRA","ac_no":10,"ac_category":"SC","st_name":"NCT OF DELHI"},"geometry":{"type":"Polygon","coordinates":[[[77.08116681769411,28.70450805804285],[77.06923934449128,28.70692980946632],[77.06678081645363,28.69827395178485],[77.05742199299821,28.69608040750993],[77.05504423884253,28.68460486413303],[77.0708988576681,28.68278951063619],[77.0712793889854,28.68287008391095],[77.07370635941886,28.69228905818619],[77.07780811820761,28.69274591570369],[77.07282051837471,28.69573044195299],[77.08490646365442,28.69791987200235],[77.08537366429688,28.70192598106723],[77.08116681769411,28.70450805804285]]]}},{"type":"Feature","properties":{"ac_name":"WAZIRPUR","ac_no":17,"ac_category":"GEN","st_name":"NCT OF DELHI"},"geometry":{"type":"Polygon","coordinates":[[[77.16282572547168,28.70911991400632],[77.14747470761726,28.70206798870591],[77.14369103495353,28.6948619936747],[77.1456371610439,28.68474454604866],[77.15316816848443,28.68605617269663],[77.15923187235771,28.67352148949935],[77.16246783308071,28.67185308474963],[77.1846569033421,28.67841986814745],[77.1648229099137,28.70661109217362],[77.16282572547168,28.70911991400632]]]}},{"type":"Feature","properties":{"ac_name":"TRI NAGAR","ac_no":16,"ac_category":"GEN","st_name":"NCT OF DELHI"},"geometry":{"type":"Polygon","coordinates":[[[77.11757168336769,28.7040332252126],[77.11862902281905,28.70242070548708],[77.1279457186666,28.69411850555094],[77.12717204123065,28.68996551219751],[77.12319898272168,28.69100043774171],[77.12288458723621,28.67992625207357],[77.13095224838729,28.67951409138742],[77.128539741754,28.67453099903421],[77.15923187235771,28.67352148949935],[77.15316816848443,28.68605617269663],[77.1456371610439,28.68474454604866],[77.14369103495353,28.6948619936747],[77.12124217856109,28.70673769431871],[77.11757168336769,28.7040332252126]]]}},{"type":"Feature","properties":{"ac_name":"SHAKUR BASTI","ac_no":15,"ac_category":"GEN","st_name":"NCT OF DELHI"},"geometry":{"type":"Polygon","coordinates":[[[77.11862902281905,28.70242070548708],[77.11757168336769,28.7040332252126],[77.10909005234694,28.7007431950445],[77.097215590665,28.69449926394708],[77.09506405162301,28.68155161572672],[77.09212795807477,28.65364406688174],[77.10161267865834,28.65950357462913],[77.11186912712478,28.65998548190217],[77.11879914063714,28.6614869110824],[77.11443800604384,28.66493704939167],[77.11502960154071,28.67592137410084],[77.128539741754,28.67453099903421],[77.13095224838729,28.67951409138742],[77.12288458723621,28.67992625207357],[77.12319898272168,28.69100043774171],[77.12717204123065,28.68996551219751],[77.1279457186666,28.69411850555094],[77.11862902281905,28.70242070548708]]]}},{"type":"Feature","properties":{"ac_name":"GHONDA","ac_no":66,"ac_category":"GEN","st_name":"NCT OF DELHI"},"geometry":{"type":"Polygon","coordinates":[[[77.23570770698583,28.7002859726776],[77.23493387477532,28.67570041498013],[77.27404298249387,28.68277476993114],[77.26794848923251,28.69675531120634],[77.27979841825174,28.69900318415172],[77.27872980191036,28.69925834055481],[77.27157729101428,28.69964084439446],[77.23680497171195,28.7067143762042],[77.23570770698583,28.7002859726776]]]}},{"type":"Feature","properties":{"ac_name":"CHANDNI CHOWK","ac_no":20,"ac_category":"GEN","st_name":"NCT OF DELHI"},"geometry":{"type":"Polygon","coordinates":[[[77.23493387477532,28.67570041498013],[77.23570770698583,28.7002859726776],[77.22835280185926,28.70166299106747],[77.21049620357243,28.66584304516924],[77.21501320868052,28.66104377887537],[77.2270427166798,28.66219771853887],[77.2182596979511,28.66012016371137],[77.21866403894391,28.65576416558876],[77.22775898672187,28.65360681728711],[77.23067596929445,28.64628604208527],[77.24074025888049,28.63994701766529],[77.23903936834458,28.64493898191544],[77.25173394482657,28.64549612347744],[77.25602259408184,28.65260946157509],[77.24669722478527,28.65998994015219],[77.23651469062767,28.66822519018667],[77.23493387477532,28.67570041498013]]]}},{"type":"Feature","properties":{"ac_name":"BABARPUR","ac_no":67,"ac_category":"GEN","st_name":"NCT OF DELHI"},"geometry":{"type":"Polygon","coordinates":[[[77.29519941505718,28.69773492118621],[77.27979841825174,28.69900318415172],[77.26794848923251,28.69675531120634],[77.27404298249387,28.68277476993114],[77.28050192138952,28.68285342398611],[77.27735444412538,28.67385018624849],[77.28759181307261,28.67476981800429],[77.28947930898283,28.68189582337924],[77.29593640579444,28.6782780819091],[77.29519941505718,28.69773492118621]]]}},{"type":"Feature","properties":{"ac_name":"ROHTAS NAGAR","ac_no":64,"ac_category":"GEN","st_name":"NCT OF DELHI"},"geometry":{"type":"Polygon","coordinates":[[[77.30611204762985,28.69560840070731],[77.29519941505718,28.69773492118621],[77.29593640579444,28.6782780819091],[77.28947930898283,28.68189582337924],[77.28759181307261,28.67476981800429],[77.27735444412538,28.67385018624849],[77.27901069687428,28.66935228316527],[77.27305199479875,28.66800595413941],[77.28053255675196,28.66722476703187],[77.29916689644853,28.66821736441102],[77.303997280492,28.67213559905424],[77.30611204762985,28.69560840070731]]]}},{"type":"Feature","properties":{"ac_name":"SEEMAPURI","ac_no":63,"ac_category":"SC","st_name":"NCT OF DELHI"},"geometry":{"type":"Polygon","coordinates":[[[77.30611204762985,28.69560840070731],[77.303997280492,28.67213559905424],[77.33216504502687,28.68578078154627],[77.32630531995788,28.69480141085629],[77.32387270730001,28.69770547825806],[77.30611204762985,28.69560840070731]]]}},{"type":"Feature","properties":{"ac_name":"NANGLOI JAT","ac_no":11,"ac_category":"GEN","st_name":"NCT OF DELHI"},"geometry":{"type":"Polygon","coordinates":[[[77.0712793889854,28.68287008391095],[77.0708988576681,28.68278951063619],[77.05952162667941,28.66988857182062],[77.08455831330829,28.65468673140353],[77.09212795807477,28.65364406688174],[77.09506405162301,28.68155161572672],[77.0712793889854,28.68287008391095]]]}},{"type":"Feature","properties":{"ac_name":"SHAHDARA","ac_no":62,"ac_category":"GEN","st_name":"NCT OF DELHI"},"geometry":{"type":"Polygon","coordinates":[[[77.303997280492,28.67213559905424],[77.29916689644853,28.66821736441102],[77.28053255675196,28.66722476703187],[77.28634769326385,28.66063353081882],[77.30214740187661,28.66771093646285],[77.30402913486829,28.66420586117469],[77.32137597748998,28.6643596539833],[77.32385747441104,28.67713922855943],[77.3334467907588,28.68102374819375],[77.33216504502687,28.68578078154627],[77.303997280492,28.67213559905424]]]}},{"type":"Feature","properties":{"ac_name":"SEELAM PUR","ac_no":65,"ac_category":"GEN","st_name":"NCT OF DELHI"},"geometry":{"type":"Polygon","coordinates":[[[77.27404298249387,28.68277476993114],[77.23493387477532,28.67570041498013],[77.23651469062767,28.66822519018667],[77.24669722478527,28.65998994015219],[77.27305199479875,28.66800595413941],[77.27901069687428,28.66935228316527],[77.27735444412538,28.67385018624849],[77.28050192138952,28.68285342398611],[77.27404298249387,28.68277476993114]]]}},{"type":"Feature","properties":{"ac_name":"NAJAFGARH","ac_no":35,"ac_category":"GEN","st_name":"NCT OF DELHI"},"geometry":{"type":"Polygon","coordinates":[[[76.95672723230285,28.67259320356063],[76.95352049330862,28.66738708147818],[76.93455858343383,28.66705949730221],[76.92461065606238,28.64959558520701],[76.94437255135969,28.63326726976414],[76.93485792975082,28.61853800865054],[76.91740792333036,28.63193802227062],[76.90645289874934,28.62353284016984],[76.88853772165518,28.63199326882243],[76.88387194563205,28.62479970270238],[76.86456443261189,28.58601385386233],[76.83929608392428,28.58218307879182],[76.84512615505203,28.55032353991227],[76.86372100099474,28.5440737264273],[76.87259112006574,28.53277965633065],[76.88534505340144,28.54329335409671],[76.90404255020339,28.54146650663314],[76.90477146487689,28.55348677451148],[76.93293695222611,28.56287699490663],[76.92371949467116,28.5717487556219],[76.93483034510282,28.58760219388397],[76.94640374807524,28.59214772611417],[76.95948763326632,28.58959713877137],[76.96709149738194,28.5828273122152],[76.98023507868902,28.59389058369996],[77.01056845127393,28.59147161153266],[77.01582106449571,28.59756716076656],[77.01096504310465,28.60442276151051],[77.01652877079225,28.61039250124362],[76.9968964580653,28.61624842560947],[76.99980832282125,28.63131541264974],[77.00472665709033,28.63805662341624],[76.99518350489073,28.65339129330026],[76.98864654494706,28.66785131761617],[76.95672723230285,28.67259320356063]]]}},{"type":"Feature","properties":{"ac_name":"SADAR BAZAR","ac_no":19,"ac_category":"GEN","st_name":"NCT OF DELHI"},"geometry":{"type":"Polygon","coordinates":[[[77.1846569033421,28.67841986814745],[77.16246783308071,28.67185308474963],[77.17294137748154,28.66466821578283],[77.17781591083563,28.66399652782067],[77.17444427104445,28.66116685101736],[77.17897746350283,28.65732340872408],[77.18547988637403,28.66252329968852],[77.20460257525808,28.65744149993477],[77.21866403894391,28.65576416558876],[77.2182596979511,28.66012016371137],[77.2270427166798,28.66219771853887],[77.21501320868052,28.66104377887537],[77.21049620357243,28.66584304516924],[77.20290982604772,28.66995806232344],[77.1846569033421,28.67841986814745]]]}},{"type":"Feature","properties":{"ac_name":"VIKASPURI","ac_no":31,"ac_category":"GEN","st_name":"NCT OF DELHI"},"geometry":{"type":"Polygon","coordinates":[[[77.07455268186523,28.64743118486715],[77.06076424597507,28.63863766462236],[77.05661038919793,28.66022457547145],[77.04822974343372,28.66133218006987],[77.0419096008489,28.67396078798297],[77.02656987381519,28.6697210717377],[77.00825944843855,28.67188428010142],[76.99518350489073,28.65339129330026],[77.00472665709033,28.63805662341624],[76.99980832282125,28.63131541264974],[77.00769934693476,28.62274508103067],[77.02266023874019,28.62505260064725],[77.05872369045672,28.62792180136424],[77.06163937584374,28.62276940146439],[77.07477539699462,28.62724794114422],[77.06633382504005,28.63607510368665],[77.07897996908682,28.63273728138551],[77.0865258895046,28.63913467227682],[77.07768825880031,28.6407276039169],[77.07455268186523,28.64743118486715]]]}},{"type":"Feature","properties":{"ac_name":"MADIPUR","ac_no":26,"ac_category":"SC","st_name":"NCT OF DELHI"},"geometry":{"type":"Polygon","coordinates":[[[77.128539741754,28.67453099903421],[77.11502960154071,28.67592137410084],[77.11443800604384,28.66493704939167],[77.11879914063714,28.6614869110824],[77.11186912712478,28.65998548190217],[77.11346102621583,28.65257794318905],[77.1214778971522,28.64708983745327],[77.12944477129032,28.65062084162014],[77.14046362613797,28.66028505334803],[77.13279425344736,28.66105394551212],[77.13787105886047,28.66837573912594],[77.128539741754,28.67453099903421]]]}},{"type":"Feature","properties":{"ac_name":"MOTI NAGAR","ac_no":25,"ac_category":"GEN","st_name":"NCT OF DELHI"},"geometry":{"type":"Polygon","coordinates":[[[77.16246783308071,28.67185308474963],[77.15923187235771,28.67352148949935],[77.128539741754,28.67453099903421],[77.13787105886047,28.66837573912594],[77.13279425344736,28.66105394551212],[77.14046362613797,28.66028505334803],[77.12944477129032,28.65062084162014],[77.13533971291517,28.64028829530346],[77.13439350918766,28.63081379845902],[77.13450330027304,28.63099839751141],[77.1564323101856,28.65582410629252],[77.17294137748154,28.66466821578283],[77.16246783308071,28.67185308474963]]]}},{"type":"Feature","properties":{"ac_name":"GANDHI NAGAR","ac_no":61,"ac_category":"GEN","st_name":"NCT OF DELHI"},"geometry":{"type":"Polygon","coordinates":[[[77.28053255675196,28.66722476703187],[77.27305199479875,28.66800595413941],[77.24669722478527,28.65998994015219],[77.25602259408184,28.65260946157509],[77.25620887287914,28.65236263897011],[77.26458033351196,28.65165915296976],[77.26976148209816,28.65724995062597],[77.2829350596376,28.6553296065552],[77.2863997669097,28.6604607147623],[77.28634769326385,28.66063353081882],[77.28053255675196,28.66722476703187]]]}},{"type":"Feature","properties":{"ac_name":"PATEL NAGAR","ac_no":24,"ac_category":"SC","st_name":"NCT OF DELHI"},"geometry":{"type":"Polygon","coordinates":[[[77.18547988637403,28.66252329968852],[77.17897746350283,28.65732340872408],[77.17444427104445,28.66116685101736],[77.17781591083563,28.66399652782067],[77.17294137748154,28.66466821578283],[77.1564323101856,28.65582410629252],[77.15950543460785,28.65411866664465],[77.15554478796174,28.64990329530497],[77.16248368332023,28.64385964747159],[77.1778490863891,28.63988986326521],[77.18387933227497,28.64064093940511],[77.18536297332709,28.64634561362915],[77.17363865090928,28.65204367376795],[77.18631785365167,28.65754495270738],[77.18547988637403,28.66252329968852]]]}},{"type":"Feature","properties":{"ac_name":"KAROL BAGH","ac_no":23,"ac_category":"SC","st_name":"NCT OF DELHI"},"geometry":{"type":"Polygon","coordinates":[[[77.18547988637403,28.66252329968852],[77.18631785365167,28.65754495270738],[77.17363865090928,28.65204367376795],[77.18536297332709,28.64634561362915],[77.20017397951901,28.64203808352001],[77.21675597083282,28.63378338262093],[77.21948112843997,28.64000446236284],[77.2061477344786,28.64813445585031],[77.20460257525808,28.65744149993477],[77.18547988637403,28.66252329968852]]]}},{"type":"Feature","properties":{"ac_name":"VISHWAS NAGAR","ac_no":59,"ac_category":"GEN","st_name":"NCT OF DELHI"},"geometry":{"type":"Polygon","coordinates":[[[77.28634769326385,28.66063353081882],[77.2863997669097,28.6604607147623],[77.29671295236213,28.64416673567903],[77.28577772395255,28.63641317021684],[77.28746343550718,28.62549421617988],[77.29277859378686,28.6280256499101],[77.29811544701221,28.63198224580785],[77.30763967025827,28.62205322814885],[77.3199124031533,28.62253297305589],[77.33404200284346,28.62816386081557],[77.31618958058436,28.64093807442742],[77.32040283307984,28.65825862454661],[77.32137597748998,28.6643596539833],[77.30402913486829,28.66420586117469],[77.30214740187661,28.66771093646285],[77.28634769326385,28.66063353081882]]]}},{"type":"Feature","properties":{"ac_name":"RAJOURI GARDEN","ac_no":27,"ac_category":"GEN","st_name":"NCT OF DELHI"},"geometry":{"type":"Polygon","coordinates":[[[77.11186912712478,28.65998548190217],[77.10161267865834,28.65950357462913],[77.10239488700162,28.65295685428889],[77.09480489685798,28.65171887927227],[77.09428708469785,28.64424884269148],[77.11296889191158,28.64227764823603],[77.12247581518315,28.6382322782905],[77.13533971291517,28.64028829530346],[77.12944477129032,28.65062084162014],[77.1214778971522,28.64708983745327],[77.11346102621583,28.65257794318905],[77.11186912712478,28.65998548190217]]]}},{"type":"Feature","properties":{"ac_name":"TILAK NAGAR","ac_no":29,"ac_category":"GEN","st_name":"NCT OF DELHI"},"geometry":{"type":"Polygon","coordinates":[[[77.09212795807477,28.65364406688174],[77.08455831330829,28.65468673140353],[77.07455268186523,28.64743118486715],[77.07768825880031,28.6407276039169],[77.0865258895046,28.63913467227682],[77.07897996908682,28.63273728138551],[77.06633382504005,28.63607510368665],[77.07477539699462,28.62724794114422],[77.08716597076378,28.63205571940506],[77.10137538659414,28.63758595973463],[77.11169039429137,28.6356079510837],[77.11296889191158,28.64227764823603],[77.09428708469785,28.64424884269148],[77.09480489685798,28.65171887927227],[77.10239488700162,28.65295685428889],[77.10161267865834,28.65950357462913],[77.09212795807477,28.65364406688174]]]}},{"type":"Feature","properties":{"ac_name":"BALLIMARAN","ac_no":22,"ac_category":"GEN","st_name":"NCT OF DELHI"},"geometry":{"type":"Polygon","coordinates":[[[77.21866403894391,28.65576416558876],[77.20460257525808,28.65744149993477],[77.2061477344786,28.64813445585031],[77.21948112843997,28.64000446236284],[77.22112576978395,28.63987476944181],[77.22186001699627,28.64519413230816],[77.23067596929445,28.64628604208527],[77.22775898672187,28.65360681728711],[77.21866403894391,28.65576416558876]]]}},{"type":"Feature","properties":{"ac_name":"KRISHNA NAGAR","ac_no":60,"ac_category":"GEN","st_name":"NCT OF DELHI"},"geometry":{"type":"Polygon","coordinates":[[[77.25620887287914,28.65236263897011],[77.26315423947317,28.64202940743224],[77.28193725938476,28.64102574777966],[77.28577772395255,28.63641317021684],[77.29671295236213,28.64416673567903],[77.2863997669097,28.6604607147623],[77.2829350596376,28.6553296065552],[77.26976148209816,28.65724995062597],[77.26458033351196,28.65165915296976],[77.25620887287914,28.65236263897011]]]}},{"type":"Feature","properties":{"ac_name":"RAJINDER NAGAR","ac_no":39,"ac_category":"GEN","st_name":"NCT OF DELHI"},"geometry":{"type":"Polygon","coordinates":[[[77.20017397951901,28.64203808352001],[77.18536297332709,28.64634561362915],[77.18387933227497,28.64064093940511],[77.1778490863891,28.63988986326521],[77.16248368332023,28.64385964747159],[77.15554478796174,28.64990329530497],[77.15950543460785,28.65411866664465],[77.1564323101856,28.65582410629252],[77.13450330027304,28.63099839751141],[77.13974380028866,28.61778438351506],[77.15421844149257,28.62599558904108],[77.16572709180788,28.61992054944365],[77.15760522168229,28.60838137660084],[77.16017587468336,28.60265684893946],[77.17175714110616,28.60261314716049],[77.20017397951901,28.64203808352001]]]}},{"type":"Feature","properties":{"ac_name":"JANGPURA","ac_no":41,"ac_category":"GEN","st_name":"NCT OF DELHI"},"geometry":{"type":"Polygon","coordinates":[[[77.25620887287914,28.65236263897011],[77.25602259408184,28.65260946157509],[77.25173394482657,28.64549612347744],[77.23903936834458,28.64493898191544],[77.24074025888049,28.63994701766529],[77.24459794231939,28.62313498586842],[77.24255161058049,28.60272331311499],[77.24872406442773,28.59236918919143],[77.24499052814531,28.59116121474037],[77.24904786616122,28.57719663085199],[77.23875692013128,28.56770955704821],[77.25471884655883,28.563862492952],[77.26332156096198,28.57136191154617],[77.27108428743746,28.58481052076423],[77.2641665031595,28.59984460369337],[77.25751347259163,28.61474370396348],[77.26315423947317,28.64202940743224],[77.25620887287914,28.65236263897011]]]}},{"type":"Feature","properties":{"ac_name":"MATIA MAHAL","ac_no":21,"ac_category":"GEN","st_name":"NCT OF DELHI"},"geometry":{"type":"Polygon","coordinates":[[[77.22112576978395,28.63987476944181],[77.22398399186491,28.63354331715946],[77.24459794231939,28.62313498586842],[77.24074025888049,28.63994701766529],[77.23067596929445,28.64628604208527],[77.22186001699627,28.64519413230816],[77.22112576978395,28.63987476944181]]]}},{"type":"Feature","properties":{"ac_name":"HARI NAGAR","ac_no":28,"ac_category":"GEN","st_name":"NCT OF DELHI"},"geometry":{"type":"Polygon","coordinates":[[[77.13533971291517,28.64028829530346],[77.12247581518315,28.6382322782905],[77.11296889191158,28.64227764823603],[77.11169039429137,28.6356079510837],[77.10137538659414,28.63758595973463],[77.08716597076378,28.63205571940506],[77.09620180316192,28.62202740634823],[77.10424136078417,28.624414933178],[77.10915768459066,28.61915099483807],[77.10427773911168,28.60570295979512],[77.11101020196715,28.60249760483684],[77.13439350918766,28.63081379845902],[77.13533971291517,28.64028829530346]]]}},{"type":"Feature","properties":{"ac_name":"NEW DELHI","ac_no":40,"ac_category":"GEN","st_name":"NCT OF DELHI"},"geometry":{"type":"Polygon","coordinates":[[[77.22112576978395,28.63987476944181],[77.21948112843997,28.64000446236284],[77.21675597083282,28.63378338262093],[77.20017397951901,28.64203808352001],[77.17175714110616,28.60261314716049],[77.16901143029003,28.59405902536217],[77.16919907243047,28.59414730772129],[77.1935715686227,28.6048114147843],[77.20248564523872,28.58162618248273],[77.19249644878542,28.57930397423197],[77.19111463973147,28.56829004009855],[77.19617358181101,28.56536785526731],[77.20187194711508,28.56785916166675],[77.20357893781059,28.55921655503975],[77.21185326960841,28.55845333012396],[77.2173194735123,28.56424354541239],[77.22204529916593,28.57331768022088],[77.21111020088418,28.57177591779029],[77.21138173427137,28.57663690184902],[77.22851703699689,28.57775849424329],[77.22883181190703,28.5874711095882],[77.24499052814531,28.59116121474037],[77.24872406442773,28.59236918919143],[77.24255161058049,28.60272331311499],[77.24459794231939,28.62313498586842],[77.22398399186491,28.63354331715946],[77.22112576978395,28.63987476944181]]]}},{"type":"Feature","properties":{"ac_name":"LAXMI NAGAR","ac_no":58,"ac_category":"GEN","st_name":"NCT OF DELHI"},"geometry":{"type":"Polygon","coordinates":[[[77.26315423947317,28.64202940743224],[77.25751347259163,28.61474370396348],[77.2641665031595,28.59984460369337],[77.28437484561104,28.61116005555865],[77.28639188067777,28.60873950826629],[77.28928754151231,28.6199707201232],[77.29904341311696,28.62168089556901],[77.29277859378686,28.6280256499101],[77.28746343550718,28.62549421617988],[77.28577772395255,28.63641317021684],[77.28193725938476,28.64102574777966],[77.26315423947317,28.64202940743224]]]}},{"type":"Feature","properties":{"ac_name":"MATIALA","ac_no":34,"ac_category":"GEN","st_name":"NCT OF DELHI"},"geometry":{"type":"Polygon","coordinates":[[[76.99980832282125,28.63131541264974],[76.9968964580653,28.61624842560947],[77.01652877079225,28.61039250124362],[77.01096504310465,28.60442276151051],[77.01582106449571,28.59756716076656],[77.01056845127393,28.59147161153266],[76.98023507868902,28.59389058369996],[76.96709149738194,28.5828273122152],[76.95948763326632,28.58959713877137],[76.94640374807524,28.59214772611417],[76.93483034510282,28.58760219388397],[76.92371949467116,28.5717487556219],[76.93293695222611,28.56287699490663],[76.90477146487689,28.55348677451148],[76.90404255020339,28.54146650663314],[76.88534505340144,28.54329335409671],[76.87259112006574,28.53277965633065],[76.87675912914615,28.52489550315196],[76.8872712073827,28.51989289255024],[76.88031874643616,28.50586596570655],[76.885525473561,28.50095906862285],[76.89215122866204,28.50045554947725],[76.90802372024531,28.51360376253187],[76.92283285726056,28.50736826861127],[76.93664614932386,28.51049959035638],[76.94497739646569,28.50440954373678],[76.95399208189762,28.50501879356868],[76.97873687588894,28.52114814874905],[76.99127965789745,28.51366697947773],[76.99695166460006,28.51979326233127],[77.00789353205617,28.51436489515939],[77.01372787989908,28.52274910815564],[76.99789154773389,28.53211816742387],[77.00432407002437,28.54143225880115],[77.0137028722965,28.53944720893918],[77.02946443636142,28.56679149654304],[77.04137117122703,28.553038730042],[77.05858386595601,28.55060610539908],[77.06770240073219,28.56670753711643],[77.06567619780982,28.57342533812644],[77.05926009096818,28.57606966413268],[77.05128893767775,28.58117113769384],[77.05791446869306,28.58759016766567],[77.04362506509408,28.60084727566562],[77.05507037386894,28.60275582561066],[77.05519328026601,28.60754128835706],[77.05401065766058,28.61331415251701],[77.05837426179262,28.61627380290519],[77.05440255282974,28.61953958758642],[77.04555403536985,28.62067842382384],[77.03332236950507,28.61436704199923],[77.02303821786451,28.61941324461137],[77.02266023874019,28.62505260064725],[77.00769934693476,28.62274508103067],[76.99980832282125,28.63131541264974]]]}},{"type":"Feature","properties":{"ac_name":"JANAKPURI","ac_no":30,"ac_category":"GEN","st_name":"NCT OF DELHI"},"geometry":{"type":"Polygon","coordinates":[[[77.08716597076378,28.63205571940506],[77.07477539699462,28.62724794114422],[77.06163937584374,28.62276940146439],[77.06105151833209,28.61770352293343],[77.06890698570331,28.62038315334137],[77.08251261594347,28.61736376569048],[77.08321487743287,28.61193618751393],[77.07682289394498,28.60815517015449],[77.0773343620625,28.60482565696754],[77.0889575262899,28.61034636077017],[77.10427773911168,28.60570295979512],[77.10915768459066,28.61915099483807],[77.10424136078417,28.624414933178],[77.09620180316192,28.62202740634823],[77.08716597076378,28.63205571940506]]]}},{"type":"Feature","properties":{"ac_name":"DELHI CANTT","ac_no":38,"ac_category":"GEN","st_name":"NCT OF DELHI"},"geometry":{"type":"GeometryCollection","geometries":[{"type":"Polygon","coordinates":[[[77.1935715686227,28.6048114147843,0],[77.20248564523872,28.58162618248273,0],[77.19249644878542,28.57930397423197,0],[77.19111463973147,28.56829004009855,0],[77.18137036974298,28.57088011769028,0],[77.16919907243047,28.59414730772129,0],[77.1935715686227,28.6048114147843,0]]]},{"type":"Polygon","coordinates":[[[77.13974380028866,28.61778438351506,0],[77.15421844149257,28.62599558904108,0],[77.16572709180788,28.61992054944365,0],[77.15760522168229,28.60838137660084,0],[77.16017587468336,28.60265684893946,0],[77.17175714110616,28.60261314716049,0],[77.16901143029003,28.59405902536217,0],[77.16085200832677,28.57430407487335,0],[77.15450240524432,28.57269556909116,0],[77.15295711909083,28.55622881068728,0],[77.1341216094817,28.55474190143545,0],[77.13125477763147,28.54940662639864,0],[77.11712056365911,28.54089497810108,0],[77.10592983059126,28.54522147120059,0],[77.10167684117077,28.55248647527,0],[77.08080713626617,28.55067831222662,0],[77.07448593177091,28.5600196390263,0],[77.08446281144661,28.57239470305302,0],[77.10365688531073,28.59390878354773,0],[77.11101020196715,28.60249760483684,0],[77.13439350918766,28.63081379845902,0],[77.13450330027304,28.63099839751141,0],[77.13974380028866,28.61778438351506,0]]]}]}},{"type":"Feature","properties":{"ac_name":"UTTAM NAGAR","ac_no":32,"ac_category":"GEN","st_name":"NCT OF DELHI"},"geometry":{"type":"Polygon","coordinates":[[[77.06163937584374,28.62276940146439],[77.05872369045672,28.62792180136424],[77.02266023874019,28.62505260064725],[77.02303821786451,28.61941324461137],[77.03332236950507,28.61436704199923],[77.04555403536985,28.62067842382384],[77.05440255282974,28.61953958758642],[77.05837426179262,28.61627380290519],[77.05401065766058,28.61331415251701],[77.05519328026601,28.60754128835706],[77.06730268968488,28.60757429126839],[77.07682289394498,28.60815517015449],[77.08321487743287,28.61193618751393],[77.08251261594347,28.61736376569048],[77.06890698570331,28.62038315334137],[77.06105151833209,28.61770352293343],[77.06163937584374,28.62276940146439]]]}},{"type":"Feature","properties":{"ac_name":"PATPARGANJ","ac_no":57,"ac_category":"GEN","st_name":"NCT OF DELHI"},"geometry":{"type":"Polygon","coordinates":[[[77.29277859378686,28.6280256499101],[77.29904341311696,28.62168089556901],[77.28928754151231,28.6199707201232],[77.28639188067777,28.60873950826629],[77.29854380245743,28.58866462718983],[77.2964826608812,28.61115955475878],[77.31431618733137,28.60972497978788],[77.31243224809354,28.61269810635278],[77.321915670023,28.61808121093846],[77.3199124031533,28.62253297305589],[77.30763967025827,28.62205322814885],[77.29811544701221,28.63198224580785],[77.29277859378686,28.6280256499101]]]}},{"type":"Feature","properties":{"ac_name":"KONDLI","ac_no":56,"ac_category":"SC","st_name":"NCT OF DELHI"},"geometry":{"type":"Polygon","coordinates":[[[77.33404200284346,28.62816386081557],[77.3199124031533,28.62253297305589],[77.321915670023,28.61808121093846],[77.31243224809354,28.61269810635278],[77.31431618733137,28.60972497978788],[77.32478094244641,28.60985532155618],[77.31260036283608,28.59545205546244],[77.34116271753169,28.6052412043198],[77.34243613791841,28.62221697217272],[77.33404200284346,28.62816386081557]]]}},{"type":"Feature","properties":{"ac_name":"DWARKA","ac_no":33,"ac_category":"GEN","st_name":"NCT OF DELHI"},"geometry":{"type":"Polygon","coordinates":[[[77.06730268968488,28.60757429126839],[77.06469890789703,28.59964900566377],[77.0699264614955,28.60094411751888],[77.07946406458088,28.59066333901973],[77.08662360255035,28.59000065609314],[77.0821239177313,28.58835220473255],[77.08454782052318,28.58477406157973],[77.08972647684139,28.58367617909957],[77.09620200204118,28.5967176588129],[77.10365688531073,28.59390878354773],[77.11101020196715,28.60249760483684],[77.10427773911168,28.60570295979512],[77.0889575262899,28.61034636077017],[77.0773343620625,28.60482565696754],[77.07682289394498,28.60815517015449],[77.06730268968488,28.60757429126839]]]}},{"type":"Feature","properties":{"ac_name":"PALAM","ac_no":37,"ac_category":"GEN","st_name":"NCT OF DELHI"},"geometry":{"type":"Polygon","coordinates":[[[77.05519328026601,28.60754128835706],[77.05507037386894,28.60275582561066],[77.04362506509408,28.60084727566562],[77.05791446869306,28.58759016766567],[77.05128893767775,28.58117113769384],[77.05926009096818,28.57606966413268],[77.06628714259479,28.58331309562218],[77.07401087567736,28.58316405121226],[77.08446281144661,28.57239470305302],[77.10365688531073,28.59390878354773],[77.09620200204118,28.5967176588129],[77.08972647684139,28.58367617909957],[77.08454782052318,28.58477406157973],[77.0821239177313,28.58835220473255],[77.08662360255035,28.59000065609314],[77.07946406458088,28.59066333901973],[77.0699264614955,28.60094411751888],[77.06469890789703,28.59964900566377],[77.06730268968488,28.60757429126839],[77.05519328026601,28.60754128835706]]]}},{"type":"Feature","properties":{"ac_name":"TRILOKPURI","ac_no":55,"ac_category":"SC","st_name":"NCT OF DELHI"},"geometry":{"type":"Polygon","coordinates":[[[77.2641665031595,28.59984460369337],[77.27108428743746,28.58481052076423],[77.27962064761343,28.56813961282365],[77.30041506039395,28.56309330785811],[77.2967883088395,28.56618487764531],[77.2984987041748,28.58061225748476],[77.31260036283608,28.59545205546244],[77.32478094244641,28.60985532155618],[77.31431618733137,28.60972497978788],[77.2964826608812,28.61115955475878],[77.29854380245743,28.58866462718983],[77.28639188067777,28.60873950826629],[77.28437484561104,28.61116005555865],[77.2641665031595,28.59984460369337]]]}},{"type":"Feature","properties":{"ac_name":"R.K. PURAM","ac_no":44,"ac_category":"GEN","st_name":"NCT OF DELHI"},"geometry":{"type":"Polygon","coordinates":[[[77.16919907243047,28.59414730772129],[77.16901143029003,28.59405902536217],[77.16085200832677,28.57430407487335],[77.15450240524432,28.57269556909116],[77.15295711909083,28.55622881068728],[77.16027185497344,28.55221519114305],[77.15738532354251,28.54829327752056],[77.16246389423986,28.54423224365736],[77.16839629172846,28.55169518865505],[77.17562353674536,28.54820826071586],[77.1832211339606,28.55044572545518],[77.19617358181101,28.56536785526731],[77.19111463973147,28.56829004009855],[77.18137036974298,28.57088011769028],[77.16919907243047,28.59414730772129]]]}},{"type":"Feature","properties":{"ac_name":"KASTURBA NAGAR","ac_no":42,"ac_category":"GEN","st_name":"NCT OF DELHI"},"geometry":{"type":"Polygon","coordinates":[[[77.24499052814531,28.59116121474037],[77.22883181190703,28.5874711095882],[77.22851703699689,28.57775849424329],[77.21138173427137,28.57663690184902],[77.21111020088418,28.57177591779029],[77.22204529916593,28.57331768022088],[77.2173194735123,28.56424354541239],[77.22333714051089,28.55758622820018],[77.21277563344903,28.54826565813578],[77.22953217928222,28.55130106987107],[77.23274697725829,28.5570578540007],[77.24724229743761,28.55340858134822],[77.25402618893787,28.55657746412005],[77.25471884655883,28.563862492952],[77.23875692013128,28.56770955704821],[77.24904786616122,28.57719663085199],[77.24499052814531,28.59116121474037]]]}},{"type":"Feature","properties":{"ac_name":"BIJWASAN","ac_no":36,"ac_category":"GEN","st_name":"NCT OF DELHI"},"geometry":{"type":"Polygon","coordinates":[[[77.05926009096818,28.57606966413268],[77.06567619780982,28.57342533812644],[77.06770240073219,28.56670753711643],[77.05858386595601,28.55060610539908],[77.04137117122703,28.553038730042],[77.02946443636142,28.56679149654304],[77.0137028722965,28.53944720893918],[77.04619692150784,28.52075302259523],[77.04391164622933,28.51671431936586],[77.06461096329893,28.51202351812994],[77.06948540607127,28.5202014814937],[77.09623268089364,28.5110558612947],[77.094345842536,28.50593550886719],[77.1081802212999,28.53283508532239],[77.1148457474261,28.52583872013125],[77.11904940539132,28.53667220327755],[77.13163468221914,28.5360840758187],[77.13125477763147,28.54940662639864],[77.11712056365911,28.54089497810108],[77.10592983059126,28.54522147120059],[77.10167684117077,28.55248647527],[77.08080713626617,28.55067831222662],[77.07448593177091,28.5600196390263],[77.08446281144661,28.57239470305302],[77.07401087567736,28.58316405121226],[77.06628714259479,28.58331309562218],[77.05926009096818,28.57606966413268]]]}},{"type":"Feature","properties":{"ac_name":"OKHLA","ac_no":54,"ac_category":"GEN","st_name":"NCT OF DELHI"},"geometry":{"type":"Polygon","coordinates":[[[77.26332156096198,28.57136191154617],[77.2857228857371,28.54387903212034],[77.2767351160351,28.54020560648091],[77.281949873963,28.52730150816617],[77.29311499849851,28.52882475259297],[77.29777907530517,28.52183992600788],[77.32169613473854,28.52150647600242],[77.33579357355796,28.52606362225622],[77.30295102170338,28.5529942531646],[77.30041506039395,28.56309330785811],[77.27962064761343,28.56813961282365],[77.27108428743746,28.58481052076423],[77.26332156096198,28.57136191154617]]]}},{"type":"Feature","properties":{"ac_name":"KALKAJI","ac_no":51,"ac_category":"GEN","st_name":"NCT OF DELHI"},"geometry":{"type":"Polygon","coordinates":[[[77.26332156096198,28.57136191154617],[77.25471884655883,28.563862492952],[77.25402618893787,28.55657746412005],[77.24724229743761,28.55340858134822],[77.25666269213148,28.54846901098233],[77.25502538369992,28.54336537952213],[77.24622015039442,28.54007194839014],[77.2571242820771,28.53033489490212],[77.2559599807585,28.52254211232606],[77.25806967794318,28.52185912520437],[77.26521771741251,28.52579808342106],[77.26932536523165,28.52190443071266],[77.26832967472416,28.54039693065314],[77.27477975477292,28.54434442063055],[77.2767351160351,28.54020560648091],[77.2857228857371,28.54387903212034],[77.26332156096198,28.57136191154617]]]}},{"type":"Feature","properties":{"ac_name":"MALVIYA NAGAR","ac_no":43,"ac_category":"GEN","st_name":"NCT OF DELHI"},"geometry":{"type":"Polygon","coordinates":[[[77.2173194735123,28.56424354541239],[77.21185326960841,28.55845333012396],[77.20357893781059,28.55921655503975],[77.20187194711508,28.56785916166675],[77.19617358181101,28.56536785526731],[77.1832211339606,28.55044572545518],[77.1764134731896,28.53903076852054],[77.18458778347114,28.52598957747209],[77.21606925524053,28.52503058228599],[77.2180888459975,28.52578645751542],[77.21777855777619,28.53537790161335],[77.2096187907641,28.53917833638143],[77.21277563344903,28.54826565813578],[77.22333714051089,28.55758622820018],[77.2173194735123,28.56424354541239]]]}},{"type":"Feature","properties":{"ac_name":"MEHRAULI","ac_no":45,"ac_category":"GEN","st_name":"NCT OF DELHI"},"geometry":{"type":"Polygon","coordinates":[[[77.15295711909083,28.55622881068728],[77.1341216094817,28.55474190143545],[77.13125477763147,28.54940662639864],[77.13163468221914,28.5360840758187],[77.11904940539132,28.53667220327755],[77.1148457474261,28.52583872013125],[77.1081802212999,28.53283508532239],[77.094345842536,28.50593550886719],[77.11840011559791,28.49654256405989],[77.11694580647259,28.49037771758333],[77.12843127943997,28.50051201471469],[77.14001513548531,28.50022773094168],[77.14632890398971,28.50898191571815],[77.17300526712506,28.50378669701386],[77.18664578581227,28.5102045585158],[77.19567884927869,28.49731445432596],[77.2038246817304,28.51490796126437],[77.20364626430658,28.51953557188393],[77.21401316837887,28.52086830073827],[77.21606925524053,28.52503058228599],[77.18458778347114,28.52598957747209],[77.1764134731896,28.53903076852054],[77.1832211339606,28.55044572545518],[77.17562353674536,28.54820826071586],[77.16839629172846,28.55169518865505],[77.16246389423986,28.54423224365736],[77.15738532354251,28.54829327752056],[77.16027185497344,28.55221519114305],[77.15295711909083,28.55622881068728]]]}},{"type":"Feature","properties":{"ac_name":"GREATER KAILASH","ac_no":50,"ac_category":"GEN","st_name":"NCT OF DELHI"},"geometry":{"type":"Polygon","coordinates":[[[77.21277563344903,28.54826565813578],[77.2096187907641,28.53917833638143],[77.21777855777619,28.53537790161335],[77.2180888459975,28.52578645751542],[77.23129417887998,28.52608795284059],[77.24199697216223,28.51940678599787],[77.24607564950213,28.51366789397543],[77.2559599807585,28.52254211232606],[77.2571242820771,28.53033489490212],[77.24622015039442,28.54007194839014],[77.25502538369992,28.54336537952213],[77.25666269213148,28.54846901098233],[77.24724229743761,28.55340858134822],[77.23274697725829,28.5570578540007],[77.22953217928222,28.55130106987107],[77.21277563344903,28.54826565813578]]]}},{"type":"Feature","properties":{"ac_name":"TUGHLAKABAD","ac_no":52,"ac_category":"GEN","st_name":"NCT OF DELHI"},"geometry":{"type":"Polygon","coordinates":[[[77.2767351160351,28.54020560648091],[77.27477975477292,28.54434442063055],[77.26832967472416,28.54039693065314],[77.26932536523165,28.52190443071266],[77.26521771741251,28.52579808342106],[77.25806967794318,28.52185912520437],[77.25524963927765,28.5064605663457],[77.27662755353282,28.49305420641936],[77.29578190557757,28.49564471403858],[77.281949873963,28.52730150816617],[77.2767351160351,28.54020560648091]]]}},{"type":"Feature","properties":{"ac_name":"AMBEDKAR NAGAR","ac_no":48,"ac_category":"SC","st_name":"NCT OF DELHI"},"geometry":{"type":"Polygon","coordinates":[[[77.23129417887998,28.52608795284059],[77.2180888459975,28.52578645751542],[77.21606925524053,28.52503058228599],[77.21401316837887,28.52086830073827],[77.20364626430658,28.51953557188393],[77.2038246817304,28.51490796126437],[77.21174370546309,28.51293854853506],[77.21269375394945,28.50742306664779],[77.2041184802615,28.49748145171331],[77.22817370389215,28.49635625740994],[77.2388154541492,28.51438971764553],[77.22812073181868,28.51795479692454],[77.23129417887998,28.52608795284059]]]}},{"type":"Feature","properties":{"ac_name":"BADARPUR","ac_no":53,"ac_category":"GEN","st_name":"NCT OF DELHI"},"geometry":{"type":"Polygon","coordinates":[[[77.281949873963,28.52730150816617],[77.29578190557757,28.49564471403858],[77.30172259857092,28.48948193615359],[77.31714469147843,28.4849540062731],[77.32686080100034,28.49021649972853],[77.34329259961108,28.51052806615579],[77.33579357355796,28.52606362225622],[77.32169613473854,28.52150647600242],[77.29777907530517,28.52183992600788],[77.29311499849851,28.52882475259297],[77.281949873963,28.52730150816617]]]}},{"type":"Feature","properties":{"ac_name":"DEOLI","ac_no":47,"ac_category":"SC","st_name":"NCT OF DELHI"},"geometry":{"type":"Polygon","coordinates":[[[77.24199697216223,28.51940678599787],[77.23129417887998,28.52608795284059],[77.22812073181868,28.51795479692454],[77.2388154541492,28.51438971764553],[77.22817370389215,28.49635625740994],[77.2041184802615,28.49748145171331],[77.20242049845868,28.47384666169492],[77.23097236896295,28.46017052301628],[77.2383025915458,28.47572852477834],[77.23877477502832,28.50778208311724],[77.24607564950213,28.51366789397543],[77.24199697216223,28.51940678599787]]]}},{"type":"Feature","properties":{"ac_name":"SANGAM VIHAR","ac_no":49,"ac_category":"GEN","st_name":"NCT OF DELHI"},"geometry":{"type":"Polygon","coordinates":[[[77.2559599807585,28.52254211232606],[77.24607564950213,28.51366789397543],[77.23877477502832,28.50778208311724],[77.2383025915458,28.47572852477834],[77.27186089842127,28.48636363897965],[77.27662755353282,28.49305420641936],[77.25524963927765,28.5064605663457],[77.25806967794318,28.52185912520437],[77.2559599807585,28.52254211232606]]]}},{"type":"Feature","properties":{"ac_name":"CHHATARPUR","ac_no":46,"ac_category":"GEN","st_name":"NCT OF DELHI"},"geometry":{"type":"Polygon","coordinates":[[[77.2038246817304,28.51490796126437],[77.19567884927869,28.49731445432596],[77.18664578581227,28.5102045585158],[77.17300526712506,28.50378669701386],[77.14632890398971,28.50898191571815],[77.14001513548531,28.50022773094168],[77.12843127943997,28.50051201471469],[77.11694580647259,28.49037771758333],[77.11139409468996,28.47459783286428],[77.10852275033912,28.47133127245504],[77.11956104115028,28.45836841221297],[77.12210782223552,28.44496807625626],[77.16093742590833,28.42834326512289],[77.1631265831408,28.41479553989684],[77.17358935467604,28.40548512883071],[77.18163695901312,28.40998853787709],[77.1881013409407,28.40690893684512],[77.20591923526197,28.40937883991144],[77.22172146355929,28.4118321494177],[77.24742328494199,28.42452619139585],[77.25033941192325,28.43301279554523],[77.2466580611003,28.43335048788383],[77.24409761213563,28.45273504839909],[77.23987050233056,28.45629438752431],[77.23204748454907,28.45464449165282],[77.23097236896295,28.46017052301628],[77.20242049845868,28.47384666169492],[77.2041184802615,28.49748145171331],[77.21269375394945,28.50742306664779],[77.21174370546309,28.51293854853506],[77.2038246817304,28.51490796126437]]]}}]}