{"type":"FeatureCollection","features":[{"type":"Feature","properties":{"ac_name":"NERELA","ac_no":1,"ac_category":"GEN","st_name":"NCT OF DELHI"},"geometry":{"type":"Polygon","coordinates":[[[77.05131,28.85492],[77.03974,28.83208],[77.04262,28.82254],[77.07031,28.80416],[77.0583,28.78537],[77.06922,28.7754],[77.07388,28.75747],[77.09112,28.76692],[77.11357,28.75267],[77.12005,28.7568],[77.12216,28.76672],[77.12839,28.76821],[77.12978,28.77284],[77.1233,28.77112],[77.12366,28.7745],[77.13986,28.78011],[77.14031,28.78774],[77.15621,28.79474],[77.18959,28.79042],[77.19004,28.78511],[77.1991,28.7806],[77.2139,28.78548],[77.19953,28.79771],[77.20085,28.81136],[77.21848,28.80878],[77.2226,28.83337],[77.21635,28.84149],[77.21663,28.85205],[77.20895,28.8585],[77.17486,28.85904],[77.15768,28.83701],[77.146,28.83755],[77.14077,28.86175],[77.13181,28.86346],[77.12166,28.85814],[77.11012,28.86981],[77.09146,28.87276],[77.08297,28.88334],[77.07458,28.86734],[77.06121,28.87082],[77.05131,28.85492]]]}},{"type":"Feature","properties":{"ac_name":"BAWANA","ac_no":7,"ac_category":"SC","st_name":"NCT OF DELHI"},"geometry":{"type":"Polygon","coordinates":[[[77.03974,28.83208],[77.02337,28.83905],[76.9941,28.8402],[76.9798,28.8216],[76.96736,28.82799],[76.9619,28.81494],[76.95123,28.81766],[76.94206,28.79849],[76.95366,28.79062],[76.94913,28.77806],[76.95585,28.76742],[76.94975,28.76253],[76.95998,28.76748],[76.96975,28.76112],[76.98375,28.7602],[76.99499,28.74619],[77.0038,28.74407],[77.00654,28.74843],[77.01075,28.74497],[77.01424,28.75482],[77.02506,28.75089],[77.04312,28.76512],[77.05151,28.75427],[77.0489,28.74188],[77.05361,28.72579],[77.0502,28.71884],[77.05485,28.7141],[77.06924,28.70693],[77.08117,28.70451],[77.07133,28.71464],[77.07265,28.72053],[77.09214,28.72399],[77.10143,28.74606],[77.12055,28.74488],[77.11861,28.74811],[77.11357,28.75267],[77.09112,28.76692],[77.07388,28.75747],[77.06922,28.7754],[77.0583,28.78537],[77.07031,28.80416],[77.04262,28.82254],[77.03974,28.83208]]]}},{"type":"Feature","properties":{"ac_name":"BURARI","ac_no":2,"ac_category":"GEN","st_name":"NCT OF DELHI"},"geometry":{"type":"Polygon","coordinates":[[[77.2139,28.78548],[77.1991,28.7806],[77.19004,28.78511],[77.18959,28.79042],[77.15621,28.79474],[77.14031,28.78774],[77.13986,28.78011],[77.12366,28.7745],[77.1233,28.77112],[77.12978,28.77284],[77.12839,28.76821],[77.17674,28.75893],[77.16177,28.74379],[77.1687,28.7403],[77.16216,28.7339],[77.16479,28.73052],[77.18293,28.72974],[77.20476,28.71905],[77.21712,28.71674],[77.21376,28.72719],[77.22196,28.72896],[77.22731,28.72771],[77.2312,28.71651],[77.2395,28.71676],[77.24305,28.7278],[77.23967,28.7386],[77.21449,28.7634],[77.21409,28.78544],[77.2139,28.78548]]]}},{"type":"Feature","properties":{"ac_name":"KARAWAL NAGAR","ac_no":70,"ac_category":"GEN","st_name":"NCT OF DELHI"},"geometry":{"type":"Polygon","coordinates":[[[77.21409,28.78544],[77.21449,28.7634],[77.23967,28.7386],[77.24305,28.7278],[77.2395,28.71676],[77.2368,28.70671],[77.27158,28.69964],[77.26729,28.70375],[77.26894,28.71459],[77.2743,28.71248],[77.28655,28.72458],[77.27577,28.73578],[77.26125,28.73425],[77.25578,28.73894],[77.25619,28.75608],[77.23527,28.76112],[77.2357,28.77116],[77.22174,28.77782],[77.23333,28.7841],[77.21409,28.78544]]]}},{"type":"Feature","properties":{"ac_name":"MUNDKA","ac_no":8,"ac_category":"GEN","st_name":"NCT OF DELHI"},"geometry":{"type":"Polygon","coordinates":[[[76.94975,28.76253],[76.94424,28.75382],[76.95853,28.74344],[76.95591,28.73884],[76.95993,28.73265],[76.94828,28.71275],[76.96844,28.69922],[76.95774,28.68402],[76.95673,28.67259],[76.98865,28.66785],[76.99518,28.65339],[77.00826,28.67188],[77.02657,28.66972],[77.04191,28.67396],[77.04823,28.66133],[77.05661,28.66022],[77.06076,28.63864],[77.07455,28.64743],[77.08456,28.65469],[77.05952,28.66989],[77.0709,28.68279],[77.05504,28.6846],[77.03533,28.68829],[77.02688,28.70546],[77.03662,28.70457],[77.05485,28.7141],[77.0502,28.71884],[77.05361,28.72579],[77.0489,28.74188],[77.05151,28.75427],[77.04312,28.76512],[77.02506,28.75089],[77.01424,28.75482],[77.01075,28.74497],[77.00654,28.74843],[77.0038,28.74407],[76.99499,28.74619],[76.98375,28.7602],[76.96975,28.76112],[76.95998,28.76748],[76.94975,28.76253]]]}},{"type":"Feature","properties":{"ac_name":"BADLI","ac_no":5,"ac_category":"GEN","st_name":"NCT OF DELHI"},"geometry":{"type":"Polygon","coordinates":[[[77.12839,28.76821],[77.12216,28.76672],[77.12005,28.7568],[77.11357,28.75267],[77.11861,28.74811],[77.12768,28.7486],[77.13686,28.73914],[77.12858,28.73047],[77.1367,28.72997],[77.14125,28.73289],[77.14709,28.73665],[77.15373,28.72944],[77.16479,28.73052],[77.16216,28.7339],[77.1687,28.7403],[77.16177,28.74379],[77.17674,28.75893],[77.12839,28.76821]]]}},{"type":"Feature","properties":{"ac_name":"ROHINI","ac_no":13,"ac_category":"GEN","st_name":"NCT OF DELHI"},"geometry":{"type":"Polygon","coordinates":[[[77.11861,28.74811],[77.12055,28.74488],[77.1245,28.73893],[77.1138,28.73001],[77.11652,28.72762],[77.09669,28.71159],[77.10909,28.70074],[77.11757,28.70403],[77.12124,28.70674],[77.1367,28.72997],[77.12858,28.73047],[77.13686,28.73914],[77.12768,28.7486],[77.11861,28.74811]]]}},{"type":"Feature","properties":{"ac_name":"RITHALA","ac_no":6,"ac_category":"GEN","st_name":"NCT OF DELHI"},"geometry":{"type":"Polygon","coordinates":[[[77.09669,28.71159],[77.11652,28.72762],[77.1138,28.73001],[77.1245,28.73893],[77.12055,28.74488],[77.10143,28.74606],[77.09214,28.72399],[77.07265,28.72053],[77.07133,28.71464],[77.08117,28.70451],[77.08537,28.70193],[77.0957,28.70436],[77.09242,28.71153],[77.09669,28.71159]]]}},{"type":"Feature","properties":{"ac_name":"ADARSH NAGAR","ac_no":4,"ac_category":"GEN","st_name":"NCT OF DELHI"},"geometry":{"type":"Polygon","coordinates":[[[77.14125,28.73289],[77.16283,28.70912],[77.16482,28.70661],[77.1668,28.71051],[77.1849,28.70944],[77.19257,28.71846],[77.20476,28.71905],[77.18293,28.72974],[77.16479,28.73052],[77.15373,28.72944],[77.14709,28.73665],[77.14125,28.73289]]]}},{"type":"Feature","properties":{"ac_name":"SHALIMAR BAGH","ac_no":14,"ac_category":"GEN","st_name":"NCT OF DELHI"},"geometry":{"type":"Polygon","coordinates":[[[77.1367,28.72997],[77.12124,28.70674],[77.14369,28.69486],[77.14747,28.70207],[77.16283,28.70912],[77.14125,28.73289],[77.1367,28.72997]]]}},{"type":"Feature","properties":{"ac_name":"TIMARPUR","ac_no":3,"ac_category":"GEN","st_name":"NCT OF DELHI"},"geometry":{"type":"Polygon","coordinates":[[[77.2395,28.71676],[77.2312,28.71651],[77.22731,28.72771],[77.22196,28.72896],[77.21376,28.72719],[77.21712,28.71674],[77.20476,28.71905],[77.19257,28.71846],[77.1849,28.70944],[77.18497,28.70484],[77.2012,28.69775],[77.19423,28.6874],[77.19626,28.68273],[77.20376,28.68701],[77.21071,28.67775],[77.20291,28.66996],[77.2105,28.66584],[77.22835,28.70166],[77.23571,28.70029],[77.2368,28.70671],[77.2395,28.71676]]]}},{"type":"Feature","properties":{"ac_name":"MUSTAFABAD","ac_no":69,"ac_category":"GEN","st_name":"NCT OF DELHI"},"geometry":{"type":"Polygon","coordinates":[[[77.28655,28.72458],[77.2743,28.71248],[77.26894,28.71459],[77.26729,28.70375],[77.27158,28.69964],[77.27873,28.69926],[77.28658,28.71382],[77.29094,28.72158],[77.28655,28.72458]]]}},{"type":"Feature","properties":{"ac_name":"KIRARI","ac_no":9,"ac_category":"GEN","st_name":"NCT OF DELHI"},"geometry":{"type":"Polygon","coordinates":[[[77.06924,28.70693],[77.05485,28.7141],[77.03662,28.70457],[77.02688,28.70546],[77.03533,28.68829],[77.05504,28.6846],[77.05742,28.69608],[77.06678,28.69827],[77.06924,28.70693]]]}},{"type":"Feature","properties":{"ac_name":"MANGOL PURI","ac_no":12,"ac_category":"SC","st_name":"NCT OF DELHI"},"geometry":{"type":"Polygon","coordinates":[[[77.08537,28.70193],[77.08491,28.69792],[77.07282,28.69573],[77.07781,28.69275],[77.07371,28.69229],[77.07128,28.68287],[77.09506,28.68155],[77.09722,28.6945],[77.10909,28.70074],[77.09669,28.71159],[77.09242,28.71153],[77.0957,28.70436],[77.08537,28.70193]]]}},{"type":"Feature","properties":{"ac_name":"MODEL TOWN","ac_no":18,"ac_category":"GEN","st_name":"NCT OF DELHI"},"geometry":{"type":"Polygon","coordinates":[[[77.16482,28.70661],[77.18466,28.67842],[77.20291,28.66996],[77.21071,28.67775],[77.20376,28.68701],[77.19626,28.68273],[77.19423,28.6874],[77.2012,28.69775],[77.18497,28.70484],[77.1849,28.70944],[77.1668,28.71051],[77.16482,28.70661]]]}},{"type":"Feature","properties":{"ac_name":"GOKALPUR","ac_no":68,"ac_category":"SC","st_name":"NCT OF DELHI"},"geometry":{"type":"Polygon","coordinates":[[[77.28658,28.71382],[77.27873,28.69926],[77.2798,28.699],[77.2952,28.69773],[77.30611,28.69561],[77.32387,28.69771],[77.32503,28.70758],[77.33144,28.71279],[77.3056,28.71339],[77.29651,28.70432],[77.28658,28.71382]]]}},{"type":"Feature","properties":{"ac_name":"SULTAN PUR MAJRA","ac_no":10,"ac_category":"SC","st_name":"NCT OF DELHI"},"geometry":{"type":"Polygon","coordinates":[[[77.08117,28.70451],[77.06924,28.70693],[77.06678,28.69827],[77.05742,28.69608],[77.05504,28.6846],[77.0709,28.68279],[77.07128,28.68287],[77.07371,28.69229],[77.07781,28.69275],[77.07282,28.69573],[77.08491,28.69792],[77.08537,28.70193],[77.08117,28.70451]]]}},{"type":"Feature","properties":{"ac_name":"WAZIRPUR","ac_no":17,"ac_category":"GEN","st_name":"NCT OF DELHI"},"geometry":{"type":"Polygon","coordinates":[[[77.16283,28.70912],[77.14747,28.70207],[77.14369,28.69486],[77.14564,28.68474],[77.15317,28.68606],[77.15923,28.67352],[77.16247,28.67185],[77.18466,28.67842],[77.16482,28.70661],[77.16283,28.70912]]]}},{"type":"Feature","properties":{"ac_name":"TRI NAGAR","ac_no":16,"ac_category":"GEN","st_name":"NCT OF DELHI"},"geometry":{"type":"Polygon","coordinates":[[[77.11757,28.70403],[77.11863,28.70242],[77.12795,28.69412],[77.12717,28.68997],[77.1232,28.691],[77.12288,28.67993],[77.13095,28.67951],[77.12854,28.67453],[77.15923,28.67352],[77.15317,28.68606],[77.14564,28.68474],[77.14369,28.69486],[77.12124,28.70674],[77.11757,28.70403]]]}},{"type":"Feature","properties":{"ac_name":"SHAKUR BASTI","ac_no":15,"ac_category":"GEN","st_name":"NCT OF DELHI"},"geometry":{"type":"Polygon","coordinates":[[[77.11863,28.70242],[77.11757,28.70403],[77.10909,28.70074],[77.09722,28.6945],[77.09506,28.68155],[77.09213,28.65364],[77.10161,28.6595],[77.11187,28.65999],[77.1188,28.66149],[77.11444,28.66494],[77.11503,28.67592],[77.12854,28.67453],[77.13095,28.67951],[77.12288,28.67993],[77.1232,28.691],[77.12717,28.68997],[77.12795,28.69412],[77.11863,28.70242]]]}},{"type":"Feature","properties":{"ac_name":"GHONDA","ac_no":66,"ac_category":"GEN","st_name":"NCT OF DELHI"},"geometry":{"type":"Polygon","coordinates":[[[77.23571,28.70029],[77.23493,28.6757],[77.27404,28.68277],[77.26795,28.69676],[77.2798,28.699],[77.27873,28.69926],[77.27158,28.69964],[77.2368,28.70671],[77.23571,28.70029]]]}},{"type":"Feature","properties":{"ac_name":"CHANDNI CHOWK","ac_no":20,"ac_category":"GEN","st_name":"NCT OF DELHI"},"geometry":{"type":"Polygon","coordinates":[[[77.23493,28.6757],[77.23571,28.70029],[77.22835,28.70166],[77.2105,28.66584],[77.21501,28.66104],[77.22704,28.6622],[77.21826,28.66012],[77.21866,28.65576],[77.22776,28.65361],[77.23068,28.64629],[77.24074,28.63995],[77.23904,28.64494],[77.25173,28.6455],[77.25602,28.65261],[77.2467,28.65999],[77.23651,28.66823],[77.23493,28.6757]]]}},{"type":"Feature","properties":{"ac_name":"BABARPUR","ac_no":67,"ac_category":"GEN","st_name":"NCT OF DELHI"},"geometry":{"type":"Polygon","coordinates":[[[77.2952,28.69773],[77.2798,28.699],[77.26795,28.69676],[77.27404,28.68277],[77.2805,28.68285],[77.27735,28.67385],[77.28759,28.67477],[77.28948,28.6819],[77.29594,28.67828],[77.2952,28.69773]]]}},{"type":"Feature","properties":{"ac_name":"ROHTAS NAGAR","ac_no":64,"ac_category":"GEN","st_name":"NCT OF DELHI"},"geometry":{"type":"Polygon","coordinates":[[[77.30611,28.69561],[77.2952,28.69773],[77.29594,28.67828],[77.28948,28.6819],[77.28759,28.67477],[77.27735,28.67385],[77.27901,28.66935],[77.27305,28.66801],[77.28053,28.66722],[77.29917,28.66822],[77.304,28.67214],[77.30611,28.69561]]]}},{"type":"Feature","properties":{"ac_name":"SEEMAPURI","ac_no":63,"ac_category":"SC","st_name":"NCT OF DELHI"},"geometry":{"type":"Polygon","coordinates":[[[77.30611,28.69561],[77.304,28.67214],[77.33217,28.68578],[77.32631,28.6948],[77.32387,28.69771],[77.30611,28.69561]]]}},{"type":"Feature","properties":{"ac_name":"NANGLOI JAT","ac_no":11,"ac_category":"GEN","st_name":"NCT OF DELHI"},"geometry":{"type":"Polygon","coordinates":[[[77.07128,28.68287],[77.0709,28.68279],[77.05952,28.66989],[77.08456,28.65469],[77.09213,28.65364],[77.09506,28.68155],[77.07128,28.68287]]]}},{"type":"Feature","properties":{"ac_name":"SHAHDARA","ac_no":62,"ac_category":"GEN","st_name":"NCT OF DELHI"},"geometry":{"type":"Polygon","coordinates":[[[77.304,28.67214],[77.29917,28.66822],[77.28053,28.66722],[77.28635,28.66063],[77.30215,28.66771],[77.30403,28.66421],[77.32138,28.66436],[77.32386,28.67714],[77.33345,28.68102],[77.33217,28.68578],[77.304,28.67214]]]}},{"type":"Feature","properties":{"ac_name":"SEELAM PUR","ac_no":65,"ac_category":"GEN","st_name":"NCT OF DELHI"},"geometry":{"type":"Polygon","coordinates":[[[77.27404,28.68277],[77.23493,28.6757],[77.23651,28.66823],[77.2467,28.65999],[77.27305,28.66801],[77.27901,28.66935],[77.27735,28.67385],[77.2805,28.68285],[77.27404,28.68277]]]}},{"type":"Feature","properties":{"ac_name":"NAJAFGARH","ac_no":35,"ac_category":"GEN","st_name":"NCT OF DELHI"},"geometry":{"type":"Polygon","coordinates":[[[76.95673,28.67259],[76.95352,28.66739],[76.93456,28.66706],[76.92461,28.6496],[76.94437,28.63327],[76.93486,28.61854],[76.91741,28.63194],[76.90645,28.62353],[76.88854,28.63199],[76.88387,28.6248],[76.86456,28.58601],[76.8393,28.58218],[76.84513,28.55032],[76.86372,28.54407],[76.87259,28.53278],[76.88535,28.54329],[76.90404,28.54147],[76.90477,28.55349],[76.93294,28.56288],[76.92372,28.57175],[76.93483,28.5876],[76.9464,28.59215],[76.95949,28.5896],[76.96709,28.58283],[76.98024,28.59389],[77.01057,28.59147],[77.01582,28.59757],[77.01097,28.60442],[77.01653,28.61039],[76.9969,28.61625],[76.99981,28.63132],[77.00473,28.63806],[76.99518,28.65339],[76.98865,28.66785],[76.95673,28.67259]]]}},{"type":"Feature","properties":{"ac_name":"SADAR BAZAR","ac_no":19,"ac_category":"GEN","st_name":"NCT OF DELHI"},"geometry":{"type":"Polygon","coordinates":[[[77.18466,28.67842],[77.16247,28.67185],[77.17294,28.66467],[77.17782,28.664],[77.17444,28.66117],[77.17898,28.65732],[77.18548,28.66252],[77.2046,28.65744],[77.21866,28.65576],[77.21826,28.66012],[77.22704,28.6622],[77.21501,28.66104],[77.2105,28.66584],[77.20291,28.66996],[77.18466,28.67842]]]}},{"type":"Feature","properties":{"ac_name":"VIKASPURI","ac_no":31,"ac_category":"GEN","st_name":"NCT OF DELHI"},"geometry":{"type":"Polygon","coordinates":[[[77.07455,28.64743],[77.06076,28.63864],[77.05661,28.66022],[77.04823,28.66133],[77.04191,28.67396],[77.02657,28.66972],[77.00826,28.67188],[76.99518,28.65339],[77.00473,28.63806],[76.99981,28.63132],[77.0077,28.62275],[77.02266,28.62505],[77.05872,28.62792],[77.06164,28.62277],[77.07478,28.62725],[77.06633,28.63608],[77.07898,28.63274],[77.08653,28.63913],[77.07769,28.64073],[77.07455,28.64743]]]}},{"type":"Feature","properties":{"ac_name":"MADIPUR","ac_no":26,"ac_category":"SC","st_name":"NCT OF DELHI"},"geometry":{"type":"Polygon","coordinates":[[[77.12854,28.67453],[77.11503,28.67592],[77.11444,28.66494],[77.1188,28.66149],[77.11187,28.65999],[77.11346,28.65258],[77.12148,28.64709],[77.12944,28.65062],[77.14046,28.66029],[77.13279,28.66105],[77.13787,28.66838],[77.12854,28.67453]]]}},{"type":"Feature","properties":{"ac_name":"MOTI NAGAR","ac_no":25,"ac_category":"GEN","st_name":"NCT OF DELHI"},"geometry":{"type":"Polygon","coordinates":[[[77.16247,28.67185],[77.15923,28.67352],[77.12854,28.67453],[77.13787,28.66838],[77.13279,28.66105],[77.14046,28.66029],[77.12944,28.65062],[77.13534,28.64029],[77.13439,28.63081],[77.1345,28.631],[77.15643,28.65582],[77.17294,28.66467],[77.16247,28.67185]]]}},{"type":"Feature","properties":{"ac_name":"GANDHI NAGAR","ac_no":61,"ac_category":"GEN","st_name":"NCT OF DELHI"},"geometry":{"type":"Polygon","coordinates":[[[77.28053,28.66722],[77.27305,28.66801],[77.2467,28.65999],[77.25602,28.65261],[77.25621,28.65236],[77.26458,28.65166],[77.26976,28.65725],[77.28294,28.65533],[77.2864,28.66046],[77.28635,28.66063],[77.28053,28.66722]]]}},{"type":"Feature","properties":{"ac_name":"PATEL NAGAR","ac_no":24,"ac_category":"SC","st_name":"NCT OF DELHI"},"geometry":{"type":"Polygon","coordinates":[[[77.18548,28.66252],[77.17898,28.65732],[77.17444,28.66117],[77.17782,28.664],[77.17294,28.66467],[77.15643,28.65582],[77.15951,28.65412],[77.15554,28.6499],[77.16248,28.64386],[77.17785,28.63989],[77.18388,28.64064],[77.18536,28.64635],[77.17364,28.65204],[77.18632,28.65754],[77.18548,28.66252]]]}},{"type":"Feature","properties":{"ac_name":"KAROL BAGH","ac_no":23,"ac_category":"SC","st_name":"NCT OF DELHI"},"geometry":{"type":"Polygon","coordinates":[[[77.18548,28.66252],[77.18632,28.65754],[77.17364,28.65204],[77.18536,28.64635],[77.20017,28.64204],[77.21676,28.63378],[77.21948,28.64],[77.20615,28.64813],[77.2046,28.65744],[77.18548,28.66252]]]}},{"type":"Feature","properties":{"ac_name":"VISHWAS NAGAR","ac_no":59,"ac_category":"GEN","st_name":"NCT OF DELHI"},"geometry":{"type":"Polygon","coordinates":[[[77.28635,28.66063],[77.2864,28.66046],[77.29671,28.64417],[77.28578,28.63641],[77.28746,28.62549],[77.29278,28.62803],[77.29812,28.63198],[77.30764,28.62205],[77.31991,28.62253],[77.33404,28.62816],[77.31619,28.64094],[77.3204,28.65826],[77.32138,28.66436],[77.30403,28.66421],[77.30215,28.66771],[77.28635,28.66063]]]}},{"type":"Feature","properties":{"ac_name":"RAJOURI GARDEN","ac_no":27,"ac_category":"GEN","st_name":"NCT OF DELHI"},"geometry":{"type":"Polygon","coordinates":[[[77.11187,28.65999],[77.10161,28.6595],[77.10239,28.65296],[77.0948,28.65172],[77.09429,28.64425],[77.11297,28.64228],[77.12248,28.63823],[77.13534,28.64029],[77.12944,28.65062],[77.12148,28.64709],[77.11346,28.65258],[77.11187,28.65999]]]}},{"type":"Feature","properties":{"ac_name":"TILAK NAGAR","ac_no":29,"ac_category":"GEN","st_name":"NCT OF DELHI"},"geometry":{"type":"Polygon","coordinates":[[[77.09213,28.65364],[77.08456,28.65469],[77.07455,28.64743],[77.07769,28.64073],[77.08653,28.63913],[77.07898,28.63274],[77.06633,28.63608],[77.07478,28.62725],[77.08717,28.63206],[77.10138,28.63759],[77.11169,28.63561],[77.11297,28.64228],[77.09429,28.64425],[77.0948,28.65172],[77.10239,28.65296],[77.10161,28.6595],[77.09213,28.65364]]]}},{"type":"Feature","properties":{"ac_name":"BALLIMARAN","ac_no":22,"ac_category":"GEN","st_name":"NCT OF DELHI"},"geometry":{"type":"Polygon","coordinates":[[[77.21866,28.65576],[77.2046,28.65744],[77.20615,28.64813],[77.21948,28.64],[77.22113,28.63987],[77.22186,28.64519],[77.23068,28.64629],[77.22776,28.65361],[77.21866,28.65576]]]}},{"type":"Feature","properties":{"ac_name":"KRISHNA NAGAR","ac_no":60,"ac_category":"GEN","st_name":"NCT OF DELHI"},"geometry":{"type":"Polygon","coordinates":[[[77.25621,28.65236],[77.26315,28.64203],[77.28194,28.64103],[77.28578,28.63641],[77.29671,28.64417],[77.2864,28.66046],[77.28294,28.65533],[77.26976,28.65725],[77.26458,28.65166],[77.25621,28.65236]]]}},{"type":"Feature","properties":{"ac_name":"RAJINDER NAGAR","ac_no":39,"ac_category":"GEN","st_name":"NCT OF DELHI"},"geometry":{"type":"Polygon","coordinates":[[[77.20017,28.64204],[77.18536,28.64635],[77.18388,28.64064],[77.17785,28.63989],[77.16248,28.64386],[77.15554,28.6499],[77.15951,28.65412],[77.15643,28.65582],[77.1345,28.631],[77.13974,28.61778],[77.15422,28.626],[77.16573,28.61992],[77.15761,28.60838],[77.16018,28.60266],[77.17176,28.60261],[77.20017,28.64204]]]}},{"type":"Feature","properties":{"ac_name":"JANGPURA","ac_no":41,"ac_category":"GEN","st_name":"NCT OF DELHI"},"geometry":{"type":"Polygon","coordinates":[[[77.25621,28.65236],[77.25602,28.65261],[77.25173,28.6455],[77.23904,28.64494],[77.24074,28.63995],[77.2446,28.62313],[77.24255,28.60272],[77.24872,28.59237],[77.24499,28.59116],[77.24905,28.5772],[77.23876,28.56771],[77.25472,28.56386],[77.26332,28.57136],[77.27108,28.58481],[77.26417,28.59984],[77.25751,28.61474],[77.26315,28.64203],[77.25621,28.65236]]]}},{"type":"Feature","properties":{"ac_name":"MATIA MAHAL","ac_no":21,"ac_category":"GEN","st_name":"NCT OF DELHI"},"geometry":{"type":"Polygon","coordinates":[[[77.22113,28.63987],[77.22398,28.63354],[77.2446,28.62313],[77.24074,28.63995],[77.23068,28.64629],[77.22186,28.64519],[77.22113,28.63987]]]}},{"type":"Feature","properties":{"ac_name":"HARI NAGAR","ac_no":28,"ac_category":"GEN","st_name":"NCT OF DELHI"},"geometry":{"type":"Polygon","coordinates":[[[77.13534,28.64029],[77.12248,28.63823],[77.11297,28.64228],[77.11169,28.63561],[77.10138,28.63759],[77.08717,28.63206],[77.0962,28.62203],[77.10424,28.62441],[77.10916,28.61915],[77.10428,28.6057],[77.11101,28.6025],[77.13439,28.63081],[77.13534,28.64029]]]}},{"type":"Feature","properties":{"ac_name":"NEW DELHI","ac_no":40,"ac_category":"GEN","st_name":"NCT OF DELHI"},"geometry":{"type":"Polygon","coordinates":[[[77.22113,28.63987],[77.21948,28.64],[77.21676,28.63378],[77.20017,28.64204],[77.17176,28.60261],[77.16901,28.59406],[77.1692,28.59415],[77.19357,28.60481],[77.20249,28.58163],[77.1925,28.5793],[77.19111,28.56829],[77.19617,28.56537],[77.20187,28.56786],[77.20358,28.55922],[77.21185,28.55845],[77.21732,28.56424],[77.22205,28.57332],[77.21111,28.57178],[77.21138,28.57664],[77.22852,28.57776],[77.22883,28.58747],[77.24499,28.59116],[77.24872,28.59237],[77.24255,28.60272],[77.2446,28.62313],[77.22398,28.63354],[77.22113,28.63987]]]}},{"type":"Feature","properties":{"ac_name":"LAXMI NAGAR","ac_no":58,"ac_category":"GEN","st_name":"NCT OF DELHI"},"geometry":{"type":"Polygon","coordinates":[[[77.26315,28.64203],[77.25751,28.61474],[77.26417,28.59984],[77.28437,28.61116],[77.28639,28.60874],[77.28929,28.61997],[77.29904,28.62168],[77.29278,28.62803],[77.28746,28.62549],[77.28578,28.63641],[77.28194,28.64103],[77.26315,28.64203]]]}},{"type":"Feature","properties":{"ac_name":"MATIALA","ac_no":34,"ac_category":"GEN","st_name":"NCT OF DELHI"},"geometry":{"type":"Polygon","coordinates":[[[76.99981,28.63132],[76.9969,28.61625],[77.01653,28.61039],[77.01097,28.60442],[77.01582,28.59757],[77.01057,28.59147],[76.98024,28.59389],[76.96709,28.58283],[76.95949,28.5896],[76.9464,28.59215],[76.93483,28.5876],[76.92372,28.57175],[76.93294,28.56288],[76.90477,28.55349],[76.90404,28.54147],[76.88535,28.54329],[76.87259,28.53278],[76.87676,28.5249],[76.88727,28.51989],[76.88032,28.50587],[76.88553,28.50096],[76.89215,28.50046],[76.90802,28.5136],[76.92283,28.50737],[76.93665,28.5105],[76.94498,28.50441],[76.95399,28.50502],[76.97874,28.52115],[76.99128,28.51367],[76.99695,28.51979],[77.00789,28.51436],[77.01373,28.52275],[76.99789,28.53212],[77.00432,28.54143],[77.0137,28.53945],[77.02946,28.56679],[77.04137,28.55304],[77.05858,28.55061],[77.0677,28.56671],[77.06568,28.57343],[77.05926,28.57607],[77.05129,28.58117],[77.05791,28.58759],[77.04363,28.60085],[77.05507,28.60276],[77.05519,28.60754],[77.05401,28.61331],[77.05837,28.61627],[77.0544,28.61954],[77.04555,28.62068],[77.03332,28.61437],[77.02304,28.61941],[77.02266,28.62505],[77.0077,28.62275],[76.99981,28.63132]]]}},{"type":"Feature","properties":{"ac_name":"JANAKPURI","ac_no":30,"ac_category":"GEN","st_name":"NCT OF DELHI"},"geometry":{"type":"Polygon","coordinates":[[[77.08717,28.63206],[77.07478,28.62725],[77.06164,28.62277],[77.06105,28.6177],[77.06891,28.62038],[77.08251,28.61736],[77.08321,28.61194],[77.07682,28.60816],[77.07733,28.60483],[77.08896,28.61035],[77.10428,28.6057],[77.10916,28.61915],[77.10424,28.62441],[77.0962,28.62203],[77.08717,28.63206]]]}},{"type":"Feature","properties":{"ac_name":"DELHI CANTT","ac_no":38,"ac_category":"GEN","st_name":"NCT OF DELHI"},"geometry":{"type":"GeometryCollection","geometries":[{"type":"Polygon","coordinates":[[[77.19357,28.60481,0],[77.20249,28.58163,0],[77.1925,28.5793,0],[77.19111,28.56829,0],[77.18137,28.57088,0],[77.1692,28.59415,0],[77.19357,28.60481,0]]]},{"type":"Polygon","coordinates":[[[77.13974,28.61778,0],[77.15422,28.626,0],[77.16573,28.61992,0],[77.15761,28.60838,0],[77.16018,28.60266,0],[77.17176,28.60261,0],[77.16901,28.59406,0],[77.16085,28.5743,0],[77.1545,28.5727,0],[77.15296,28.55623,0],[77.13412,28.55474,0],[77.13125,28.54941,0],[77.11712,28.54089,0],[77.10593,28.54522,0],[77.10168,28.55249,0],[77.08081,28.55068,0],[77.07449,28.56002,0],[77.08446,28.57239,0],[77.10366,28.59391,0],[77.11101,28.6025,0],[77.13439,28.63081,0],[77.1345,28.631,0],[77.13974,28.61778,0]]]}]}},{"type":"Feature","properties":{"ac_name":"UTTAM NAGAR","ac_no":32,"ac_category":"GEN","st_name":"NCT OF DELHI"},"geometry":{"type":"Polygon","coordinates":[[[77.06164,28.62277],[77.05872,28.62792],[77.02266,28.62505],[77.02304,28.61941],[77.03332,28.61437],[77.04555,28.62068],[77.0544,28.61954],[77.05837,28.61627],[77.05401,28.61331],[77.05519,28.60754],[77.0673,28.60757],[77.07682,28.60816],[77.08321,28.61194],[77.08251,28.61736],[77.06891,28.62038],[77.06105,28.6177],[77.06164,28.62277]]]}},{"type":"Feature","properties":{"ac_name":"PATPARGANJ","ac_no":57,"ac_category":"GEN","st_name":"NCT OF DELHI"},"geometry":{"type":"Polygon","coordinates":[[[77.29278,28.62803],[77.29904,28.62168],[77.28929,28.61997],[77.28639,28.60874],[77.29854,28.58866],[77.29648,28.61116],[77.31432,28.60972],[77.31243,28.6127],[77.32192,28.61808],[77.31991,28.62253],[77.30764,28.62205],[77.29812,28.63198],[77.29278,28.62803]]]}},{"type":"Feature","properties":{"ac_name":"KONDLI","ac_no":56,"ac_category":"SC","st_name":"NCT OF DELHI"},"geometry":{"type":"Polygon","coordinates":[[[77.33404,28.62816],[77.31991,28.62253],[77.32192,28.61808],[77.31243,28.6127],[77.31432,28.60972],[77.32478,28.60986],[77.3126,28.59545],[77.34116,28.60524],[77.34244,28.62222],[77.33404,28.62816]]]}},{"type":"Feature","properties":{"ac_name":"DWARKA","ac_no":33,"ac_category":"GEN","st_name":"NCT OF DELHI"},"geometry":{"type":"Polygon","coordinates":[[[77.0673,28.60757],[77.0647,28.59965],[77.06993,28.60094],[77.07946,28.59066],[77.08662,28.59],[77.08212,28.58835],[77.08455,28.58477],[77.08973,28.58368],[77.0962,28.59672],[77.10366,28.59391],[77.11101,28.6025],[77.10428,28.6057],[77.08896,28.61035],[77.07733,28.60483],[77.07682,28.60816],[77.0673,28.60757]]]}},{"type":"Feature","properties":{"ac_name":"PALAM","ac_no":37,"ac_category":"GEN","st_name":"NCT OF DELHI"},"geometry":{"type":"Polygon","coordinates":[[[77.05519,28.60754],[77.05507,28.60276],[77.04363,28.60085],[77.05791,28.58759],[77.05129,28.58117],[77.05926,28.57607],[77.06629,28.58331],[77.07401,28.58316],[77.08446,28.57239],[77.10366,28.59391],[77.0962,28.59672],[77.08973,28.58368],[77.08455,28.58477],[77.08212,28.58835],[77.08662,28.59],[77.07946,28.59066],[77.06993,28.60094],[77.0647,28.59965],[77.0673,28.60757],[77.05519,28.60754]]]}},{"type":"Feature","properties":{"ac_name":"TRILOKPURI","ac_no":55,"ac_category":"SC","st_name":"NCT OF DELHI"},"geometry":{"type":"Polygon","coordinates":[[[77.26417,28.59984],[77.27108,28.58481],[77.27962,28.56814],[77.30042,28.56309],[77.29679,28.56618],[77.2985,28.58061],[77.3126,28.59545],[77.32478,28.60986],[77.31432,28.60972],[77.29648,28.61116],[77.29854,28.58866],[77.28639,28.60874],[77.28437,28.61116],[77.26417,28.59984]]]}},{"type":"Feature","properties":{"ac_name":"R.K. PURAM","ac_no":44,"ac_category":"GEN","st_name":"NCT OF DELHI"},"geometry":{"type":"Polygon","coordinates":[[[77.1692,28.59415],[77.16901,28.59406],[77.16085,28.5743],[77.1545,28.5727],[77.15296,28.55623],[77.16027,28.55222],[77.15739,28.54829],[77.16246,28.54423],[77.1684,28.5517],[77.17562,28.54821],[77.18322,28.55045],[77.19617,28.56537],[77.19111,28.56829],[77.18137,28.57088],[77.1692,28.59415]]]}},{"type":"Feature","properties":{"ac_name":"KASTURBA NAGAR","ac_no":42,"ac_category":"GEN","st_name":"NCT OF DELHI"},"geometry":{"type":"Polygon","coordinates":[[[77.24499,28.59116],[77.22883,28.58747],[77.22852,28.57776],[77.21138,28.57664],[77.21111,28.57178],[77.22205,28.57332],[77.21732,28.56424],[77.22334,28.55759],[77.21278,28.54827],[77.22953,28.5513],[77.23275,28.55706],[77.24724,28.55341],[77.25403,28.55658],[77.25472,28.56386],[77.23876,28.56771],[77.24905,28.5772],[77.24499,28.59116]]]}},{"type":"Feature","properties":{"ac_name":"BIJWASAN","ac_no":36,"ac_category":"GEN","st_name":"NCT OF DELHI"},"geometry":{"type":"Polygon","coordinates":[[[77.05926,28.57607],[77.06568,28.57343],[77.0677,28.56671],[77.05858,28.55061],[77.04137,28.55304],[77.02946,28.56679],[77.0137,28.53945],[77.0462,28.52075],[77.04391,28.51671],[77.06461,28.51202],[77.06949,28.5202],[77.09623,28.51106],[77.09435,28.50594],[77.10818,28.53284],[77.11485,28.52584],[77.11905,28.53667],[77.13163,28.53608],[77.13125,28.54941],[77.11712,28.54089],[77.10593,28.54522],[77.10168,28.55249],[77.08081,28.55068],[77.07449,28.56002],[77.08446,28.57239],[77.07401,28.58316],[77.06629,28.58331],[77.05926,28.57607]]]}},{"type":"Feature","properties":{"ac_name":"OKHLA","ac_no":54,"ac_category":"GEN","st_name":"NCT OF DELHI"},"geometry":{"type":"Polygon","coordinates":[[[77.26332,28.57136],[77.28572,28.54388],[77.27674,28.54021],[77.28195,28.5273],[77.29311,28.52882],[77.29778,28.52184],[77.3217,28.52151],[77.33579,28.52606],[77.30295,28.55299],[77.30042,28.56309],[77.27962,28.56814],[77.27108,28.58481],[77.26332,28.57136]]]}},{"type":"Feature","properties":{"ac_name":"KALKAJI","ac_no":51,"ac_category":"GEN","st_name":"NCT OF DELHI"},"geometry":{"type":"Polygon","coordinates":[[[77.26332,28.57136],[77.25472,28.56386],[77.25403,28.55658],[77.24724,28.55341],[77.25666,28.54847],[77.25503,28.54337],[77.24622,28.54007],[77.25712,28.53033],[77.25596,28.52254],[77.25807,28.52186],[77.26522,28.5258],[77.26933,28.5219],[77.26833,28.5404],[77.27478,28.54434],[77.27674,28.54021],[77.28572,28.54388],[77.26332,28.57136]]]}},{"type":"Feature","properties":{"ac_name":"MALVIYA NAGAR","ac_no":43,"ac_category":"GEN","st_name":"NCT OF DELHI"},"geometry":{"type":"Polygon","coordinates":[[[77.21732,28.56424],[77.21185,28.55845],[77.20358,28.55922],[77.20187,28.56786],[77.19617,28.56537],[77.18322,28.55045],[77.17641,28.53903],[77.18459,28.52599],[77.21607,28.52503],[77.21809,28.52579],[77.21778,28.53538],[77.20962,28.53918],[77.21278,28.54827],[77.22334,28.55759],[77.21732,28.56424]]]}},{"type":"Feature","properties":{"ac_name":"MEHRAULI","ac_no":45,"ac_category":"GEN","st_name":"NCT OF DELHI"},"geometry":{"type":"Polygon","coordinates":[[[77.15296,28.55623],[77.13412,28.55474],[77.13125,28.54941],[77.13163,28.53608],[77.11905,28.53667],[77.11485,28.52584],[77.10818,28.53284],[77.09435,28.50594],[77.1184,28.49654],[77.11695,28.49038],[77.12843,28.50051],[77.14002,28.50023],[77.14633,28.50898],[77.17301,28.50379],[77.18665,28.5102],[77.19568,28.49731],[77.20382,28.51491],[77.20365,28.51954],[77.21401,28.52087],[77.21607,28.52503],[77.18459,28.52599],[77.17641,28.53903],[77.18322,28.55045],[77.17562,28.54821],[77.1684,28.5517],[77.16246,28.54423],[77.15739,28.54829],[77.16027,28.55222],[77.15296,28.55623]]]}},{"type":"Feature","properties":{"ac_name":"GREATER KAILASH","ac_no":50,"ac_category":"GEN","st_name":"NCT OF DELHI"},"geometry":{"type":"Polygon","coordinates":[[[77.21278,28.54827],[77.20962,28.53918],[77.21778,28.53538],[77.21809,28.52579],[77.23129,28.52609],[77.242,28.51941],[77.24608,28.51367],[77.25596,28.52254],[77.25712,28.53033],[77.24622,28.54007],[77.25503,28.54337],[77.25666,28.54847],[77.24724,28.55341],[77.23275,28.55706],[77.22953,28.5513],[77.21278,28.54827]]]}},{"type":"Feature","properties":{"ac_name":"TUGHLAKABAD","ac_no":52,"ac_category":"GEN","st_name":"NCT OF DELHI"},"geometry":{"type":"Polygon","coordinates":[[[77.27674,28.54021],[77.27478,28.54434],[77.26833,28.5404],[77.26933,28.5219],[77.26522,28.5258],[77.25807,28.52186],[77.25525,28.50646],[77.27663,28.49305],[77.29578,28.49564],[77.28195,28.5273],[77.27674,28.54021]]]}},{"type":"Feature","properties":{"ac_name":"AMBEDKAR NAGAR","ac_no":48,"ac_category":"SC","st_name":"NCT OF DELHI"},"geometry":{"type":"Polygon","coordinates":[[[77.23129,28.52609],[77.21809,28.52579],[77.21607,28.52503],[77.21401,28.52087],[77.20365,28.51954],[77.20382,28.51491],[77.21174,28.51294],[77.21269,28.50742],[77.20412,28.49748],[77.22817,28.49636],[77.23882,28.51439],[77.22812,28.51795],[77.23129,28.52609]]]}},{"type":"Feature","properties":{"ac_name":"BADARPUR","ac_no":53,"ac_category":"GEN","st_name":"NCT OF DELHI"},"geometry":{"type":"Polygon","coordinates":[[[77.28195,28.5273],[77.29578,28.49564],[77.30172,28.48948],[77.31714,28.48495],[77.32686,28.49022],[77.34329,28.51053],[77.33579,28.52606],[77.3217,28.52151],[77.29778,28.52184],[77.29311,28.52882],[77.28195,28.5273]]]}},{"type":"Feature","properties":{"ac_name":"DEOLI","ac_no":47,"ac_category":"SC","st_name":"NCT OF DELHI"},"geometry":{"type":"Polygon","coordinates":[[[77.242,28.51941],[77.23129,28.52609],[77.22812,28.51795],[77.23882,28.51439],[77.22817,28.49636],[77.20412,28.49748],[77.20242,28.47385],[77.23097,28.46017],[77.2383,28.47573],[77.23877,28.50778],[77.24608,28.51367],[77.242,28.51941]]]}},{"type":"Feature","properties":{"ac_name":"SANGAM VIHAR","ac_no":49,"ac_category":"GEN","st_name":"NCT OF DELHI"},"geometry":{"type":"Polygon","coordinates":[[[77.25596,28.52254],[77.24608,28.51367],[77.23877,28.50778],[77.2383,28.47573],[77.27186,28.48636],[77.27663,28.49305],[77.25525,28.50646],[77.25807,28.52186],[77.25596,28.52254]]]}},{"type":"Feature","properties":{"ac_name":"CHHATARPUR","ac_no":46,"ac_category":"GEN","st_name":"NCT OF DELHI"},"geometry":{"type":"Polygon","coordinates":[[[77.20382,28.51491],[77.19568,28.49731],[77.18665,28.5102],[77.17301,28.50379],[77.14633,28.50898],[77.14002,28.50023],[77.12843,28.50051],[77.11695,28.49038],[77.11139,28.4746],[77.10852,28.47133],[77.11956,28.45837],[77.12211,28.44497],[77.16094,28.42834],[77.16313,28.4148],[77.17359,28.40549],[77.18164,28.40999],[77.1881,28.40691],[77.20592,28.40938],[77.22172,28.41183],[77.24742,28.42453],[77.25034,28.43301],[77.24666,28.43335],[77.2441,28.45274],[77.23987,28.45629],[77.23205,28.45464],[77.23097,28.46017],[77.20242,28.47385],[77.20412,28.49748],[77.21269,28.50742],[77.21174,28.51294],[77.20382,28.51491]]]}}]}