{"type":"FeatureCollection","features":[{"type":"Feature","properties":{"ac_name":"PERNEM","ac_no":2,"ac_category":"SC","st_name":"GOA"},"geometry":{"type":"Polygon","coordinates":[[[73.73191,15.72281],[73.74026,15.7088],[73.73636,15.70035],[73.74121,15.69179],[73.74918,15.69053],[73.75567,15.68178],[73.76599,15.67715],[73.78647,15.6942],[73.81034,15.67992],[73.80686,15.6997],[73.8192,15.7024],[73.82362,15.69593],[73.81783,15.67458],[73.82155,15.66256],[73.81232,15.65253],[73.84095,15.64775],[73.84234,15.66546],[73.86039,15.67822],[73.87749,15.68014],[73.88383,15.68517],[73.88373,15.69351],[73.89192,15.70295],[73.90344,15.70163],[73.91356,15.69225],[73.93071,15.70065],[73.94497,15.69945],[73.95223,15.71679],[73.94331,15.72568],[73.93875,15.74345],[73.87573,15.75108],[73.87235,15.7591],[73.87986,15.77458],[73.86596,15.78521],[73.86747,15.79703],[73.85655,15.80124],[73.84699,15.78665],[73.85188,15.78105],[73.84346,15.78156],[73.83774,15.7671],[73.83002,15.76527],[73.8311,15.75355],[73.82391,15.74073],[73.81015,15.74319],[73.80083,15.73536],[73.7907,15.73565],[73.7852,15.72587],[73.76512,15.73364],[73.74184,15.73581],[73.73191,15.72281]]]}},{"type":"Feature","properties":{"ac_name":"MANDREM","ac_no":1,"ac_category":"GEN","st_name":"GOA"},"geometry":{"type":"Polygon","coordinates":[[[73.67538,15.72702],[73.6802,15.72537],[73.67965,15.72089],[73.69025,15.72212],[73.6942,15.70134],[73.69943,15.69926],[73.69814,15.6925],[73.70199,15.69057],[73.71446,15.65077],[73.73042,15.62253],[73.77246,15.63996],[73.78423,15.65334],[73.7975,15.64862],[73.81232,15.65253],[73.82155,15.66256],[73.81783,15.67458],[73.82362,15.69593],[73.8192,15.7024],[73.80686,15.6997],[73.81034,15.67992],[73.78647,15.6942],[73.76599,15.67715],[73.75567,15.68178],[73.74918,15.69053],[73.74121,15.69179],[73.73636,15.70035],[73.74026,15.7088],[73.73191,15.72281],[73.72812,15.72004],[73.7115,15.72594],[73.6973,15.72303],[73.68571,15.7301],[73.67538,15.72702]]]}},{"type":"Feature","properties":{"ac_name":"BICHOLIM","ac_no":3,"ac_category":"GEN","st_name":"GOA"},"geometry":{"type":"Polygon","coordinates":[[[73.94497,15.69945],[73.93071,15.70065],[73.91356,15.69225],[73.90344,15.70163],[73.89192,15.70295],[73.88373,15.69351],[73.88383,15.68517],[73.89198,15.68155],[73.90359,15.66832],[73.90193,15.65298],[73.88218,15.64962],[73.89066,15.63421],[73.90004,15.63195],[73.90073,15.61864],[73.90999,15.6061],[73.945,15.57974],[73.94614,15.56799],[73.95266,15.56809],[73.96019,15.57391],[73.95556,15.59213],[73.96227,15.59067],[73.97317,15.59971],[73.94418,15.6159],[73.9507,15.62054],[73.96374,15.62074],[73.97255,15.62799],[73.96158,15.64201],[73.96809,15.66043],[73.96342,15.67179],[73.96414,15.69203],[73.9598,15.69971],[73.94497,15.69945]]]}},{"type":"Feature","properties":{"ac_name":"TIVIM","ac_no":4,"ac_category":"GEN","st_name":"GOA"},"geometry":{"type":"Polygon","coordinates":[[[73.89198,15.68155],[73.88383,15.68517],[73.87749,15.68014],[73.86039,15.67822],[73.84234,15.66546],[73.84095,15.64775],[73.81232,15.65253],[73.7975,15.64862],[73.78423,15.65334],[73.77246,15.63996],[73.78146,15.63753],[73.7969,15.63589],[73.81386,15.62438],[73.8337,15.60762],[73.86432,15.60059],[73.86905,15.6118],[73.87788,15.61539],[73.88761,15.61291],[73.899,15.60958],[73.90073,15.61864],[73.90004,15.63195],[73.89066,15.63421],[73.88218,15.64962],[73.90193,15.65298],[73.90359,15.66832],[73.89198,15.68155]]]}},{"type":"Feature","properties":{"ac_name":"PORIEM","ac_no":18,"ac_category":"GEN","st_name":"GOA"},"geometry":{"type":"Polygon","coordinates":[[[74.11795,15.65184],[74.11763,15.65174],[74.07891,15.6312],[74.03119,15.62305],[74.02671,15.61012],[74.01716,15.60763],[74.01191,15.59613],[73.98813,15.58667],[73.99036,15.5796],[74.0093,15.57033],[74.02016,15.56652],[74.04276,15.57381],[74.05433,15.57017],[74.05294,15.56137],[74.04044,15.55032],[74.03879,15.53148],[74.04601,15.51966],[74.06674,15.50599],[74.07274,15.48815],[74.09297,15.47602],[74.09412,15.47135],[74.10562,15.48085],[74.11749,15.47853],[74.12323,15.48421],[74.13731,15.48711],[74.13391,15.50978],[74.12302,15.50751],[74.11339,15.52138],[74.12526,15.52504],[74.12287,15.53232],[74.12878,15.53795],[74.12761,15.54462],[74.14076,15.56024],[74.13562,15.5686],[74.14196,15.57205],[74.14889,15.56983],[74.1524,15.579],[74.1602,15.58155],[74.1516,15.59224],[74.15297,15.59586],[74.16531,15.60787],[74.17653,15.6054],[74.19603,15.62851],[74.20255,15.65421],[74.20344,15.66361],[74.18607,15.66874],[74.18902,15.68043],[74.1814,15.68227],[74.16741,15.67179],[74.16492,15.6536],[74.13485,15.64833],[74.11795,15.65184]]]}},{"type":"Feature","properties":{"ac_name":"VALPOI","ac_no":19,"ac_category":"GEN","st_name":"GOA"},"geometry":{"type":"Polygon","coordinates":[[[74.20255,15.65421],[74.19603,15.62851],[74.17653,15.6054],[74.16531,15.60787],[74.15297,15.59586],[74.1516,15.59224],[74.1602,15.58155],[74.1524,15.579],[74.14889,15.56983],[74.14196,15.57205],[74.13562,15.5686],[74.14076,15.56024],[74.12761,15.54462],[74.12878,15.53795],[74.12287,15.53232],[74.12526,15.52504],[74.11339,15.52138],[74.12302,15.50751],[74.13391,15.50978],[74.13731,15.48711],[74.12323,15.48421],[74.11749,15.47853],[74.10562,15.48085],[74.09412,15.47135],[74.08329,15.47468],[74.07147,15.46972],[74.06335,15.47335],[74.06413,15.46417],[74.04774,15.46567],[74.04982,15.45333],[74.04184,15.45061],[74.03434,15.45272],[74.03647,15.45003],[74.04661,15.43455],[74.05194,15.43565],[74.04726,15.42157],[74.05358,15.4109],[74.07189,15.41237],[74.09725,15.42627],[74.10591,15.42774],[74.109,15.42019],[74.11722,15.43428],[74.12597,15.43865],[74.13389,15.43575],[74.14015,15.44151],[74.16664,15.44415],[74.17599,15.43958],[74.18539,15.44607],[74.19781,15.46834],[74.22093,15.4778],[74.22997,15.48654],[74.2509,15.49332],[74.25434,15.50254],[74.2742,15.51272],[74.27856,15.52284],[74.28233,15.53192],[74.27794,15.54575],[74.26191,15.5656],[74.25737,15.56222],[74.2448,15.56713],[74.24857,15.58042],[74.26038,15.59276],[74.26405,15.6158],[74.25477,15.62643],[74.24781,15.62294],[74.24391,15.62582],[74.2505,15.65783],[74.24448,15.65846],[74.23599,15.66851],[74.22818,15.66514],[74.22383,15.66901],[74.21453,15.66322],[74.22229,15.65701],[74.22048,15.65435],[74.2045,15.65071],[74.20255,15.65421]]]}},{"type":"Feature","properties":{"ac_name":"SIOLIM","ac_no":6,"ac_category":"GEN","st_name":"GOA"},"geometry":{"type":"Polygon","coordinates":[[[73.78146,15.63753],[73.77246,15.63996],[73.73042,15.62253],[73.73755,15.61706],[73.73994,15.60675],[73.73168,15.60775],[73.73192,15.5907],[73.74124,15.56534],[73.77407,15.58584],[73.79698,15.57384],[73.7981,15.57831],[73.79645,15.58836],[73.80189,15.60936],[73.81386,15.62438],[73.7969,15.63589],[73.78146,15.63753]]]}},{"type":"Feature","properties":{"ac_name":"MAPUSA","ac_no":5,"ac_category":"GEN","st_name":"GOA"},"geometry":{"type":"Polygon","coordinates":[[[73.8337,15.60762],[73.81386,15.62438],[73.80189,15.60936],[73.79645,15.58836],[73.7981,15.57831],[73.81036,15.58029],[73.82688,15.59222],[73.8337,15.60762]]]}},{"type":"Feature","properties":{"ac_name":"MAEM","ac_no":16,"ac_category":"GEN","st_name":"GOA"},"geometry":{"type":"Polygon","coordinates":[[[73.97255,15.62799],[73.96374,15.62074],[73.9507,15.62054],[73.94418,15.6159],[73.97317,15.59971],[73.96227,15.59067],[73.95556,15.59213],[73.96019,15.57391],[73.95266,15.56809],[73.94614,15.56799],[73.945,15.57974],[73.90999,15.6061],[73.90073,15.61864],[73.899,15.60958],[73.88761,15.61291],[73.89584,15.59732],[73.8867,15.57828],[73.89203,15.57269],[73.89684,15.57699],[73.90125,15.57482],[73.906,15.56372],[73.89943,15.56372],[73.89767,15.55666],[73.88422,15.56629],[73.87062,15.56468],[73.86962,15.55816],[73.86832,15.54352],[73.87534,15.53551],[73.87386,15.5312],[73.85992,15.5261],[73.85173,15.51468],[73.86076,15.51287],[73.87738,15.52127],[73.89532,15.54585],[73.90323,15.5499],[73.92427,15.54159],[73.91938,15.54154],[73.93116,15.53473],[73.94684,15.54742],[73.96027,15.54194],[73.96194,15.53953],[73.97198,15.55335],[73.9868,15.55174],[73.99239,15.56356],[74.00229,15.56314],[74.0093,15.57033],[73.99036,15.5796],[73.98813,15.58667],[74.01191,15.59613],[74.01716,15.60763],[73.991,15.61203],[73.97921,15.62752],[73.97255,15.62799]]]}},{"type":"Feature","properties":{"ac_name":"ALDONA","ac_no":10,"ac_category":"GEN","st_name":"GOA"},"geometry":{"type":"Polygon","coordinates":[[[73.88761,15.61291],[73.87788,15.61539],[73.86905,15.6118],[73.86432,15.60059],[73.8337,15.60762],[73.82688,15.59222],[73.81036,15.58029],[73.80747,15.57549],[73.81512,15.57318],[73.81184,15.57342],[73.82215,15.56435],[73.83395,15.57387],[73.83995,15.57327],[73.85324,15.56378],[73.85029,15.56273],[73.85465,15.55599],[73.86962,15.55816],[73.87062,15.56468],[73.88422,15.56629],[73.89767,15.55666],[73.89943,15.56372],[73.906,15.56372],[73.90125,15.57482],[73.89684,15.57699],[73.89203,15.57269],[73.8867,15.57828],[73.89584,15.59732],[73.88761,15.61291]]]}},{"type":"Feature","properties":{"ac_name":"CALANGUTE","ac_no":8,"ac_category":"GEN","st_name":"GOA"},"geometry":{"type":"Polygon","coordinates":[[[73.79698,15.57384],[73.77407,15.58584],[73.74124,15.56534],[73.74898,15.56253],[73.75504,15.54643],[73.76623,15.49466],[73.7758,15.49063],[73.78815,15.4947],[73.78277,15.49801],[73.77754,15.50362],[73.78313,15.52064],[73.7883,15.52222],[73.78099,15.53467],[73.77825,15.55182],[73.76709,15.55713],[73.78212,15.56264],[73.79525,15.56144],[73.79698,15.57384]]]}},{"type":"Feature","properties":{"ac_name":"SALIGAO","ac_no":7,"ac_category":"GEN","st_name":"GOA"},"geometry":{"type":"Polygon","coordinates":[[[73.81036,15.58029],[73.7981,15.57831],[73.79698,15.57384],[73.79525,15.56144],[73.78212,15.56264],[73.76709,15.55713],[73.77825,15.55182],[73.78099,15.53467],[73.7883,15.52222],[73.78313,15.52064],[73.77754,15.50362],[73.78277,15.49801],[73.79159,15.50049],[73.80595,15.49583],[73.81324,15.50736],[73.82807,15.5086],[73.82555,15.53274],[73.81624,15.54014],[73.80702,15.56203],[73.81274,15.56386],[73.81803,15.55866],[73.82215,15.56435],[73.81184,15.57342],[73.81512,15.57318],[73.80747,15.57549],[73.81036,15.58029]]]}},{"type":"Feature","properties":{"ac_name":"PORVORIM","ac_no":9,"ac_category":"GEN","st_name":"GOA"},"geometry":{"type":"Polygon","coordinates":[[[73.82215,15.56435],[73.81803,15.55866],[73.81274,15.56386],[73.80702,15.56203],[73.81624,15.54014],[73.82555,15.53274],[73.82807,15.5086],[73.83645,15.50796],[73.84863,15.52439],[73.85992,15.5261],[73.87386,15.5312],[73.87534,15.53551],[73.86832,15.54352],[73.86962,15.55816],[73.85465,15.55599],[73.85029,15.56273],[73.85324,15.56378],[73.83995,15.57327],[73.83395,15.57387],[73.82215,15.56435]]]}},{"type":"Feature","properties":{"ac_name":"SANQUELIM","ac_no":17,"ac_category":"GEN","st_name":"GOA"},"geometry":{"type":"Polygon","coordinates":[[[74.0093,15.57033],[74.00229,15.56314],[73.99239,15.56356],[73.9868,15.55174],[73.97198,15.55335],[73.96194,15.53953],[73.96958,15.52509],[73.99149,15.51277],[73.99935,15.50115],[74.01632,15.49759],[74.04184,15.45061],[74.04982,15.45333],[74.04774,15.46567],[74.06413,15.46417],[74.06335,15.47335],[74.07147,15.46972],[74.08329,15.47468],[74.09412,15.47135],[74.09297,15.47602],[74.07274,15.48815],[74.06674,15.50599],[74.04601,15.51966],[74.03879,15.53148],[74.04044,15.55032],[74.05294,15.56137],[74.05433,15.57017],[74.04276,15.57381],[74.02016,15.56652],[74.0093,15.57033]]]}},{"type":"Feature","properties":{"ac_name":"","ac_no":0,"ac_category":"GEN","st_name":"GOA"},"geometry":{"type":"Polygon","coordinates":[[[73.91938,15.54154],[73.92427,15.54159],[73.90323,15.5499],[73.89532,15.54585],[73.87738,15.52127],[73.86076,15.51287],[73.85173,15.51468],[73.85992,15.5261],[73.84863,15.52439],[73.83645,15.50796],[73.82807,15.5086],[73.81324,15.50736],[73.80595,15.49583],[73.81432,15.49199],[73.82189,15.49848],[73.8348,15.50031],[73.86774,15.50617],[73.89384,15.50263],[73.91006,15.50569],[73.91169,15.51022],[73.88607,15.50811],[73.87674,15.51108],[73.89303,15.5318],[73.91938,15.54154]],[[73.90178,15.53855],[73.89937,15.54155],[73.91015,15.547],[73.90427,15.54038],[73.90178,15.53855]]]}},{"type":"Feature","properties":{"ac_name":"CUMBARJUA","ac_no":15,"ac_category":"GEN","st_name":"GOA"},"geometry":{"type":"GeometryCollection","geometries":[{"type":"Polygon","coordinates":[[[73.96027,15.54194,0],[73.95065,15.52494,0],[73.94455,15.52436,0],[73.96044,15.50203,0],[73.95421,15.49749,0],[73.95161,15.47724,0],[73.95582,15.46846,0],[73.95539,15.46256,0],[73.94637,15.45462,0],[73.94561,15.43902,0],[73.93648,15.43479,0],[73.93487,15.43722,0],[73.92923,15.45224,0],[73.93373,15.46005,0],[73.92592,15.46824,0],[73.90996,15.4698,0],[73.90889,15.48108,0],[73.89798,15.48457,0],[73.89592,15.49026,0],[73.89384,15.50263,0],[73.91006,15.50569,0],[73.91169,15.51022,0],[73.88607,15.50811,0],[73.87674,15.51108,0],[73.89303,15.5318,0],[73.91938,15.54154,0],[73.93116,15.53473,0],[73.94684,15.54742,0],[73.96027,15.54194,0]]]},{"type":"Polygon","coordinates":[[[73.90427,15.54038,0],[73.90178,15.53855,0],[73.89937,15.54155,0],[73.91015,15.547,0],[73.90427,15.54038,0]]]}]}},{"type":"Feature","properties":{"ac_name":"PRIOL","ac_no":20,"ac_category":"GEN","st_name":"GOA"},"geometry":{"type":"Polygon","coordinates":[[[73.96194,15.53953],[73.96027,15.54194],[73.95065,15.52494],[73.94455,15.52436],[73.96044,15.50203],[73.95421,15.49749],[73.95161,15.47724],[73.95582,15.46846],[73.97118,15.46722],[73.96206,15.44754],[73.96602,15.43808],[73.95734,15.41262],[73.96246,15.42229],[73.97239,15.42482],[73.98286,15.42353],[73.98491,15.41712],[73.99986,15.41521],[74.0037,15.42327],[74.02212,15.43112],[74.02011,15.44777],[74.03647,15.45003],[74.03434,15.45272],[74.04184,15.45061],[74.01632,15.49759],[73.99935,15.50115],[73.99149,15.51277],[73.96958,15.52509],[73.96194,15.53953]]]}},{"type":"Feature","properties":{"ac_name":"ST. CRUZ","ac_no":13,"ac_category":"GEN","st_name":"GOA"},"geometry":{"type":"Polygon","coordinates":[[[73.8348,15.50031],[73.83241,15.48348],[73.82657,15.48196],[73.82577,15.47596],[73.832,15.45263],[73.83987,15.44912],[73.83811,15.4559],[73.84773,15.45602],[73.85751,15.46422],[73.87643,15.47025],[73.88883,15.48866],[73.89592,15.49026],[73.89384,15.50263],[73.86774,15.50617],[73.8348,15.50031]]]}},{"type":"Feature","properties":{"ac_name":"PANAJI","ac_no":11,"ac_category":"GEN","st_name":"GOA"},"geometry":{"type":"Polygon","coordinates":[[[73.81432,15.49199],[73.80809,15.47498],[73.82577,15.47596],[73.82657,15.48196],[73.83241,15.48348],[73.8348,15.50031],[73.82189,15.49848],[73.81432,15.49199]]]}},{"type":"Feature","properties":{"ac_name":"ST. ANDRE","ac_no":14,"ac_category":"GEN","st_name":"GOA"},"geometry":{"type":"Polygon","coordinates":[[[73.89592,15.49026],[73.88883,15.48866],[73.87643,15.47025],[73.85751,15.46422],[73.84773,15.45602],[73.83811,15.4559],[73.83987,15.44912],[73.84721,15.45269],[73.85219,15.44989],[73.86042,15.44182],[73.86316,15.42896],[73.88179,15.43098],[73.88059,15.43506],[73.89455,15.41975],[73.9042,15.41758],[73.91056,15.42509],[73.93487,15.43722],[73.92923,15.45224],[73.93373,15.46005],[73.92592,15.46824],[73.90996,15.4698],[73.90889,15.48108],[73.89798,15.48457],[73.89592,15.49026]]]}},{"type":"Feature","properties":{"ac_name":"TALEIGAO","ac_no":12,"ac_category":"GEN","st_name":"GOA"},"geometry":{"type":"Polygon","coordinates":[[[73.82577,15.47596],[73.80809,15.47498],[73.80202,15.46111],[73.78791,15.4625],[73.80315,15.45035],[73.80423,15.45466],[73.81271,15.45602],[73.832,15.45263],[73.82577,15.47596]]]}},{"type":"Feature","properties":{"ac_name":"SANVORDEM","ac_no":38,"ac_category":"GEN","st_name":"GOA"},"geometry":{"type":"Polygon","coordinates":[[[74.2509,15.49332],[74.22997,15.48654],[74.22093,15.4778],[74.19781,15.46834],[74.18539,15.44607],[74.17599,15.43958],[74.16664,15.44415],[74.14015,15.44151],[74.13389,15.43575],[74.12597,15.43865],[74.11722,15.43428],[74.109,15.42019],[74.10591,15.42774],[74.09725,15.42627],[74.07189,15.41237],[74.0764,15.39284],[74.08877,15.38974],[74.10282,15.36919],[74.10016,15.35656],[74.1038,15.34861],[74.09843,15.34894],[74.08404,15.32704],[74.09296,15.29919],[74.10675,15.2868],[74.10218,15.27221],[74.11058,15.26931],[74.12227,15.27509],[74.12533,15.26653],[74.13668,15.25457],[74.15423,15.26394],[74.16313,15.25151],[74.17488,15.24565],[74.18616,15.25817],[74.20529,15.25143],[74.21566,15.25571],[74.22245,15.26576],[74.23647,15.26586],[74.25136,15.25787],[74.26113,15.26073],[74.2726,15.28199],[74.28173,15.28016],[74.29378,15.28457],[74.29454,15.28877],[74.30807,15.28315],[74.32608,15.28366],[74.336,15.29511],[74.32088,15.31492],[74.31673,15.33061],[74.32214,15.34305],[74.31626,15.36223],[74.3231,15.36746],[74.29895,15.38201],[74.28307,15.38304],[74.27656,15.39027],[74.27865,15.40522],[74.26887,15.41963],[74.27774,15.44054],[74.2509,15.49332]]]}},{"type":"Feature","properties":{"ac_name":"MARCAIM","ac_no":23,"ac_category":"GEN","st_name":"GOA"},"geometry":{"type":"Polygon","coordinates":[[[73.95582,15.46846],[73.95539,15.46256],[73.94637,15.45462],[73.94561,15.43902],[73.93648,15.43479],[73.92606,15.4225],[73.9257,15.41617],[73.93985,15.40864],[73.9228,15.40539],[73.94907,15.40076],[73.95728,15.37603],[73.95892,15.37212],[73.97676,15.36746],[73.99225,15.38153],[73.99674,15.37503],[74.00151,15.3827],[73.98888,15.39939],[74.00688,15.40661],[73.99986,15.41521],[73.98491,15.41712],[73.98286,15.42353],[73.97239,15.42482],[73.96246,15.42229],[73.95734,15.41262],[73.96602,15.43808],[73.96206,15.44754],[73.97118,15.46722],[73.95582,15.46846]]]}},{"type":"Feature","properties":{"ac_name":"PONDA","ac_no":21,"ac_category":"GEN","st_name":"GOA"},"geometry":{"type":"Polygon","coordinates":[[[74.03647,15.45003],[74.02011,15.44777],[74.02212,15.43112],[74.0037,15.42327],[73.99986,15.41521],[74.00688,15.40661],[73.98888,15.39939],[74.00151,15.3827],[74.02389,15.3964],[74.01568,15.40595],[74.03375,15.41556],[74.0365,15.40451],[74.04262,15.40143],[74.05358,15.4109],[74.04726,15.42157],[74.05194,15.43565],[74.04661,15.43455],[74.03647,15.45003]]]}},{"type":"Feature","properties":{"ac_name":"MORMUGAO","ac_no":24,"ac_category":"GEN","st_name":"GOA"},"geometry":{"type":"Polygon","coordinates":[[[73.80667,15.39936],[73.79488,15.41439],[73.78387,15.41366],[73.79147,15.39435],[73.80609,15.3937],[73.80667,15.39936]]]}},{"type":"Feature","properties":{"ac_name":"VASCO-DA-GAMA","ac_no":25,"ac_category":"GEN","st_name":"GOA"},"geometry":{"type":"Polygon","coordinates":[[[73.80667,15.39936],[73.80609,15.3937],[73.80824,15.37711],[73.82432,15.37082],[73.83796,15.39281],[73.8307,15.3968],[73.82915,15.40707],[73.82409,15.4032],[73.82309,15.40836],[73.8172,15.41055],[73.8161,15.40334],[73.80667,15.39936]]]}},{"type":"Feature","properties":{"ac_name":"DABOLIM","ac_no":26,"ac_category":"GEN","st_name":"GOA"},"geometry":{"type":"Polygon","coordinates":[[[73.82915,15.40707],[73.8307,15.3968],[73.83796,15.39281],[73.82432,15.37082],[73.8333,15.37033],[73.84175,15.36031],[73.85166,15.36115],[73.85437,15.36633],[73.84846,15.37905],[73.85813,15.38081],[73.86536,15.38974],[73.86291,15.40144],[73.85866,15.39766],[73.85417,15.40115],[73.84657,15.39817],[73.84127,15.41016],[73.82915,15.40707]]]}},{"type":"Feature","properties":{"ac_name":"CORTALIM","ac_no":27,"ac_category":"GEN","st_name":"GOA"},"geometry":{"type":"Polygon","coordinates":[[[73.90669,15.40897],[73.90316,15.40349],[73.89186,15.40856],[73.88316,15.39892],[73.87487,15.39646],[73.86291,15.40144],[73.86536,15.38974],[73.85813,15.38081],[73.84846,15.37905],[73.85437,15.36633],[73.87441,15.36997],[73.89744,15.32375],[73.90464,15.32642],[73.91272,15.33868],[73.91281,15.35558],[73.92321,15.36278],[73.92729,15.37368],[73.93567,15.37066],[73.95728,15.37603],[73.94907,15.40076],[73.9228,15.40539],[73.91309,15.40449],[73.90669,15.40897]]]}},{"type":"Feature","properties":{"ac_name":"SIRODA","ac_no":22,"ac_category":"GEN","st_name":"GOA"},"geometry":{"type":"Polygon","coordinates":[[[74.07189,15.41237],[74.05358,15.4109],[74.04262,15.40143],[74.0365,15.40451],[74.03375,15.41556],[74.01568,15.40595],[74.02389,15.3964],[74.00151,15.3827],[73.99674,15.37503],[73.99225,15.38153],[73.97676,15.36746],[74.00461,15.34833],[74.0055,15.3336],[74.01367,15.30506],[74.02688,15.30329],[74.03592,15.30774],[74.04652,15.30122],[74.06999,15.2936],[74.07539,15.2767],[74.08221,15.2806],[74.0878,15.27749],[74.09483,15.27126],[74.10218,15.27221],[74.10675,15.2868],[74.09296,15.29919],[74.08404,15.32704],[74.09843,15.34894],[74.1038,15.34861],[74.10016,15.35656],[74.10282,15.36919],[74.08877,15.38974],[74.0764,15.39284],[74.07189,15.41237]]]}},{"type":"Feature","properties":{"ac_name":"NUVEM","ac_no":28,"ac_category":"GEN","st_name":"GOA"},"geometry":{"type":"Polygon","coordinates":[[[73.95892,15.37212],[73.95728,15.37603],[73.93567,15.37066],[73.92729,15.37368],[73.92321,15.36278],[73.91281,15.35558],[73.91272,15.33868],[73.90464,15.32642],[73.89744,15.32375],[73.90915,15.28818],[73.92028,15.29383],[73.9305,15.29057],[73.93443,15.29887],[73.94384,15.30218],[73.94559,15.29552],[73.95993,15.30417],[73.96612,15.31769],[73.96361,15.32703],[73.99459,15.33679],[74.0055,15.3336],[74.00461,15.34833],[73.97676,15.36746],[73.95892,15.37212]]]}},{"type":"Feature","properties":{"ac_name":"CURTORIM","ac_no":29,"ac_category":"GEN","st_name":"GOA"},"geometry":{"type":"Polygon","coordinates":[[[74.0055,15.3336],[73.99459,15.33679],[73.96361,15.32703],[73.96612,15.31769],[73.95993,15.30417],[73.96767,15.30197],[73.98893,15.29515],[73.99409,15.28172],[73.99353,15.27914],[73.99844,15.26695],[74.0328,15.26549],[74.04652,15.30122],[74.03592,15.30774],[74.02688,15.30329],[74.01367,15.30506],[74.0055,15.3336]]]}},{"type":"Feature","properties":{"ac_name":"FATORDA","ac_no":30,"ac_category":"GEN","st_name":"GOA"},"geometry":{"type":"Polygon","coordinates":[[[73.96767,15.30197],[73.95993,15.30417],[73.94559,15.29552],[73.94584,15.29363],[73.99409,15.28172],[73.98893,15.29515],[73.96767,15.30197]]]}},{"type":"Feature","properties":{"ac_name":"BENAULIM","ac_no":32,"ac_category":"GEN","st_name":"GOA"},"geometry":{"type":"Polygon","coordinates":[[[73.94559,15.29552],[73.94384,15.30218],[73.93443,15.29887],[73.9305,15.29057],[73.92028,15.29383],[73.90915,15.28818],[73.94242,15.17029],[73.95961,15.17344],[73.96507,15.18215],[73.96181,15.19206],[73.97111,15.1983],[73.97033,15.20215],[73.96,15.20282],[73.96548,15.21072],[73.95909,15.21618],[73.96238,15.2243],[73.94606,15.24071],[73.94452,15.24853],[73.95707,15.27051],[73.95234,15.27038],[73.94584,15.27987],[73.94584,15.29363],[73.94559,15.29552]]]}},{"type":"Feature","properties":{"ac_name":"CUNCOLIM","ac_no":34,"ac_category":"GEN","st_name":"GOA"},"geometry":{"type":"Polygon","coordinates":[[[74.07539,15.2767],[74.06999,15.2936],[74.04652,15.30122],[74.0328,15.26549],[74.02724,15.25718],[74.02808,15.24187],[74.00868,15.23282],[74.01497,15.21326],[74.00702,15.19248],[73.98636,15.18692],[73.9884,15.17975],[73.97564,15.17254],[73.99137,15.16902],[73.99597,15.15673],[74.00644,15.16136],[74.02393,15.13876],[74.0371,15.13736],[74.04768,15.14217],[74.03429,15.15799],[74.03603,15.16911],[74.0416,15.17829],[74.06318,15.18075],[74.06921,15.20696],[74.05602,15.21746],[74.06257,15.22688],[74.04469,15.23496],[74.04251,15.24668],[74.04615,15.25513],[74.05593,15.25955],[74.07539,15.2767]]]}},{"type":"Feature","properties":{"ac_name":"MARGAO","ac_no":31,"ac_category":"GEN","st_name":"GOA"},"geometry":{"type":"Polygon","coordinates":[[[73.99409,15.28172],[73.94584,15.29363],[73.94584,15.27987],[73.95234,15.27038],[73.95707,15.27051],[73.96666,15.26659],[73.96834,15.27535],[73.9766,15.27753],[73.97886,15.26807],[73.98351,15.27595],[73.99353,15.27914],[73.99409,15.28172]]]}},{"type":"Feature","properties":{"ac_name":"NAVELIM","ac_no":33,"ac_category":"GEN","st_name":"GOA"},"geometry":{"type":"Polygon","coordinates":[[[73.99353,15.27914],[73.98351,15.27595],[73.97886,15.26807],[73.9766,15.27753],[73.96834,15.27535],[73.96666,15.26659],[73.95707,15.27051],[73.94452,15.24853],[73.94606,15.24071],[73.96238,15.2243],[73.97368,15.23597],[73.97529,15.25215],[73.98268,15.25591],[73.98952,15.24637],[73.98986,15.26305],[73.99427,15.26108],[73.99844,15.26695],[73.99353,15.27914]]]}},{"type":"Feature","properties":{"ac_name":"CURCHOREM","ac_no":37,"ac_category":"GEN","st_name":"GOA"},"geometry":{"type":"Polygon","coordinates":[[[74.0878,15.27749],[74.08221,15.2806],[74.07539,15.2767],[74.05593,15.25955],[74.06697,15.24771],[74.06732,15.23518],[74.08288,15.22497],[74.08245,15.22065],[74.08578,15.2221],[74.0862,15.21482],[74.09606,15.20546],[74.09829,15.19695],[74.09501,15.19253],[74.11216,15.19279],[74.10927,15.21044],[74.11439,15.20901],[74.12581,15.21867],[74.13356,15.21963],[74.1335,15.23484],[74.14608,15.24073],[74.1435,15.25044],[74.12898,15.25368],[74.12533,15.26653],[74.12227,15.27509],[74.11058,15.26931],[74.10218,15.27221],[74.09483,15.27126],[74.0878,15.27749]]]}},{"type":"Feature","properties":{"ac_name":"VELIM","ac_no":35,"ac_category":"GEN","st_name":"GOA"},"geometry":{"type":"Polygon","coordinates":[[[74.0328,15.26549],[73.99844,15.26695],[73.99427,15.26108],[73.98986,15.26305],[73.98952,15.24637],[73.98268,15.25591],[73.97529,15.25215],[73.97368,15.23597],[73.96238,15.2243],[73.95909,15.21618],[73.96548,15.21072],[73.96,15.20282],[73.97033,15.20215],[73.97111,15.1983],[73.96181,15.19206],[73.96507,15.18215],[73.95961,15.17344],[73.94242,15.17029],[73.94928,15.14339],[73.95928,15.13958],[73.99597,15.15673],[73.99137,15.16902],[73.97564,15.17254],[73.9884,15.17975],[73.98636,15.18692],[74.00702,15.19248],[74.01497,15.21326],[74.00868,15.23282],[74.02808,15.24187],[74.02724,15.25718],[74.0328,15.26549]]]}},{"type":"Feature","properties":{"ac_name":"SANGUEM","ac_no":39,"ac_category":"GEN","st_name":"GOA"},"geometry":{"type":"Polygon","coordinates":[[[74.25136,15.25787],[74.23647,15.26586],[74.22245,15.26576],[74.21566,15.25571],[74.20529,15.25143],[74.18616,15.25817],[74.17488,15.24565],[74.16313,15.25151],[74.15423,15.26394],[74.13668,15.25457],[74.12533,15.26653],[74.12898,15.25368],[74.1435,15.25044],[74.14608,15.24073],[74.1335,15.23484],[74.13356,15.21963],[74.12581,15.21867],[74.11439,15.20901],[74.10927,15.21044],[74.11216,15.19279],[74.09501,15.19253],[74.06575,15.1787],[74.06975,15.17044],[74.05318,15.14171],[74.06525,15.12712],[74.05863,15.12341],[74.05997,15.1022],[74.12482,15.08815],[74.13128,15.08436],[74.12648,15.07171],[74.16095,15.06991],[74.16891,15.06298],[74.16113,15.05469],[74.1775,15.04454],[74.20198,15.04339],[74.2145,15.04761],[74.22991,15.03822],[74.22831,15.02085],[74.25347,14.99738],[74.26783,15.0019],[74.26684,15.00716],[74.28359,15.0238],[74.28336,15.03166],[74.29625,15.0412],[74.29545,15.04556],[74.2899,15.06474],[74.28054,15.06906],[74.27898,15.09536],[74.27257,15.09743],[74.27635,15.10518],[74.28243,15.10661],[74.2867,15.12138],[74.28298,15.13056],[74.28506,15.14836],[74.2957,15.15148],[74.31674,15.18695],[74.3105,15.1944],[74.30484,15.21607],[74.29991,15.21912],[74.30135,15.22445],[74.29106,15.2347],[74.28704,15.23198],[74.25961,15.24076],[74.25136,15.25787]]]}},{"type":"Feature","properties":{"ac_name":"QUEPEM","ac_no":36,"ac_category":"GEN","st_name":"GOA"},"geometry":{"type":"Polygon","coordinates":[[[74.05593,15.25955],[74.04615,15.25513],[74.04251,15.24668],[74.04469,15.23496],[74.06257,15.22688],[74.05602,15.21746],[74.06921,15.20696],[74.06318,15.18075],[74.0416,15.17829],[74.03603,15.16911],[74.03429,15.15799],[74.04768,15.14217],[74.0371,15.13736],[74.02393,15.13876],[74.00644,15.16136],[73.99597,15.15673],[73.95928,15.13958],[73.94928,15.14339],[73.93597,15.13391],[73.94095,15.12061],[73.93537,15.11214],[73.91798,15.1081],[73.92504,15.10571],[73.92694,15.09694],[73.9121,15.0857],[73.92553,15.08655],[73.93184,15.07913],[73.95463,15.07368],[73.96703,15.06592],[73.97439,15.05079],[73.98182,15.05496],[73.99165,15.05604],[73.99922,15.06488],[74.01178,15.06501],[74.01589,15.05679],[74.02293,15.05388],[74.08923,15.05457],[74.09352,15.06096],[74.10683,15.06059],[74.10785,15.0714],[74.12648,15.07171],[74.13128,15.08436],[74.12482,15.08815],[74.05997,15.1022],[74.05863,15.12341],[74.06525,15.12712],[74.05318,15.14171],[74.06975,15.17044],[74.06575,15.1787],[74.09501,15.19253],[74.09829,15.19695],[74.09606,15.20546],[74.0862,15.21482],[74.08578,15.2221],[74.08245,15.22065],[74.08288,15.22497],[74.06732,15.23518],[74.06697,15.24771],[74.05593,15.25955]]]}},{"type":"Feature","properties":{"ac_name":"CANACONA","ac_no":40,"ac_category":"GEN","st_name":"GOA"},"geometry":{"type":"Polygon","coordinates":[[[74.12648,15.07171],[74.10785,15.0714],[74.10683,15.06059],[74.09352,15.06096],[74.08923,15.05457],[74.02293,15.05388],[74.01589,15.05679],[74.01178,15.06501],[73.99922,15.06488],[73.99165,15.05604],[73.98182,15.05496],[73.99012,15.0341],[73.98534,15.02645],[73.98895,15.02042],[73.99283,15.01814],[73.99717,15.02169],[74.01295,15.01049],[74.02132,15.01153],[74.02726,15.0056],[74.02413,15.00258],[74.03006,15.0011],[74.028,14.99833],[74.03489,14.99721],[74.0393,14.98494],[74.03527,14.98361],[74.04042,14.98235],[74.04985,14.95918],[74.04334,14.94765],[74.04747,14.93457],[74.04403,14.91752],[74.06667,14.90728],[74.08097,14.91055],[74.08569,14.90064],[74.10179,14.91562],[74.1048,14.91287],[74.11501,14.91825],[74.11996,14.91659],[74.12449,14.9253],[74.14155,14.92262],[74.16208,14.9119],[74.16619,14.91897],[74.15394,14.93968],[74.15912,14.95575],[74.1638,14.95859],[74.17906,14.95733],[74.17918,14.95063],[74.19195,14.94415],[74.19253,14.93223],[74.20126,14.9256],[74.21373,14.9473],[74.23054,14.95106],[74.23706,14.96752],[74.24893,14.95949],[74.25368,14.9605],[74.2547,14.96973],[74.26444,14.9785],[74.2523,14.99253],[74.25347,14.99738],[74.22831,15.02085],[74.22991,15.03822],[74.2145,15.04761],[74.20198,15.04339],[74.1775,15.04454],[74.16113,15.05469],[74.16891,15.06298],[74.16095,15.06991],[74.12648,15.07171]]]}}]}