{"type":"FeatureCollection","features":[{"type":"Feature","properties":{"ac_name":"JIRANG","ac_no":10,"ac_category":"ST","st_name":"MEGHALAYA"},"geometry":{"type":"Polygon","coordinates":[[[91.8198,26.116],[91.809,26.0978],[91.8028,26.0953],[91.8002,26.1],[91.7911,26.0852],[91.7765,26.0892],[91.7625,26.0723],[91.7314,26.0596],[91.7368,26.0563],[91.7332,26.0493],[91.725,26.0465],[91.7225,26.0354],[91.7203,25.9539],[91.7125,25.9435],[91.7026,25.9411],[91.6704,25.9042],[91.6635,25.9081],[91.6526,25.9061],[91.6374,25.921],[91.6089,25.9376],[91.6122,25.9451],[91.6299,25.9433],[91.6343,25.9604],[91.6408,25.964],[91.6281,25.976],[91.6256,25.9871],[91.635,26.0123],[91.6302,26.0224],[91.6204,26.0256],[91.5976,26.0181],[91.5877,26.0304],[91.5788,26.0325],[91.5709,26.0256],[91.5722,26.015],[91.5633,26.007],[91.5651,26.0021],[91.5604,26.0006],[91.5508,25.9773],[91.5371,25.9707],[91.5356,25.9625],[91.5181,25.9599],[91.5177,25.9497],[91.5197,25.9402],[91.515,25.9413],[91.5137,25.9333],[91.5077,25.9325],[91.5017,25.9242],[91.5045,25.9119],[91.5365,25.9359],[91.5368,25.9314],[91.5046,25.9078],[91.4988,25.8967],[91.5036,25.8912],[91.4921,25.8963],[91.4836,25.8933],[91.4782,25.8878],[91.4749,25.8711],[91.5125,25.8657],[91.5211,25.8751],[91.5256,25.8913],[91.535,25.8841],[91.5301,25.8814],[91.5306,25.8719],[91.5224,25.8731],[91.5133,25.8642],[91.4973,25.8612],[91.4957,25.8647],[91.4836,25.8649],[91.4779,25.8581],[91.4626,25.8575],[91.4458,25.8405],[91.4226,25.8544],[91.3819,25.8456],[91.3422,25.8366],[91.3418,25.8247],[91.3595,25.8066],[91.3802,25.801],[91.3948,25.8052],[91.4181,25.8032],[91.4226,25.7932],[91.4574,25.7951],[91.4584,25.7885],[91.4708,25.7903],[91.4799,25.7967],[91.4965,25.7989],[91.5313,25.8017],[91.5373,25.7989],[91.5569,25.8083],[91.5869,25.812],[91.5966,25.8054],[91.5999,25.8099],[91.6105,25.8096],[91.6316,25.81],[91.6446,25.8042],[91.6593,25.8145],[91.6979,25.8048],[91.7073,25.82],[91.7379,25.829],[91.7495,25.8272],[91.7702,25.8088],[91.7895,25.8196],[91.7939,25.8917],[91.7749,25.9673],[91.7963,26.0005],[91.8608,25.9987],[91.8983,26.0234],[91.8832,26.0261],[91.8744,26.0431],[91.8679,26.042],[91.879,26.0974],[91.8362,26.1125],[91.8325,26.1182],[91.8198,26.116]]]}},{"type":"Feature","properties":{"ac_name":"MAWHATI","ac_no":8,"ac_category":"ST","st_name":"MEGHALAYA"},"geometry":{"type":"Polygon","coordinates":[[[92.2488,26.0638],[92.2383,26.0621],[92.2207,26.0705],[92.1778,26.0684],[92.1789,26.0778],[92.1755,26.0778],[92.1526,26.0671],[92.1343,26.0526],[92.1324,26.0442],[92.1279,26.0456],[92.135,26.0018],[92.1153,25.9643],[92.0911,25.9478],[92.0798,25.9324],[92.0705,25.8908],[92.0512,25.8805],[92.0232,25.8765],[92.0003,25.8613],[91.9695,25.8354],[91.9293,25.8111],[91.9081,25.8046],[91.9293,25.7818],[91.9748,25.768],[91.9777,25.7464],[91.9979,25.717],[92.0096,25.7064],[92.0649,25.7754],[92.0848,25.7849],[92.0995,25.7789],[92.1129,25.747],[92.0855,25.7278],[92.0774,25.7009],[92.0992,25.7049],[92.1509,25.7034],[92.1539,25.7074],[92.144,25.7175],[92.1481,25.7257],[92.1537,25.7249],[92.1586,25.7312],[92.1627,25.7436],[92.1486,25.7725],[92.1532,25.7777],[92.147,25.7845],[92.1513,25.8169],[92.1613,25.8202],[92.1621,25.836],[92.1669,25.8357],[92.1726,25.8501],[92.1777,25.8522],[92.1774,25.8729],[92.1997,25.8892],[92.2154,25.8943],[92.2255,25.909],[92.2171,25.9115],[92.2021,25.9063],[92.1942,25.9117],[92.195,25.9187],[92.1855,25.9164],[92.1761,25.9074],[92.1547,25.9111],[92.161,25.9283],[92.1525,25.9448],[92.1642,25.958],[92.1647,25.9709],[92.1756,25.9746],[92.1811,25.9852],[92.1986,25.9884],[92.1976,25.9946],[92.2036,26.0012],[92.2092,25.9979],[92.2116,26.0046],[92.2335,26.0094],[92.2431,26.0215],[92.2632,26.0332],[92.261,26.0419],[92.2703,26.0467],[92.2641,26.053],[92.2651,26.0585],[92.2735,26.0659],[92.2675,26.0689],[92.2488,26.0638]]]}},{"type":"Feature","properties":{"ac_name":"NONGPOH","ac_no":9,"ac_category":"ST","st_name":"MEGHALAYA"},"geometry":{"type":"Polygon","coordinates":[[[91.9969,26.0374],[91.9886,26.0385],[91.9836,26.0259],[91.979,26.0275],[91.9475,26.0132],[91.9309,26.0126],[91.9274,26.0013],[91.9174,25.9965],[91.9098,26.0087],[91.9148,26.0204],[91.8983,26.0234],[91.8608,25.9987],[91.7963,26.0005],[91.7749,25.9673],[91.7939,25.8917],[91.7895,25.8196],[91.8276,25.8363],[91.8442,25.8371],[91.8631,25.8682],[91.8975,25.8874],[91.9133,25.8779],[91.9539,25.9029],[91.9955,25.8736],[92.0003,25.8613],[92.0232,25.8765],[92.0512,25.8805],[92.0705,25.8908],[92.0798,25.9324],[92.0911,25.9478],[92.1153,25.9643],[92.135,26.0018],[92.1279,26.0456],[92.1214,26.0438],[92.1092,26.0507],[92.0961,26.0492],[92.0667,26.0351],[92.0515,26.0328],[92.0306,26.0395],[91.9969,26.0374]]]}},{"type":"Feature","properties":{"ac_name":"BAJENGDOBA","ac_no":40,"ac_category":"ST","st_name":"MEGHALAYA"},"geometry":{"type":"Polygon","coordinates":[[[90.4772,26.013],[90.4287,25.9884],[90.4164,25.9913],[90.4121,26.0035],[90.3978,26.0119],[90.371,26.0111],[90.3495,26.0036],[90.3403,25.9882],[90.3328,25.987],[90.3265,25.9739],[90.2711,25.9604],[90.2129,25.9527],[90.2093,25.9598],[90.2018,25.9602],[90.1919,25.9549],[90.1852,25.9436],[90.1809,25.9443],[90.1773,25.9589],[90.1578,25.9573],[90.1518,25.9658],[90.14,25.9565],[90.12,25.9547],[90.1191,25.9581],[90.1128,25.9541],[90.1598,25.9141],[90.1821,25.9014],[90.1916,25.9068],[90.2255,25.9258],[90.2933,25.9327],[90.3291,25.9308],[90.3814,25.9467],[90.4228,25.9532],[90.4146,25.9227],[90.3825,25.8679],[90.384,25.8411],[90.38,25.8346],[90.3425,25.8284],[90.3394,25.8076],[90.3408,25.8026],[90.3754,25.8031],[90.3918,25.799],[90.4025,25.761],[90.4038,25.7579],[90.4311,25.7145],[90.4409,25.7185],[90.4595,25.6891],[90.488,25.6805],[90.5129,25.7243],[90.4843,25.7598],[90.4891,25.777],[90.4946,25.8158],[90.4781,25.8159],[90.4931,25.859],[90.5137,25.8973],[90.5249,25.9328],[90.5335,25.9316],[90.5355,25.9353],[90.5337,25.9596],[90.5163,25.9759],[90.502,26.0003],[90.4772,26.013]]]}},{"type":"Feature","properties":{"ac_name":"UMSNING","ac_no":11,"ac_category":"ST","st_name":"MEGHALAYA"},"geometry":{"type":"Polygon","coordinates":[[[91.7895,25.8196],[91.7702,25.8088],[91.7791,25.7948],[91.7878,25.7908],[91.7883,25.7823],[91.7791,25.7634],[91.7653,25.7498],[91.7735,25.7399],[91.784,25.739],[91.783,25.7337],[91.8082,25.7334],[91.8151,25.7209],[91.8132,25.7055],[91.8199,25.7025],[91.828,25.6888],[91.8285,25.6739],[91.8341,25.6441],[91.9059,25.646],[91.905,25.6768],[91.9304,25.7024],[91.9645,25.7159],[91.9979,25.717],[91.9777,25.7464],[91.9748,25.768],[91.9293,25.7818],[91.9081,25.8046],[91.9293,25.8111],[91.9695,25.8354],[92.0003,25.8613],[91.9955,25.8736],[91.9539,25.9029],[91.9133,25.8779],[91.8975,25.8874],[91.8631,25.8682],[91.8442,25.8371],[91.8276,25.8363],[91.7895,25.8196]]]}},{"type":"Feature","properties":{"ac_name":"KHARKUTTA","ac_no":37,"ac_category":"ST","st_name":"MEGHALAYA"},"geometry":{"type":"Polygon","coordinates":[[[91.0303,25.886],[91.0251,25.8888],[91.0101,25.8843],[90.9773,25.8901],[90.969,25.8857],[90.967,25.9142],[90.9567,25.9363],[90.9466,25.9408],[90.9472,25.9484],[90.9406,25.9478],[90.9349,25.9405],[90.9172,25.9443],[90.9144,25.9274],[90.9176,25.9144],[90.9055,25.9291],[90.8948,25.9317],[90.8974,25.9378],[90.8898,25.9389],[90.8836,25.9508],[90.8813,25.9437],[90.8765,25.9498],[90.8718,25.9478],[90.8747,25.9432],[90.8444,25.9461],[90.8356,25.937],[90.8364,25.9484],[90.8247,25.9458],[90.8093,25.9525],[90.8084,25.9475],[90.795,25.9392],[90.8009,25.8883],[90.7955,25.8619],[90.7762,25.8201],[90.787,25.7964],[90.7881,25.7707],[90.809,25.7682],[90.832,25.7537],[90.8602,25.7504],[90.8685,25.7447],[90.8754,25.7285],[90.8852,25.7233],[90.9112,25.7297],[90.9224,25.7245],[90.9686,25.7263],[90.9831,25.742],[90.9819,25.7474],[90.9599,25.7492],[90.9528,25.758],[90.9447,25.7533],[90.9385,25.7599],[90.9447,25.7722],[90.9634,25.7796],[90.9813,25.7979],[91.0013,25.8249],[91.0151,25.8482],[91.0138,25.8565],[91.0279,25.8692],[91.0303,25.886]]]}},{"type":"Feature","properties":{"ac_name":"MENDIPATHAR","ac_no":38,"ac_category":"ST","st_name":"MEGHALAYA"},"geometry":{"type":"Polygon","coordinates":[[[90.7477,25.9565],[90.7396,25.9569],[90.724,25.9468],[90.7177,25.9551],[90.6875,25.9488],[90.6726,25.9348],[90.6279,25.9175],[90.6256,25.9099],[90.6299,25.9057],[90.6238,25.898],[90.6003,25.858],[90.7209,25.8206],[90.7132,25.7828],[90.7881,25.7707],[90.787,25.7964],[90.7762,25.8201],[90.7955,25.8619],[90.8009,25.8883],[90.795,25.9392],[90.7777,25.9094],[90.7575,25.9103],[90.7599,25.9222],[90.742,25.9124],[90.7383,25.9159],[90.7474,25.9192],[90.747,25.9246],[90.7535,25.9294],[90.7524,25.9346],[90.7461,25.9283],[90.7397,25.939],[90.7477,25.9492],[90.7477,25.9565]]]}},{"type":"Feature","properties":{"ac_name":"RESUBELPARA","ac_no":39,"ac_category":"ST","st_name":"MEGHALAYA"},"geometry":{"type":"Polygon","coordinates":[[[90.6006,25.9516],[90.5812,25.9582],[90.5719,25.9485],[90.5729,25.9377],[90.5479,25.9247],[90.5491,25.9147],[90.5385,25.9135],[90.5137,25.8973],[90.4931,25.859],[90.4781,25.8159],[90.4946,25.8158],[90.4891,25.777],[90.55,25.7809],[90.568,25.7605],[90.5969,25.7425],[90.6319,25.7968],[90.6513,25.7896],[90.7001,25.7817],[90.7132,25.7828],[90.7209,25.8206],[90.6003,25.858],[90.6238,25.898],[90.613,25.8994],[90.6068,25.9187],[90.6259,25.9366],[90.6006,25.9516]]]}},{"type":"Feature","properties":{"ac_name":"RAKSAMGRE","ac_no":44,"ac_category":"ST","st_name":"MEGHALAYA"},"geometry":{"type":"Polygon","coordinates":[[[90.3394,25.8076],[90.3425,25.8284],[90.38,25.8346],[90.384,25.8411],[90.3825,25.8679],[90.4146,25.9227],[90.4228,25.9532],[90.3814,25.9467],[90.3291,25.9308],[90.2933,25.9327],[90.2255,25.9258],[90.1916,25.9068],[90.244,25.9024],[90.2546,25.8951],[90.2699,25.877],[90.2668,25.8537],[90.2902,25.8293],[90.2971,25.8066],[90.3029,25.7967],[90.3156,25.7922],[90.3211,25.7969],[90.3169,25.8068],[90.3394,25.8076]]]}},{"type":"Feature","properties":{"ac_name":"TIKRIKILA","ac_no":45,"ac_category":"ST","st_name":"MEGHALAYA"},"geometry":{"type":"Polygon","coordinates":[[[90.0623,25.9115],[90.0625,25.9109],[90.0669,25.9031],[90.0841,25.8987],[90.0922,25.8834],[90.1179,25.8756],[90.1323,25.8578],[90.1387,25.8405],[90.1756,25.8251],[90.1779,25.8206],[90.1729,25.8135],[90.179,25.812],[90.1901,25.8193],[90.2082,25.8231],[90.2175,25.8326],[90.2238,25.824],[90.2339,25.8208],[90.2333,25.8109],[90.2185,25.7979],[90.2185,25.7932],[90.2428,25.7834],[90.2912,25.8005],[90.2971,25.8066],[90.2902,25.8293],[90.2668,25.8537],[90.2699,25.877],[90.2546,25.8951],[90.244,25.9024],[90.1916,25.9068],[90.1821,25.9014],[90.1598,25.9141],[90.1128,25.9541],[90.1063,25.9427],[90.1007,25.944],[90.0984,25.9379],[90.0923,25.9385],[90.0943,25.9282],[90.0855,25.9255],[90.0865,25.9199],[90.0759,25.9156],[90.0717,25.919],[90.067,25.9136],[90.0601,25.9138],[90.0623,25.9115]]]}},{"type":"Feature","properties":{"ac_name":"MAIRANG","ac_no":30,"ac_category":"ST","st_name":"MEGHALAYA"},"geometry":{"type":"Polygon","coordinates":[[[91.6105,25.8096],[91.5782,25.7564],[91.5749,25.7181],[91.5991,25.6617],[91.6218,25.6672],[91.6718,25.665],[91.6686,25.6314],[91.6488,25.629],[91.6258,25.6323],[91.6199,25.6081],[91.6524,25.602],[91.6482,25.5508],[91.6537,25.552],[91.6585,25.5281],[91.6701,25.5221],[91.689,25.526],[91.7001,25.5335],[91.6986,25.5462],[91.7233,25.5643],[91.7294,25.5634],[91.7331,25.5752],[91.7395,25.5738],[91.7809,25.5897],[91.7998,25.6096],[91.7989,25.6278],[91.8073,25.6354],[91.8112,25.6533],[91.8082,25.6588],[91.8285,25.6739],[91.828,25.6888],[91.8199,25.7025],[91.8132,25.7055],[91.8151,25.7209],[91.8082,25.7334],[91.783,25.7337],[91.784,25.739],[91.7735,25.7399],[91.7653,25.7498],[91.7791,25.7634],[91.7883,25.7823],[91.7878,25.7908],[91.7791,25.7948],[91.7702,25.8088],[91.7495,25.8272],[91.7379,25.829],[91.7073,25.82],[91.6979,25.8048],[91.6593,25.8145],[91.6446,25.8042],[91.6316,25.81],[91.6105,25.8096]]]}},{"type":"Feature","properties":{"ac_name":"RAMBRAI JYRNGAM (ST","ac_no":33,"ac_category":"GEN","st_name":"MEGHALAYA"},"geometry":{"type":"Polygon","coordinates":[[[91.1956,25.861],[91.1802,25.8441],[91.1477,25.8506],[91.1137,25.8323],[91.0782,25.8292],[91.062,25.8209],[91.049,25.8292],[91.0612,25.8374],[91.0717,25.8386],[91.0786,25.8527],[91.067,25.8467],[91.048,25.8493],[91.0222,25.8236],[91.0058,25.8205],[91.0013,25.8249],[90.9813,25.7979],[90.9634,25.7796],[90.9447,25.7722],[90.9385,25.7599],[90.9447,25.7533],[90.9528,25.758],[90.9599,25.7492],[90.9819,25.7474],[90.9831,25.742],[90.9686,25.7263],[90.9594,25.7144],[91.0724,25.7212],[91.067,25.7414],[91.0665,25.7767],[91.0947,25.79],[91.1036,25.7848],[91.1278,25.7209],[91.1477,25.7197],[91.1457,25.6981],[91.1882,25.6994],[91.2375,25.6895],[91.227,25.6764],[91.243,25.647],[91.2641,25.642],[91.2586,25.5966],[91.3105,25.5868],[91.3469,25.5696],[91.3721,25.6238],[91.4337,25.6089],[91.4287,25.6273],[91.4432,25.6628],[91.4429,25.6745],[91.5071,25.6938],[91.4992,25.6982],[91.4855,25.7227],[91.4708,25.7903],[91.4584,25.7885],[91.4574,25.7951],[91.4226,25.7932],[91.4181,25.8032],[91.3948,25.8052],[91.3802,25.801],[91.3595,25.8066],[91.3418,25.8247],[91.3422,25.8366],[91.3345,25.839],[91.3339,25.8319],[91.3221,25.8207],[91.2735,25.7458],[91.2572,25.748],[91.2207,25.7221],[91.22,25.7272],[91.1919,25.7306],[91.1929,25.7368],[91.1866,25.7387],[91.189,25.7644],[91.178,25.778],[91.1906,25.8112],[91.1861,25.8183],[91.204,25.8436],[91.1971,25.8497],[91.1956,25.861]]]}},{"type":"Feature","properties":{"ac_name":"PHULBARI","ac_no":46,"ac_category":"GEN","st_name":"MEGHALAYA"},"geometry":{"type":"Polygon","coordinates":[[[90.0235,25.8687],[90.0447,25.8653],[90.0658,25.8455],[90.0598,25.8382],[90.0668,25.8106],[90.0607,25.7901],[90.0739,25.7736],[90.0753,25.7609],[90.0815,25.731],[90.0787,25.722],[90.0919,25.7102],[90.1185,25.7024],[90.1247,25.7026],[90.1346,25.7156],[90.1363,25.7228],[90.1296,25.739],[90.1337,25.7479],[90.1833,25.7538],[90.1987,25.7615],[90.2055,25.7763],[90.2028,25.7903],[90.2069,25.7941],[90.2185,25.7932],[90.2185,25.7979],[90.2333,25.8109],[90.2339,25.8208],[90.2238,25.824],[90.2175,25.8326],[90.2082,25.8231],[90.1901,25.8193],[90.179,25.812],[90.1729,25.8135],[90.1779,25.8206],[90.1756,25.8251],[90.1387,25.8405],[90.1323,25.8578],[90.1179,25.8756],[90.0922,25.8834],[90.0841,25.8987],[90.0669,25.9031],[90.0625,25.9109],[90.0547,25.9006],[90.0413,25.8947],[90.0423,25.8882],[90.0245,25.8959],[90.0056,25.879],[90.0235,25.8687]]]}},{"type":"Feature","properties":{"ac_name":"UMROI","ac_no":12,"ac_category":"ST","st_name":"MEGHALAYA"},"geometry":{"type":"Polygon","coordinates":[[[92.1539,25.7074],[92.1509,25.7034],[92.0992,25.7049],[92.0774,25.7009],[92.0855,25.7278],[92.1129,25.747],[92.0995,25.7789],[92.0848,25.7849],[92.0649,25.7754],[92.0096,25.7064],[91.9979,25.717],[91.9645,25.7159],[91.9304,25.7024],[91.905,25.6768],[91.9059,25.646],[91.9569,25.6467],[92.1326,25.6412],[92.1315,25.6448],[92.1374,25.641],[92.147,25.6448],[92.1493,25.6535],[92.1543,25.6454],[92.155,25.6567],[92.1495,25.667],[92.1562,25.6723],[92.1605,25.684],[92.1539,25.7074]]]}},{"type":"Feature","properties":{"ac_name":"MAWTHADRAISHAN","ac_no":31,"ac_category":"ST","st_name":"MEGHALAYA"},"geometry":{"type":"Polygon","coordinates":[[[91.4708,25.7903],[91.4855,25.7227],[91.4992,25.6982],[91.5071,25.6938],[91.4429,25.6745],[91.4432,25.6628],[91.4287,25.6273],[91.4337,25.6089],[91.4177,25.5694],[91.4213,25.5573],[91.4111,25.5559],[91.4331,25.5357],[91.4841,25.5384],[91.4768,25.4783],[91.5466,25.4929],[91.5411,25.4986],[91.5416,25.5112],[91.5816,25.5207],[91.6149,25.5417],[91.6227,25.5382],[91.6338,25.549],[91.6482,25.5508],[91.6524,25.602],[91.6199,25.6081],[91.6258,25.6323],[91.6488,25.629],[91.6686,25.6314],[91.6718,25.665],[91.6218,25.6672],[91.5991,25.6617],[91.5749,25.7181],[91.5782,25.7564],[91.6105,25.8096],[91.5999,25.8099],[91.5966,25.8054],[91.5869,25.812],[91.5569,25.8083],[91.5373,25.7989],[91.5313,25.8017],[91.4965,25.7989],[91.4799,25.7967],[91.4708,25.7903]]]}},{"type":"Feature","properties":{"ac_name":"NARTIANG","ac_no":1,"ac_category":"ST","st_name":"MEGHALAYA"},"geometry":{"type":"Polygon","coordinates":[[[92.4855,25.6466],[92.4703,25.6751],[92.4382,25.6946],[92.438,25.7061],[92.4478,25.709],[92.4443,25.7198],[92.4308,25.7324],[92.4116,25.7301],[92.4091,25.7339],[92.4143,25.7416],[92.4062,25.745],[92.3977,25.7405],[92.3789,25.7428],[92.3841,25.7548],[92.3787,25.7484],[92.3686,25.747],[92.364,25.7373],[92.3532,25.7396],[92.3459,25.7295],[92.3332,25.7242],[92.3171,25.7224],[92.3106,25.7279],[92.2925,25.7165],[92.2778,25.7157],[92.2643,25.7091],[92.2466,25.7133],[92.2338,25.708],[92.2315,25.7163],[92.2242,25.7159],[92.2081,25.6959],[92.1736,25.6744],[92.1705,25.6674],[92.1562,25.6723],[92.1495,25.667],[92.155,25.6567],[92.1543,25.6454],[92.1493,25.6535],[92.147,25.6448],[92.1374,25.641],[92.1315,25.6448],[92.1326,25.6412],[92.1381,25.6252],[92.1212,25.6066],[92.1229,25.5844],[92.1117,25.5756],[92.1053,25.5624],[92.1062,25.5529],[92.1139,25.5448],[92.108,25.5374],[92.1064,25.5222],[92.1004,25.5173],[92.0987,25.5029],[92.1292,25.5014],[92.1535,25.5081],[92.1644,25.5379],[92.1775,25.5525],[92.1945,25.5587],[92.2215,25.563],[92.2236,25.5756],[92.2788,25.584],[92.2636,25.5951],[92.2873,25.6118],[92.3295,25.6233],[92.4176,25.617],[92.4198,25.6291],[92.4412,25.6386],[92.4458,25.6484],[92.4587,25.6378],[92.4649,25.6431],[92.4645,25.6511],[92.469,25.6513],[92.4735,25.6431],[92.4855,25.6466]]]}},{"type":"Feature","properties":{"ac_name":"RAJABALA","ac_no":47,"ac_category":"GEN","st_name":"MEGHALAYA"},"geometry":{"type":"Polygon","coordinates":[[[89.997,25.8363],[89.9802,25.8347],[89.9733,25.8265],[89.9639,25.8321],[89.9672,25.8218],[89.9616,25.8194],[89.9539,25.8231],[89.9588,25.8284],[89.9492,25.8262],[89.9498,25.8154],[89.9555,25.8118],[89.9586,25.8011],[89.9547,25.7876],[89.9592,25.7833],[89.9515,25.763],[89.9658,25.7525],[89.9754,25.7511],[89.983,25.7337],[89.9919,25.7259],[90.0124,25.7217],[90.0388,25.7259],[90.0543,25.7045],[90.0621,25.7103],[90.0607,25.7332],[90.0753,25.7609],[90.0739,25.7736],[90.0607,25.7901],[90.0668,25.8106],[90.0598,25.8382],[90.0658,25.8455],[90.0447,25.8653],[90.0235,25.8687],[90.0166,25.8524],[90.0004,25.845],[89.997,25.8363]]]}},{"type":"Feature","properties":{"ac_name":"MAWSHYNRUT","ac_no":34,"ac_category":"ST","st_name":"MEGHALAYA"},"geometry":{"type":"Polygon","coordinates":[[[90.959,25.7144],[90.9474,25.689],[90.9358,25.6842],[90.9248,25.6637],[90.9094,25.6528],[90.9065,25.6384],[90.8949,25.6369],[90.8717,25.6041],[90.8606,25.6036],[90.8334,25.5875],[90.8297,25.5915],[90.8241,25.59],[90.8133,25.5759],[90.8002,25.5885],[90.801,25.5831],[90.7923,25.5802],[90.793,25.5728],[90.7868,25.5687],[90.7788,25.5837],[90.7694,25.568],[90.7652,25.5621],[90.7704,25.5575],[90.7632,25.5534],[90.7662,25.5438],[90.7794,25.5331],[90.7785,25.5232],[90.7852,25.517],[90.7805,25.514],[90.7902,25.5067],[90.7843,25.494],[90.7897,25.4858],[90.7834,25.4776],[90.7746,25.4767],[90.7735,25.4689],[90.7898,25.4675],[90.7728,25.4563],[90.7735,25.4515],[90.76,25.4585],[90.7515,25.4511],[90.7616,25.4449],[90.7554,25.43],[90.7638,25.4169],[90.7623,25.3975],[90.747,25.3892],[90.7476,25.38],[90.757,25.3788],[90.7644,25.3731],[90.7637,25.3675],[90.7749,25.3673],[90.7763,25.3636],[90.8078,25.3684],[90.8146,25.3659],[90.8161,25.3585],[90.8262,25.3542],[90.8383,25.3552],[90.8451,25.3461],[90.8411,25.3458],[90.8377,25.3365],[90.8388,25.3071],[90.8466,25.3062],[90.8533,25.2954],[90.8604,25.2936],[90.8838,25.3062],[90.9577,25.298],[91.0107,25.2987],[91.1052,25.3291],[91.1347,25.3196],[91.142,25.3212],[91.1801,25.3434],[91.1759,25.3494],[91.1826,25.4242],[91.2419,25.4341],[91.2508,25.4398],[91.1896,25.4684],[91.2028,25.5216],[91.1379,25.5327],[91.0898,25.5345],[91.1172,25.5631],[91.1313,25.591],[91.1414,25.5931],[91.227,25.6764],[91.2375,25.6895],[91.1882,25.6994],[91.1457,25.6981],[91.1477,25.7197],[91.1278,25.7209],[91.1036,25.7848],[91.0947,25.79],[91.0665,25.7767],[91.067,25.7414],[91.0724,25.7212],[90.9594,25.7144],[90.959,25.7144]]]}},{"type":"Feature","properties":{"ac_name":"SONGSAK","ac_no":41,"ac_category":"ST","st_name":"MEGHALAYA"},"geometry":{"type":"Polygon","coordinates":[[[90.4038,25.7579],[90.4025,25.761],[90.3969,25.7607],[90.3879,25.7505],[90.3871,25.7433],[90.3963,25.7413],[90.4065,25.7225],[90.4057,25.7085],[90.4136,25.6958],[90.4075,25.6738],[90.4133,25.6576],[90.392,25.6423],[90.398,25.6307],[90.3878,25.6215],[90.391,25.6149],[90.3849,25.5967],[90.4488,25.589],[90.5133,25.5644],[90.5562,25.5411],[90.5759,25.536],[90.5787,25.5487],[90.5929,25.5474],[90.6292,25.5598],[90.684,25.5685],[90.7046,25.5666],[90.7428,25.5426],[90.7632,25.5534],[90.7704,25.5575],[90.7652,25.5621],[90.7694,25.568],[90.758,25.576],[90.7243,25.5845],[90.7187,25.5932],[90.7335,25.6293],[90.7353,25.656],[90.756,25.6593],[90.7572,25.6798],[90.7197,25.7183],[90.7173,25.7364],[90.7241,25.7431],[90.6996,25.7659],[90.6957,25.7777],[90.7001,25.7817],[90.6513,25.7896],[90.6319,25.7968],[90.5969,25.7425],[90.568,25.7605],[90.55,25.7809],[90.4891,25.777],[90.4843,25.7598],[90.5129,25.7243],[90.488,25.6805],[90.4595,25.6891],[90.4409,25.7185],[90.4311,25.7145],[90.4038,25.7579]]]}},{"type":"Feature","properties":{"ac_name":"DADENGGRE","ac_no":49,"ac_category":"ST","st_name":"MEGHALAYA"},"geometry":{"type":"Polygon","coordinates":[[[90.2971,25.8066],[90.2912,25.8005],[90.2428,25.7834],[90.2185,25.7932],[90.2069,25.7941],[90.2028,25.7903],[90.2055,25.7763],[90.1987,25.7615],[90.1833,25.7538],[90.1337,25.7479],[90.1296,25.739],[90.1363,25.7228],[90.1346,25.7156],[90.1247,25.7026],[90.1185,25.7024],[90.1222,25.6881],[90.1133,25.6754],[90.1334,25.6518],[90.1316,25.6437],[90.1139,25.6288],[90.121,25.6143],[90.1336,25.6084],[90.1485,25.6094],[90.1587,25.6018],[90.1694,25.6124],[90.1849,25.618],[90.2171,25.5908],[90.2326,25.6055],[90.2367,25.6194],[90.2491,25.6152],[90.2619,25.5934],[90.281,25.5833],[90.2859,25.5496],[90.3134,25.5408],[90.3241,25.5256],[90.3372,25.524],[90.3473,25.5132],[90.3563,25.521],[90.3609,25.5175],[90.3756,25.5236],[90.3743,25.5307],[90.3878,25.5383],[90.3911,25.5569],[90.3834,25.5663],[90.3849,25.5967],[90.391,25.6149],[90.3878,25.6215],[90.398,25.6307],[90.392,25.6423],[90.4133,25.6576],[90.4075,25.6738],[90.4136,25.6958],[90.4057,25.7085],[90.4065,25.7225],[90.3963,25.7413],[90.3871,25.7433],[90.3879,25.7505],[90.3969,25.7607],[90.4025,25.761],[90.3918,25.799],[90.3754,25.8031],[90.3408,25.8026],[90.3394,25.8076],[90.3169,25.8068],[90.3211,25.7969],[90.3156,25.7922],[90.3029,25.7967],[90.2971,25.8066]]]}},{"type":"Feature","properties":{"ac_name":"RONGJENG","ac_no":42,"ac_category":"ST","st_name":"MEGHALAYA"},"geometry":{"type":"Polygon","coordinates":[[[90.7132,25.7828],[90.7001,25.7817],[90.6957,25.7777],[90.6996,25.7659],[90.7241,25.7431],[90.7173,25.7364],[90.7197,25.7183],[90.7572,25.6798],[90.756,25.6593],[90.7353,25.656],[90.7335,25.6293],[90.7187,25.5932],[90.7243,25.5845],[90.758,25.576],[90.7694,25.568],[90.7788,25.5837],[90.7868,25.5687],[90.793,25.5728],[90.7923,25.5802],[90.801,25.5831],[90.8002,25.5885],[90.8133,25.5759],[90.8241,25.59],[90.8297,25.5915],[90.8334,25.5875],[90.8606,25.6036],[90.8717,25.6041],[90.8949,25.6369],[90.9065,25.6384],[90.9094,25.6528],[90.9248,25.6637],[90.9358,25.6842],[90.9474,25.689],[90.959,25.7144],[90.9594,25.7144],[90.9686,25.7263],[90.9224,25.7245],[90.9112,25.7297],[90.8852,25.7233],[90.8754,25.7285],[90.8685,25.7447],[90.8602,25.7504],[90.832,25.7537],[90.809,25.7682],[90.7881,25.7707],[90.7132,25.7828]]]}},{"type":"Feature","properties":{"ac_name":"SOHING","ac_no":23,"ac_category":"ST","st_name":"MEGHALAYA"},"geometry":{"type":"Polygon","coordinates":[[[91.8341,25.6441],[91.8285,25.6739],[91.8082,25.6588],[91.8112,25.6533],[91.8073,25.6354],[91.7989,25.6278],[91.7998,25.6096],[91.7809,25.5897],[91.7395,25.5738],[91.7331,25.5752],[91.7294,25.5634],[91.7233,25.5643],[91.6986,25.5462],[91.7001,25.5335],[91.689,25.526],[91.6701,25.5221],[91.6585,25.5281],[91.6534,25.4959],[91.6827,25.4945],[91.698,25.4736],[91.7185,25.4785],[91.7446,25.5001],[91.7489,25.5212],[91.7737,25.5145],[91.774,25.5342],[91.7791,25.5464],[91.7855,25.5489],[91.786,25.5675],[91.7959,25.5688],[91.7978,25.5909],[91.8291,25.6011],[91.8373,25.627],[91.8341,25.6441]]]}},{"type":"Feature","properties":{"ac_name":"MAWRYNGKNENG","ac_no":13,"ac_category":"ST","st_name":"MEGHALAYA"},"geometry":{"type":"Polygon","coordinates":[[[92.1326,25.6412],[91.9569,25.6467],[91.9315,25.6423],[91.9486,25.6353],[91.9518,25.6246],[91.9893,25.6147],[91.9891,25.6039],[91.98,25.5973],[91.948,25.6137],[91.945,25.607],[91.928,25.6071],[91.9326,25.5964],[91.9288,25.5848],[91.9466,25.5721],[91.9351,25.5574],[91.9507,25.5457],[91.9645,25.5339],[91.9834,25.5346],[91.9965,25.5285],[92.0227,25.5283],[92.0644,25.5389],[92.1004,25.5173],[92.1064,25.5222],[92.108,25.5374],[92.1139,25.5448],[92.1062,25.5529],[92.1053,25.5624],[92.1117,25.5756],[92.1229,25.5844],[92.1212,25.6066],[92.1381,25.6252],[92.1326,25.6412]]]}},{"type":"Feature","properties":{"ac_name":"SELSELLA","ac_no":48,"ac_category":"ST","st_name":"MEGHALAYA"},"geometry":{"type":"Polygon","coordinates":[[[89.9515,25.763],[89.9365,25.7551],[89.937,25.7452],[89.9256,25.7383],[89.8974,25.7463],[89.8959,25.7302],[89.9237,25.6942],[89.9356,25.6901],[89.9434,25.681],[89.9505,25.6559],[89.979,25.6386],[89.9832,25.6265],[90.0057,25.624],[90.0197,25.6069],[90.0283,25.6052],[90.0713,25.5939],[90.0935,25.5974],[90.0967,25.6179],[90.0905,25.6282],[90.0957,25.6335],[90.1139,25.6288],[90.1316,25.6437],[90.1334,25.6518],[90.1133,25.6754],[90.1222,25.6881],[90.1185,25.7024],[90.0919,25.7102],[90.0787,25.722],[90.0815,25.731],[90.0753,25.7609],[90.0607,25.7332],[90.0621,25.7103],[90.0543,25.7045],[90.0388,25.7259],[90.0124,25.7217],[89.9919,25.7259],[89.983,25.7337],[89.9754,25.7511],[89.9658,25.7525],[89.9515,25.763]]]}},{"type":"Feature","properties":{"ac_name":"RALIANG","ac_no":3,"ac_category":"ST","st_name":"MEGHALAYA"},"geometry":{"type":"Polygon","coordinates":[[[92.4176,25.617],[92.3295,25.6233],[92.2873,25.6118],[92.2636,25.5951],[92.2788,25.584],[92.2236,25.5756],[92.2215,25.563],[92.1945,25.5587],[92.2054,25.5292],[92.2796,25.5317],[92.3062,25.4727],[92.3113,25.4404],[92.3591,25.4345],[92.3719,25.4401],[92.3829,25.4365],[92.3916,25.4426],[92.404,25.4385],[92.4157,25.4447],[92.4253,25.444],[92.4344,25.4542],[92.4554,25.4576],[92.463,25.4526],[92.4842,25.4539],[92.4756,25.4885],[92.4437,25.5177],[92.4174,25.5787],[92.4176,25.617]]]}},{"type":"Feature","properties":{"ac_name":"MAWLAI","ac_no":15,"ac_category":"ST","st_name":"MEGHALAYA"},"geometry":{"type":"Polygon","coordinates":[[[91.9569,25.6467],[91.9059,25.646],[91.8341,25.6441],[91.8373,25.627],[91.8291,25.6011],[91.8309,25.5843],[91.8424,25.5903],[91.8653,25.5999],[91.882,25.6062],[91.8902,25.6156],[91.9058,25.6151],[91.9034,25.6199],[91.9148,25.6263],[91.9234,25.64],[91.9315,25.6423],[91.9569,25.6467]]]}},{"type":"Feature","properties":{"ac_name":"PYNTHORUMKHRAH","ac_no":14,"ac_category":"GEN","st_name":"MEGHALAYA"},"geometry":{"type":"Polygon","coordinates":[[[91.9058,25.6151],[91.9169,25.6129],[91.928,25.6071],[91.945,25.607],[91.948,25.6137],[91.98,25.5973],[91.9891,25.6039],[91.9893,25.6147],[91.9518,25.6246],[91.9486,25.6353],[91.9315,25.6423],[91.9234,25.64],[91.9148,25.6263],[91.9034,25.6199],[91.9058,25.6151]]]}},{"type":"Feature","properties":{"ac_name":"NONGSTOIN","ac_no":32,"ac_category":"ST","st_name":"MEGHALAYA"},"geometry":{"type":"Polygon","coordinates":[[[91.227,25.6764],[91.1414,25.5931],[91.1313,25.591],[91.1172,25.5631],[91.0898,25.5345],[91.1379,25.5327],[91.2028,25.5216],[91.1896,25.4684],[91.2508,25.4398],[91.2912,25.4396],[91.3292,25.4571],[91.3568,25.4624],[91.375,25.4743],[91.4121,25.481],[91.4768,25.4783],[91.4841,25.5384],[91.4331,25.5357],[91.4111,25.5559],[91.4213,25.5573],[91.4177,25.5694],[91.4337,25.6089],[91.3721,25.6238],[91.3469,25.5696],[91.3105,25.5868],[91.2586,25.5966],[91.2641,25.642],[91.243,25.647],[91.227,25.6764]]]}},{"type":"Feature","properties":{"ac_name":"NORTH SHILLONG","ac_no":17,"ac_category":"ST","st_name":"MEGHALAYA"},"geometry":{"type":"Polygon","coordinates":[[[91.9169,25.6129],[91.9058,25.6151],[91.8902,25.6156],[91.882,25.6062],[91.8653,25.5999],[91.8809,25.5919],[91.8868,25.5889],[91.8949,25.5954],[91.9169,25.6129]]]}},{"type":"Feature","properties":{"ac_name":"EAST SHILLONG","ac_no":16,"ac_category":"ST","st_name":"MEGHALAYA"},"geometry":{"type":"Polygon","coordinates":[[[91.928,25.6071],[91.9169,25.6129],[91.8949,25.5954],[91.9155,25.5714],[91.9288,25.5848],[91.9326,25.5964],[91.928,25.6071]]]}},{"type":"Feature","properties":{"ac_name":"WEST SHILLONG","ac_no":18,"ac_category":"GEN","st_name":"MEGHALAYA"},"geometry":{"type":"Polygon","coordinates":[[[91.8653,25.5999],[91.8424,25.5903],[91.8523,25.5636],[91.8809,25.5919],[91.8653,25.5999]]]}},{"type":"Feature","properties":{"ac_name":"MYLLIEM","ac_no":20,"ac_category":"ST","st_name":"MEGHALAYA"},"geometry":{"type":"Polygon","coordinates":[[[91.8424,25.5903],[91.8309,25.5843],[91.8291,25.6011],[91.7978,25.5909],[91.7959,25.5688],[91.7951,25.5558],[91.8225,25.5549],[91.8281,25.541],[91.8143,25.5169],[91.8077,25.5217],[91.7922,25.5214],[91.787,25.4658],[91.7812,25.4558],[91.8482,25.4617],[91.8692,25.4708],[91.872,25.4793],[91.8462,25.4826],[91.8345,25.4918],[91.8388,25.5227],[91.8553,25.5539],[91.8523,25.5636],[91.8424,25.5903]]]}},{"type":"Feature","properties":{"ac_name":"SOUTH SHILLONG","ac_no":19,"ac_category":"GEN","st_name":"MEGHALAYA"},"geometry":{"type":"Polygon","coordinates":[[[91.8809,25.5919],[91.8523,25.5636],[91.8553,25.5539],[91.8688,25.553],[91.8896,25.5765],[91.8988,25.5783],[91.9155,25.5714],[91.8949,25.5954],[91.8868,25.5889],[91.8809,25.5919]]]}},{"type":"Feature","properties":{"ac_name":"NONGTHYMMAI","ac_no":21,"ac_category":"ST","st_name":"MEGHALAYA"},"geometry":{"type":"Polygon","coordinates":[[[91.8896,25.5765],[91.8688,25.553],[91.882,25.5528],[91.9011,25.5317],[91.9188,25.5511],[91.9351,25.5574],[91.9466,25.5721],[91.9288,25.5848],[91.9155,25.5714],[91.8988,25.5783],[91.8896,25.5765]]]}},{"type":"Feature","properties":{"ac_name":"JOWAI","ac_no":2,"ac_category":"ST","st_name":"MEGHALAYA"},"geometry":{"type":"Polygon","coordinates":[[[92.1945,25.5587],[92.1775,25.5525],[92.1644,25.5379],[92.1535,25.5081],[92.1292,25.5014],[92.0987,25.5029],[92.0956,25.4884],[92.107,25.4812],[92.109,25.471],[92.0947,25.4522],[92.1021,25.4451],[92.1422,25.4443],[92.1743,25.4523],[92.1978,25.4467],[92.2353,25.4473],[92.2799,25.4335],[92.3113,25.4404],[92.3062,25.4727],[92.2796,25.5317],[92.2054,25.5292],[92.1945,25.5587]]]}},{"type":"Feature","properties":{"ac_name":"MAWPHLANG","ac_no":24,"ac_category":"ST","st_name":"MEGHALAYA"},"geometry":{"type":"Polygon","coordinates":[[[91.6482,25.5508],[91.6338,25.549],[91.6227,25.5382],[91.6271,25.4936],[91.6144,25.4708],[91.6105,25.4533],[91.6118,25.4205],[91.619,25.4088],[91.634,25.3985],[91.6706,25.3941],[91.6612,25.3763],[91.6785,25.3787],[91.6841,25.3961],[91.7031,25.4172],[91.7627,25.4419],[91.7812,25.4558],[91.787,25.4658],[91.7922,25.5214],[91.8077,25.5217],[91.8143,25.5169],[91.8281,25.541],[91.8225,25.5549],[91.7951,25.5558],[91.7959,25.5688],[91.786,25.5675],[91.7855,25.5489],[91.7791,25.5464],[91.774,25.5342],[91.7737,25.5145],[91.7489,25.5212],[91.7446,25.5001],[91.7185,25.4785],[91.698,25.4736],[91.6827,25.4945],[91.6534,25.4959],[91.6585,25.5281],[91.6537,25.552],[91.6482,25.5508]]]}},{"type":"Feature","properties":{"ac_name":"NONGKREM","ac_no":22,"ac_category":"ST","st_name":"MEGHALAYA"},"geometry":{"type":"Polygon","coordinates":[[[91.8688,25.553],[91.8553,25.5539],[91.8388,25.5227],[91.8345,25.4918],[91.8462,25.4826],[91.872,25.4793],[91.8692,25.4708],[91.8861,25.4797],[91.8936,25.479],[91.9072,25.4841],[91.9258,25.4848],[91.9429,25.4784],[91.9695,25.4845],[91.9511,25.5231],[91.9198,25.5137],[91.9336,25.5212],[91.9507,25.5457],[91.9351,25.5574],[91.9188,25.5511],[91.9011,25.5317],[91.882,25.5528],[91.8688,25.553]]]}},{"type":"Feature","properties":{"ac_name":"MAWKYNREW","ac_no":29,"ac_category":"ST","st_name":"MEGHALAYA"},"geometry":{"type":"Polygon","coordinates":[[[91.9507,25.5457],[91.9336,25.5212],[91.9198,25.5137],[91.9511,25.5231],[91.9695,25.4845],[91.9429,25.4784],[91.9258,25.4848],[91.9072,25.4841],[91.8936,25.479],[91.8889,25.4726],[91.8938,25.4305],[91.8997,25.4023],[91.8986,25.3801],[91.9091,25.3638],[91.9234,25.3585],[91.9291,25.3458],[91.9388,25.3429],[91.9396,25.3358],[91.9491,25.3343],[91.9548,25.325],[92.0035,25.2991],[92.0133,25.3018],[92.0187,25.3096],[92.0507,25.3215],[92.0545,25.3138],[92.0672,25.3187],[92.0853,25.3106],[92.0943,25.3159],[92.0931,25.3107],[92.1009,25.3056],[92.1128,25.3071],[92.1194,25.3315],[92.1112,25.3355],[92.1134,25.3447],[92.1068,25.3541],[92.1116,25.3797],[92.1015,25.399],[92.1132,25.4102],[92.1021,25.4451],[92.0947,25.4522],[92.109,25.471],[92.107,25.4812],[92.0956,25.4884],[92.0987,25.5029],[92.1004,25.5173],[92.0644,25.5389],[92.0227,25.5283],[91.9965,25.5285],[91.9834,25.5346],[91.9645,25.5339],[91.9507,25.5457]]]}},{"type":"Feature","properties":{"ac_name":"NORTH TURA","ac_no":50,"ac_category":"ST","st_name":"MEGHALAYA"},"geometry":{"type":"Polygon","coordinates":[[[90.0935,25.5974],[90.0949,25.5833],[90.1098,25.5685],[90.1089,25.5486],[90.0998,25.5282],[90.1189,25.5293],[90.13,25.5199],[90.1459,25.532],[90.1571,25.5103],[90.1693,25.5038],[90.1747,25.4922],[90.1996,25.4968],[90.2163,25.493],[90.2242,25.5256],[90.2406,25.5336],[90.2379,25.512],[90.2473,25.508],[90.2616,25.509],[90.2597,25.49],[90.3042,25.4853],[90.3211,25.4772],[90.3473,25.5132],[90.3372,25.524],[90.3241,25.5256],[90.3134,25.5408],[90.2859,25.5496],[90.281,25.5833],[90.2619,25.5934],[90.2491,25.6152],[90.2367,25.6194],[90.2326,25.6055],[90.2171,25.5908],[90.1849,25.618],[90.1694,25.6124],[90.1587,25.6018],[90.1485,25.6094],[90.1336,25.6084],[90.121,25.6143],[90.1139,25.6288],[90.0957,25.6335],[90.0905,25.6282],[90.0967,25.6179],[90.0935,25.5974]]]}},{"type":"Feature","properties":{"ac_name":"MAWSYNRAM","ac_no":25,"ac_category":"ST","st_name":"MEGHALAYA"},"geometry":{"type":"Polygon","coordinates":[[[91.6227,25.5382],[91.6149,25.5417],[91.5816,25.5207],[91.5416,25.5112],[91.5411,25.4986],[91.5466,25.4929],[91.5561,25.4529],[91.5559,25.4289],[91.5464,25.4194],[91.5391,25.3739],[91.5243,25.349],[91.525,25.3444],[91.5497,25.3303],[91.5524,25.3047],[91.5478,25.287],[91.5436,25.2795],[91.5325,25.2765],[91.4958,25.2834],[91.4889,25.279],[91.4844,25.265],[91.4788,25.2635],[91.4674,25.2713],[91.4621,25.2686],[91.4382,25.273],[91.4227,25.262],[91.4026,25.2637],[91.3854,25.2396],[91.3754,25.2438],[91.365,25.2347],[91.3543,25.2342],[91.363,25.2053],[91.3797,25.1768],[91.3881,25.1703],[91.4039,25.1661],[91.4139,25.1725],[91.4393,25.1522],[91.4668,25.1495],[91.4709,25.1361],[91.4931,25.1347],[91.5078,25.1451],[91.5475,25.149],[91.5796,25.1702],[91.6029,25.1737],[91.6082,25.1723],[91.6015,25.1666],[91.6009,25.147],[91.605,25.1431],[91.6186,25.1466],[91.624,25.1436],[91.6281,25.1308],[91.6347,25.126],[91.642,25.1243],[91.6506,25.1309],[91.6608,25.1294],[91.6429,25.1472],[91.633,25.1483],[91.6316,25.1548],[91.6219,25.162],[91.6186,25.1775],[91.6193,25.2152],[91.6415,25.2424],[91.6463,25.3313],[91.6559,25.3545],[91.6612,25.3763],[91.6706,25.3941],[91.634,25.3985],[91.619,25.4088],[91.6118,25.4205],[91.6105,25.4533],[91.6144,25.4708],[91.6271,25.4936],[91.6227,25.5382]]]}},{"type":"Feature","properties":{"ac_name":"SUTNGA-SAIPUNG","ac_no":5,"ac_category":"ST","st_name":"MEGHALAYA"},"geometry":{"type":"Polygon","coordinates":[[[92.4554,25.4576],[92.4497,25.4273],[92.4128,25.3651],[92.4161,25.3103],[92.4105,25.3],[92.3892,25.2892],[92.3774,25.2676],[92.41,25.2373],[92.3787,25.2359],[92.3458,25.2423],[92.3392,25.27],[92.3355,25.27],[92.2846,25.2397],[92.2129,25.2362],[92.2077,25.2318],[92.2306,25.2194],[92.2365,25.1931],[92.2258,25.1843],[92.2279,25.1758],[92.2203,25.171],[92.2189,25.1571],[92.2035,25.162],[92.2121,25.1517],[92.1918,25.1347],[92.1996,25.1254],[92.2247,25.1185],[92.2092,25.1117],[92.2293,25.0972],[92.2972,25.0721],[92.3084,25.0719],[92.3334,25.0825],[92.3409,25.0781],[92.3448,25.0506],[92.3648,25.0495],[92.4016,25.0336],[92.4152,25.0345],[92.4222,25.0301],[92.4353,25.0322],[92.4439,25.0405],[92.4542,25.0335],[92.4606,25.0356],[92.462,25.0457],[92.4572,25.0531],[92.472,25.0692],[92.4817,25.1065],[92.5238,25.1042],[92.5393,25.0988],[92.5229,25.1261],[92.5212,25.139],[92.5541,25.1271],[92.5601,25.1304],[92.5889,25.1285],[92.595,25.1221],[92.6079,25.1228],[92.6202,25.1146],[92.6288,25.1264],[92.6281,25.1379],[92.6386,25.1476],[92.6552,25.1541],[92.6629,25.1763],[92.6679,25.1739],[92.6766,25.1825],[92.6932,25.1791],[92.7023,25.1882],[92.7372,25.2003],[92.7428,25.2067],[92.7765,25.1997],[92.7862,25.2095],[92.7953,25.2099],[92.8029,25.2166],[92.7825,25.2301],[92.772,25.23],[92.7621,25.2464],[92.7656,25.2516],[92.7748,25.2519],[92.7777,25.258],[92.7686,25.2681],[92.7875,25.2741],[92.7926,25.2827],[92.7813,25.3051],[92.7869,25.3141],[92.7818,25.3331],[92.7702,25.3382],[92.761,25.3336],[92.7502,25.3438],[92.7461,25.3585],[92.7322,25.3691],[92.7374,25.3797],[92.7222,25.3785],[92.718,25.3727],[92.7092,25.3851],[92.6971,25.3875],[92.6921,25.3984],[92.6734,25.4141],[92.6673,25.4149],[92.6611,25.4069],[92.6513,25.421],[92.6541,25.4333],[92.6391,25.4178],[92.6359,25.4271],[92.6257,25.4349],[92.6278,25.4224],[92.6184,25.4231],[92.606,25.4136],[92.6044,25.4479],[92.5975,25.4505],[92.5989,25.4674],[92.5921,25.4704],[92.584,25.4655],[92.5805,25.472],[92.5724,25.4657],[92.5728,25.4523],[92.5586,25.4524],[92.5428,25.4453],[92.5326,25.4586],[92.5128,25.4534],[92.4842,25.4539],[92.463,25.4526],[92.4554,25.4576]]]}},{"type":"Feature","properties":{"ac_name":"WILLIAM NAGAR","ac_no":43,"ac_category":"ST","st_name":"MEGHALAYA"},"geometry":{"type":"Polygon","coordinates":[[[90.7428,25.5426],[90.7046,25.5666],[90.684,25.5685],[90.6292,25.5598],[90.5929,25.5474],[90.5787,25.5487],[90.5759,25.536],[90.5562,25.5411],[90.5133,25.5644],[90.4488,25.589],[90.3849,25.5967],[90.3834,25.5663],[90.3911,25.5569],[90.3878,25.5383],[90.3743,25.5307],[90.3756,25.5236],[90.3609,25.5175],[90.3563,25.521],[90.3473,25.5132],[90.3211,25.4772],[90.316,25.4708],[90.3194,25.4644],[90.3324,25.4569],[90.3493,25.461],[90.3872,25.4561],[90.4041,25.4605],[90.4099,25.4546],[90.4172,25.4596],[90.442,25.4607],[90.4969,25.4443],[90.5189,25.4334],[90.5518,25.4337],[90.5799,25.4215],[90.605,25.425],[90.6187,25.4218],[90.6445,25.4161],[90.6589,25.4524],[90.6791,25.4817],[90.7428,25.5426]]]}},{"type":"Feature","properties":{"ac_name":"RANGSAKONA","ac_no":52,"ac_category":"ST","st_name":"MEGHALAYA"},"geometry":{"type":"Polygon","coordinates":[[[90.0283,25.6052],[90.0122,25.5991],[90.003,25.5848],[89.9831,25.5912],[89.9746,25.5752],[89.9844,25.5735],[89.986,25.5626],[90.0006,25.5527],[89.9992,25.5417],[90.0044,25.5367],[89.9916,25.5227],[89.9943,25.5094],[90.019,25.4908],[90.0323,25.4869],[90.0671,25.4916],[90.0892,25.4658],[90.1747,25.4922],[90.1693,25.5038],[90.1571,25.5103],[90.1459,25.532],[90.13,25.5199],[90.1189,25.5293],[90.0998,25.5282],[90.1089,25.5486],[90.1098,25.5685],[90.0949,25.5833],[90.0935,25.5974],[90.0713,25.5939],[90.0283,25.6052]]]}},{"type":"Feature","properties":{"ac_name":"KHLIEHRIAT","ac_no":6,"ac_category":"ST","st_name":"MEGHALAYA"},"geometry":{"type":"Polygon","coordinates":[[[92.3113,25.4404],[92.2799,25.4335],[92.2648,25.4262],[92.2561,25.4146],[92.2611,25.4056],[92.2508,25.4018],[92.2514,25.3897],[92.2317,25.3717],[92.2177,25.3711],[92.2116,25.3652],[92.2003,25.368],[92.1911,25.3598],[92.1742,25.3547],[92.1699,25.3391],[92.1779,25.3303],[92.1809,25.3156],[92.1927,25.3077],[92.1861,25.3016],[92.1962,25.3],[92.1989,25.2956],[92.1974,25.2609],[92.2024,25.2493],[92.1983,25.2387],[92.2077,25.2318],[92.2129,25.2362],[92.2846,25.2397],[92.3355,25.27],[92.3392,25.27],[92.3458,25.2423],[92.3787,25.2359],[92.41,25.2373],[92.3774,25.2676],[92.3892,25.2892],[92.4105,25.3],[92.4161,25.3103],[92.4128,25.3651],[92.4497,25.4273],[92.4554,25.4576],[92.4344,25.4542],[92.4253,25.444],[92.4157,25.4447],[92.404,25.4385],[92.3916,25.4426],[92.3829,25.4365],[92.3719,25.4401],[92.3591,25.4345],[92.3113,25.4404]]]}},{"type":"Feature","properties":{"ac_name":"RONGARA-SIJU","ac_no":58,"ac_category":"ST","st_name":"MEGHALAYA"},"geometry":{"type":"Polygon","coordinates":[[[90.7632,25.5534],[90.7428,25.5426],[90.6791,25.4817],[90.6589,25.4524],[90.6445,25.4161],[90.6187,25.4218],[90.613,25.4033],[90.602,25.3961],[90.6019,25.3901],[90.6199,25.3508],[90.6172,25.3346],[90.6171,25.2664],[90.6481,25.2653],[90.6989,25.256],[90.6961,25.2483],[90.6741,25.2453],[90.6745,25.2218],[90.6628,25.2224],[90.652,25.2333],[90.6444,25.2328],[90.6389,25.2211],[90.6369,25.1783],[90.6498,25.1815],[90.6551,25.1932],[90.6749,25.1675],[90.6799,25.17],[90.6935,25.1598],[90.7207,25.1648],[90.7373,25.1537],[90.7414,25.1652],[90.7605,25.1652],[90.7801,25.1838],[90.7901,25.1824],[90.8195,25.1635],[90.8548,25.1597],[90.8694,25.1597],[90.8868,25.1665],[90.9085,25.1621],[90.9696,25.1726],[90.9685,25.2012],[90.9592,25.2039],[90.9497,25.2148],[90.9528,25.2282],[90.9594,25.2347],[90.9536,25.2556],[90.9415,25.2622],[90.9296,25.2796],[90.9158,25.2771],[90.9144,25.2858],[90.9018,25.2973],[90.8704,25.2902],[90.8604,25.2936],[90.8533,25.2954],[90.8466,25.3062],[90.8388,25.3071],[90.8377,25.3365],[90.8411,25.3458],[90.8451,25.3461],[90.8383,25.3552],[90.8262,25.3542],[90.8161,25.3585],[90.8146,25.3659],[90.8078,25.3684],[90.7763,25.3636],[90.7749,25.3673],[90.7637,25.3675],[90.7644,25.3731],[90.757,25.3788],[90.7476,25.38],[90.747,25.3892],[90.7623,25.3975],[90.7638,25.4169],[90.7554,25.43],[90.7616,25.4449],[90.7515,25.4511],[90.76,25.4585],[90.7735,25.4515],[90.7728,25.4563],[90.7898,25.4675],[90.7735,25.4689],[90.7746,25.4767],[90.7834,25.4776],[90.7897,25.4858],[90.7843,25.494],[90.7902,25.5067],[90.7805,25.514],[90.7852,25.517],[90.7785,25.5232],[90.7794,25.5331],[90.7662,25.5438],[90.7632,25.5534]]]}},{"type":"Feature","properties":{"ac_name":"SOHRA","ac_no":28,"ac_category":"ST","st_name":"MEGHALAYA"},"geometry":{"type":"Polygon","coordinates":[[[91.8936,25.479],[91.8861,25.4797],[91.8692,25.4708],[91.8482,25.4617],[91.7812,25.4558],[91.7627,25.4419],[91.7031,25.4172],[91.6841,25.3961],[91.6785,25.3787],[91.6612,25.3763],[91.6559,25.3545],[91.6798,25.3384],[91.7103,25.3327],[91.7225,25.337],[91.7481,25.3632],[91.7488,25.3395],[91.7419,25.3175],[91.7463,25.3033],[91.7816,25.2998],[91.8113,25.3426],[91.8206,25.4035],[91.8938,25.4305],[91.8889,25.4726],[91.8936,25.479]]]}},{"type":"Feature","properties":{"ac_name":"MAWKYRWAT","ac_no":36,"ac_category":"ST","st_name":"MEGHALAYA"},"geometry":{"type":"Polygon","coordinates":[[[91.5466,25.4929],[91.4768,25.4783],[91.4121,25.481],[91.375,25.4743],[91.3568,25.4624],[91.3292,25.4571],[91.2912,25.4396],[91.2633,25.4243],[91.2199,25.379],[91.2374,25.3749],[91.2954,25.3367],[91.3319,25.351],[91.3889,25.3571],[91.4138,25.3548],[91.4521,25.3372],[91.4302,25.3166],[91.3977,25.3116],[91.4299,25.2759],[91.4382,25.273],[91.4621,25.2686],[91.4674,25.2713],[91.4788,25.2635],[91.4844,25.265],[91.4889,25.279],[91.4958,25.2834],[91.5325,25.2765],[91.5436,25.2795],[91.5478,25.287],[91.5524,25.3047],[91.5497,25.3303],[91.525,25.3444],[91.5243,25.349],[91.5391,25.3739],[91.5464,25.4194],[91.5559,25.4289],[91.5561,25.4529],[91.5466,25.4929]]]}},{"type":"Feature","properties":{"ac_name":"AMLAREM","ac_no":7,"ac_category":"ST","st_name":"MEGHALAYA"},"geometry":{"type":"Polygon","coordinates":[[[92.1021,25.4451],[92.1132,25.4102],[92.1015,25.399],[92.1116,25.3797],[92.1068,25.3541],[92.1134,25.3447],[92.1112,25.3355],[92.1194,25.3315],[92.1128,25.3071],[92.1009,25.3056],[92.0931,25.3107],[92.0943,25.3159],[92.0853,25.3106],[92.0672,25.3187],[92.0545,25.3138],[92.0507,25.3215],[92.0187,25.3096],[92.0133,25.3018],[92.0035,25.2991],[91.9857,25.2769],[91.9811,25.2601],[91.9969,25.2233],[92.0074,25.2086],[92.0211,25.202],[92.0161,25.1877],[92.0301,25.1832],[92.0465,25.1823],[92.0621,25.1879],[92.0814,25.1839],[92.1224,25.1659],[92.1345,25.1568],[92.1355,25.1433],[92.1759,25.1233],[92.1897,25.1223],[92.1842,25.1332],[92.1918,25.1347],[92.2121,25.1517],[92.2035,25.162],[92.2189,25.1571],[92.2203,25.171],[92.2279,25.1758],[92.2258,25.1843],[92.2365,25.1931],[92.2306,25.2194],[92.2077,25.2318],[92.1983,25.2387],[92.2024,25.2493],[92.1974,25.2609],[92.1989,25.2956],[92.1962,25.3],[92.1861,25.3016],[92.1927,25.3077],[92.1809,25.3156],[92.1779,25.3303],[92.1699,25.3391],[92.1742,25.3547],[92.1911,25.3598],[92.2003,25.368],[92.2116,25.3652],[92.2177,25.3711],[92.2317,25.3717],[92.2514,25.3897],[92.2508,25.4018],[92.2611,25.4056],[92.2561,25.4146],[92.2648,25.4262],[92.2799,25.4335],[92.2353,25.4473],[92.1978,25.4467],[92.1743,25.4523],[92.1422,25.4443],[92.1021,25.4451]]]}},{"type":"Feature","properties":{"ac_name":"AMPATHI","ac_no":53,"ac_category":"ST","st_name":"MEGHALAYA"},"geometry":{"type":"Polygon","coordinates":[[[89.8729,25.5074],[89.8766,25.492],[89.8702,25.4844],[89.883,25.4739],[89.9101,25.4729],[89.9199,25.459],[89.9238,25.4113],[89.9478,25.4216],[89.9487,25.4357],[89.9545,25.4433],[89.9646,25.4374],[89.9828,25.4439],[90.0119,25.4343],[90.031,25.4365],[90.0548,25.4276],[90.0903,25.4409],[90.0892,25.4658],[90.0671,25.4916],[90.0323,25.4869],[90.019,25.4908],[89.9943,25.5094],[89.9916,25.5227],[90.0044,25.5367],[89.9992,25.5417],[90.0006,25.5527],[89.986,25.5626],[89.9844,25.5735],[89.9746,25.5752],[89.9596,25.5746],[89.9374,25.5647],[89.8991,25.561],[89.8815,25.5529],[89.875,25.5452],[89.8782,25.5377],[89.8673,25.5274],[89.8717,25.5189],[89.8778,25.5202],[89.8845,25.5156],[89.8863,25.5079],[89.8729,25.5074]]]}},{"type":"Feature","properties":{"ac_name":"SOUTHTURA","ac_no":51,"ac_category":"ST","st_name":"MEGHALAYA"},"geometry":{"type":"Polygon","coordinates":[[[90.2163,25.493],[90.2597,25.49],[90.2616,25.509],[90.2473,25.508],[90.2379,25.512],[90.2406,25.5336],[90.2242,25.5256],[90.2163,25.493]]]}},{"type":"Feature","properties":{"ac_name":"PYNURSLA","ac_no":27,"ac_category":"ST","st_name":"MEGHALAYA"},"geometry":{"type":"Polygon","coordinates":[[[91.8113,25.3426],[91.7904,25.2439],[91.7963,25.2427],[91.8024,25.2195],[91.8206,25.2238],[91.8258,25.1866],[91.8218,25.1742],[91.8411,25.1787],[91.8716,25.1751],[91.9133,25.1828],[91.9471,25.1833],[91.9832,25.1716],[91.9956,25.1846],[92.0161,25.1877],[92.0211,25.202],[92.0074,25.2086],[91.9969,25.2233],[91.9811,25.2601],[91.9857,25.2769],[92.0035,25.2991],[91.9548,25.325],[91.9491,25.3343],[91.9396,25.3358],[91.9388,25.3429],[91.9291,25.3458],[91.9234,25.3585],[91.9091,25.3638],[91.8986,25.3801],[91.8997,25.4023],[91.8938,25.4305],[91.8206,25.4035],[91.8113,25.3426]]]}},{"type":"Feature","properties":{"ac_name":"RANIKOR","ac_no":35,"ac_category":"ST","st_name":"MEGHALAYA"},"geometry":{"type":"Polygon","coordinates":[[[91.2912,25.4396],[91.2508,25.4398],[91.2419,25.4341],[91.1826,25.4242],[91.1759,25.3494],[91.1801,25.3434],[91.142,25.3212],[91.1347,25.3196],[91.1052,25.3291],[91.0107,25.2987],[90.9577,25.298],[90.8838,25.3062],[90.8604,25.2936],[90.8704,25.2902],[90.9018,25.2973],[90.9144,25.2858],[90.9158,25.2771],[90.9296,25.2796],[90.9415,25.2622],[90.9536,25.2556],[90.9594,25.2347],[90.9528,25.2282],[90.9497,25.2148],[90.9592,25.2039],[90.9685,25.2012],[90.9696,25.1726],[91.0638,25.1922],[91.0815,25.2019],[91.1347,25.193],[91.1932,25.1998],[91.2521,25.1975],[91.2646,25.2068],[91.2857,25.1973],[91.2955,25.1853],[91.3209,25.185],[91.3277,25.1774],[91.3453,25.1725],[91.3625,25.1761],[91.3763,25.1672],[91.3881,25.1703],[91.3797,25.1768],[91.363,25.2053],[91.3543,25.2342],[91.365,25.2347],[91.3754,25.2438],[91.3854,25.2396],[91.4026,25.2637],[91.4227,25.262],[91.4382,25.273],[91.4299,25.2759],[91.3977,25.3116],[91.4302,25.3166],[91.4521,25.3372],[91.4138,25.3548],[91.3889,25.3571],[91.3319,25.351],[91.2954,25.3367],[91.2374,25.3749],[91.2199,25.379],[91.2633,25.4243],[91.2912,25.4396]]]}},{"type":"Feature","properties":{"ac_name":"GAMBEGRE","ac_no":56,"ac_category":"ST","st_name":"MEGHALAYA"},"geometry":{"type":"Polygon","coordinates":[[[90.2163,25.493],[90.1996,25.4968],[90.1747,25.4922],[90.0892,25.4658],[90.0903,25.4409],[90.0843,25.4147],[90.0698,25.4057],[90.031,25.3985],[90.006,25.3779],[90.0044,25.3679],[90.0156,25.338],[90.0376,25.3345],[90.055,25.3474],[90.0539,25.3218],[90.0594,25.3055],[90.0875,25.2797],[90.0988,25.2746],[90.1243,25.2718],[90.1371,25.2748],[90.1426,25.2897],[90.1525,25.2951],[90.1618,25.3226],[90.1796,25.3248],[90.202,25.3442],[90.237,25.3314],[90.2392,25.3185],[90.2558,25.3079],[90.2614,25.3212],[90.3086,25.3653],[90.3136,25.3844],[90.3036,25.4185],[90.3194,25.4644],[90.316,25.4708],[90.3211,25.4772],[90.3042,25.4853],[90.2597,25.49],[90.2163,25.493]]]}},{"type":"Feature","properties":{"ac_name":"CHOKPOT","ac_no":59,"ac_category":"ST","st_name":"MEGHALAYA"},"geometry":{"type":"Polygon","coordinates":[[[90.3194,25.4644],[90.3036,25.4185],[90.3136,25.3844],[90.3086,25.3653],[90.2614,25.3212],[90.2558,25.3079],[90.2557,25.2774],[90.245,25.251],[90.4148,25.2544],[90.4152,25.29],[90.4375,25.2869],[90.4461,25.2777],[90.4611,25.2789],[90.4751,25.2648],[90.4871,25.2637],[90.5027,25.2525],[90.5142,25.2753],[90.5412,25.2689],[90.5467,25.2713],[90.567,25.2956],[90.5765,25.2974],[90.5836,25.306],[90.6064,25.3161],[90.6172,25.3346],[90.6199,25.3508],[90.6019,25.3901],[90.602,25.3961],[90.613,25.4033],[90.6187,25.4218],[90.605,25.425],[90.5799,25.4215],[90.5518,25.4337],[90.5189,25.4334],[90.4969,25.4443],[90.442,25.4607],[90.4172,25.4596],[90.4099,25.4546],[90.4041,25.4605],[90.3872,25.4561],[90.3493,25.461],[90.3324,25.4569],[90.3194,25.4644]]]}},{"type":"Feature","properties":{"ac_name":"MAHENDRAGANJ","ac_no":54,"ac_category":"ST","st_name":"MEGHALAYA"},"geometry":{"type":"Polygon","coordinates":[[[89.8702,25.4844],[89.8607,25.4763],[89.8533,25.4772],[89.853,25.4633],[89.8342,25.4349],[89.8261,25.4038],[89.8158,25.3886],[89.814,25.3699],[89.8266,25.3337],[89.8401,25.3185],[89.8349,25.296],[89.8694,25.2872],[89.8839,25.291],[89.8716,25.2985],[89.87,25.3086],[89.8842,25.3304],[89.8959,25.3377],[89.8854,25.3529],[89.8667,25.3566],[89.8679,25.3696],[89.8743,25.3777],[89.8714,25.3862],[89.8833,25.3996],[89.9092,25.3925],[89.9238,25.4113],[89.9199,25.459],[89.9101,25.4729],[89.883,25.4739],[89.8702,25.4844]]]}},{"type":"Feature","properties":{"ac_name":"SHELLA","ac_no":26,"ac_category":"ST","st_name":"MEGHALAYA"},"geometry":{"type":"Polygon","coordinates":[[[91.6559,25.3545],[91.6463,25.3313],[91.6415,25.2424],[91.6193,25.2152],[91.6186,25.1775],[91.6219,25.162],[91.6316,25.1548],[91.633,25.1483],[91.6429,25.1472],[91.6608,25.1294],[91.6718,25.1372],[91.6941,25.1404],[91.7048,25.1568],[91.7161,25.1574],[91.744,25.1486],[91.7466,25.1717],[91.7719,25.1671],[91.8218,25.1742],[91.8258,25.1866],[91.8206,25.2238],[91.8024,25.2195],[91.7963,25.2427],[91.7904,25.2439],[91.8113,25.3426],[91.7816,25.2998],[91.7463,25.3033],[91.7419,25.3175],[91.7488,25.3395],[91.7481,25.3632],[91.7225,25.337],[91.7103,25.3327],[91.6798,25.3384],[91.6559,25.3545]]]}},{"type":"Feature","properties":{"ac_name":"SALMANPARA","ac_no":55,"ac_category":"ST","st_name":"MEGHALAYA"},"geometry":{"type":"Polygon","coordinates":[[[89.9238,25.4113],[89.9092,25.3925],[89.8833,25.3996],[89.8714,25.3862],[89.8743,25.3777],[89.8679,25.3696],[89.8667,25.3566],[89.8854,25.3529],[89.8959,25.3377],[89.8842,25.3304],[89.87,25.3086],[89.8716,25.2985],[89.8839,25.291],[89.9081,25.3078],[89.9293,25.2996],[89.9722,25.301],[89.9809,25.2853],[90.0599,25.256],[90.0779,25.2403],[90.0874,25.2389],[90.0988,25.2746],[90.0875,25.2797],[90.0594,25.3055],[90.0539,25.3218],[90.055,25.3474],[90.0376,25.3345],[90.0156,25.338],[90.0044,25.3679],[90.006,25.3779],[90.031,25.3985],[90.0698,25.4057],[90.0843,25.4147],[90.0903,25.4409],[90.0548,25.4276],[90.031,25.4365],[90.0119,25.4343],[89.9828,25.4439],[89.9646,25.4374],[89.9545,25.4433],[89.9487,25.4357],[89.9478,25.4216],[89.9238,25.4113]]]}},{"type":"Feature","properties":{"ac_name":"BAGHMARA","ac_no":60,"ac_category":"ST","st_name":"MEGHALAYA"},"geometry":{"type":"Polygon","coordinates":[[[90.6172,25.3346],[90.6064,25.3161],[90.5836,25.306],[90.5765,25.2974],[90.567,25.2956],[90.5467,25.2713],[90.5412,25.2689],[90.5142,25.2753],[90.5027,25.2525],[90.4871,25.2637],[90.4751,25.2648],[90.4611,25.2789],[90.4461,25.2777],[90.4375,25.2869],[90.4152,25.29],[90.4148,25.2544],[90.245,25.251],[90.2292,25.2352],[90.2279,25.2183],[90.2336,25.2038],[90.2548,25.1962],[90.2754,25.198],[90.3049,25.187],[90.3317,25.1917],[90.3521,25.1742],[90.3774,25.1618],[90.4446,25.1438],[90.4528,25.1507],[90.5104,25.1685],[90.6302,25.1725],[90.6363,25.1732],[90.6369,25.1783],[90.6389,25.2211],[90.6444,25.2328],[90.652,25.2333],[90.6628,25.2224],[90.6745,25.2218],[90.6741,25.2453],[90.6961,25.2483],[90.6989,25.256],[90.6481,25.2653],[90.6171,25.2664],[90.6172,25.3346]]]}},{"type":"Feature","properties":{"ac_name":"DALU","ac_no":57,"ac_category":"ST","st_name":"MEGHALAYA"},"geometry":{"type":"Polygon","coordinates":[[[90.0988,25.2746],[90.0874,25.2389],[90.1007,25.2348],[90.1124,25.2242],[90.1597,25.2235],[90.1878,25.2163],[90.2145,25.2032],[90.2336,25.2038],[90.2279,25.2183],[90.2292,25.2352],[90.245,25.251],[90.2557,25.2774],[90.2558,25.3079],[90.2392,25.3185],[90.237,25.3314],[90.202,25.3442],[90.1796,25.3248],[90.1618,25.3226],[90.1525,25.2951],[90.1426,25.2897],[90.1371,25.2748],[90.1243,25.2718],[90.0988,25.2746]]]}},{"type":"Feature","properties":{"ac_name":"MOWKAIAW","ac_no":4,"ac_category":"ST","st_name":"MEGHALAYA"},"geometry":{"type":"Polygon","coordinates":[[[92.4855,25.6466],[92.4735,25.6431],[92.469,25.6513],[92.4645,25.6511],[92.4649,25.6431],[92.4587,25.6378],[92.4458,25.6484],[92.4412,25.6386],[92.4198,25.6291],[92.4176,25.617],[92.4174,25.5787],[92.4437,25.5177],[92.4756,25.4885],[92.4842,25.4539],[92.5128,25.4534],[92.5326,25.4586],[92.5428,25.4453],[92.5586,25.4524],[92.5728,25.4523],[92.5724,25.4657],[92.5654,25.464],[92.5639,25.4724],[92.573,25.4902],[92.6197,25.5159],[92.6429,25.5349],[92.6456,25.5563],[92.6569,25.5611],[92.6572,25.5699],[92.6615,25.5725],[92.6492,25.5924],[92.636,25.5835],[92.6223,25.5655],[92.602,25.5624],[92.5993,25.5547],[92.5838,25.5507],[92.5821,25.558],[92.5722,25.5576],[92.5569,25.5709],[92.5538,25.6149],[92.5382,25.6116],[92.5144,25.6185],[92.5051,25.6161],[92.5061,25.6208],[92.4976,25.6238],[92.4855,25.6466]]]}}]}