{"type":"FeatureCollection","features":[{"type":"Feature","properties":{"ac_name":"CHINGAI","ac_no":45,"ac_category":"GEN","st_name":"MANIPUR"},"geometry":{"type":"Polygon","coordinates":[[[94.49174,25.60868],[94.48768,25.59779],[94.46741,25.58198],[94.46051,25.54963],[94.44649,25.53919],[94.43817,25.51458],[94.43011,25.51047],[94.43184,25.50065],[94.42408,25.49733],[94.4238,25.48214],[94.41375,25.47569],[94.42152,25.46625],[94.41102,25.46281],[94.40202,25.44703],[94.40341,25.44007],[94.39475,25.429],[94.39357,25.42486],[94.38359,25.42354],[94.38958,25.42],[94.37941,25.40782],[94.38485,25.40179],[94.37686,25.39255],[94.37566,25.36871],[94.38055,25.36425],[94.37471,25.36157],[94.37752,25.35718],[94.3607,25.34543],[94.34718,25.31513],[94.33556,25.31015],[94.32604,25.28081],[94.28923,25.24189],[94.25273,25.22888],[94.24589,25.20368],[94.22124,25.19403],[94.21774,25.17988],[94.22804,25.13057],[94.22532,25.06105],[94.23591,25.04197],[94.24661,25.04092],[94.2674,25.05612],[94.2741,25.10174],[94.27897,25.10939],[94.30829,25.12199],[94.35264,25.12775],[94.38547,25.16716],[94.40031,25.17479],[94.41996,25.18106],[94.5085,25.19061],[94.58748,25.20445],[94.57564,25.21386],[94.58578,25.2291],[94.58948,25.25536],[94.58512,25.26675],[94.60739,25.31614],[94.61867,25.32979],[94.62235,25.34582],[94.63437,25.35569],[94.63474,25.39519],[94.64909,25.40583],[94.66033,25.40569],[94.67314,25.42443],[94.67124,25.44227],[94.67545,25.44561],[94.6557,25.44974],[94.64587,25.45693],[94.61597,25.46247],[94.57677,25.49573],[94.55389,25.50262],[94.55317,25.51032],[94.56005,25.52144],[94.55449,25.52852],[94.56194,25.53372],[94.55777,25.53932],[94.56661,25.54801],[94.55588,25.55469],[94.56429,25.56345],[94.5584,25.56582],[94.56097,25.57313],[94.55088,25.57951],[94.55835,25.58309],[94.55963,25.59784],[94.5662,25.59715],[94.56521,25.60316],[94.5719,25.60534],[94.57577,25.62342],[94.58408,25.63485],[94.59329,25.63492],[94.58913,25.64027],[94.57342,25.63745],[94.5721,25.64123],[94.57592,25.64373],[94.57339,25.64775],[94.58007,25.65054],[94.57602,25.6553],[94.58364,25.6563],[94.57837,25.66168],[94.58644,25.66384],[94.58042,25.66876],[94.595,25.68493],[94.58475,25.6846],[94.57176,25.6918],[94.56373,25.68731],[94.56039,25.68251],[94.56327,25.67469],[94.55626,25.67234],[94.54347,25.64998],[94.52925,25.64254],[94.52928,25.63734],[94.52073,25.63883],[94.51817,25.62966],[94.50686,25.62388],[94.50517,25.61356],[94.49541,25.61307],[94.49174,25.60868]]]}},{"type":"Feature","properties":{"ac_name":"MAO","ac_no":48,"ac_category":"GEN","st_name":"MANIPUR"},"geometry":{"type":"Polygon","coordinates":[[[94.42676,25.58711],[94.41906,25.56995],[94.42246,25.55333],[94.41665,25.53659],[94.3853,25.5325],[94.36582,25.51743],[94.32898,25.50457],[94.3009,25.50635],[94.28463,25.50792],[94.27404,25.49947],[94.2552,25.50064],[94.24976,25.49431],[94.21861,25.49159],[94.20842,25.49604],[94.20859,25.50381],[94.20053,25.51508],[94.1866,25.52402],[94.19206,25.54859],[94.1781,25.55061],[94.16491,25.54128],[94.15625,25.55112],[94.14384,25.52265],[94.1357,25.51841],[94.15417,25.47183],[94.15955,25.42686],[94.17493,25.41454],[94.18183,25.41396],[94.23406,25.43437],[94.37553,25.4363],[94.39475,25.429],[94.40341,25.44007],[94.40202,25.44703],[94.41102,25.46281],[94.42152,25.46625],[94.41375,25.47569],[94.4238,25.48214],[94.42408,25.49733],[94.43184,25.50065],[94.43011,25.51047],[94.43817,25.51458],[94.44649,25.53919],[94.46051,25.54963],[94.46741,25.58198],[94.48768,25.59779],[94.49174,25.60868],[94.4871,25.61423],[94.46876,25.61411],[94.44519,25.59679],[94.44519,25.59159],[94.42676,25.58711]]]}},{"type":"Feature","properties":{"ac_name":"TADUBI","ac_no":49,"ac_category":"GEN","st_name":"MANIPUR"},"geometry":{"type":"Polygon","coordinates":[[[93.9967,25.56831],[93.97493,25.56467],[93.97043,25.55584],[93.96019,25.55069],[93.93491,25.55904],[93.8887,25.56513],[93.86103,25.55324],[93.83441,25.5606],[93.8276,25.55273],[93.82104,25.55317],[93.81651,25.5403],[93.80477,25.54153],[93.77991,25.53367],[93.77034,25.53369],[93.76493,25.53848],[93.76635,25.51817],[93.76145,25.51687],[93.75796,25.50769],[93.76128,25.49581],[93.76648,25.49353],[93.78749,25.50321],[93.80024,25.49684],[93.80998,25.48382],[93.80501,25.46344],[93.81028,25.45943],[93.82052,25.46054],[93.83331,25.42745],[93.89255,25.42281],[93.91755,25.40241],[93.92271,25.38915],[93.90821,25.38192],[93.89937,25.35672],[93.88728,25.34893],[93.88759,25.33506],[93.91918,25.32778],[93.93692,25.31025],[93.94339,25.29523],[93.95547,25.28655],[93.95243,25.28114],[93.92623,25.27069],[93.91659,25.26826],[93.90775,25.27373],[93.90228,25.27203],[93.86813,25.24876],[93.85363,25.22875],[93.82149,25.21908],[93.80202,25.18466],[93.79701,25.18352],[93.79734,25.17634],[93.79094,25.17361],[93.79238,25.16738],[93.78394,25.16686],[93.77751,25.153],[93.77284,25.15412],[93.77989,25.12616],[93.78606,25.12107],[93.83348,25.14949],[93.88365,25.16201],[93.91188,25.15758],[93.96112,25.11479],[93.9632,25.13926],[93.97314,25.15553],[93.97524,25.18064],[93.99,25.19563],[94.02495,25.25393],[94.04701,25.27993],[94.05048,25.29224],[94.04345,25.32372],[94.04519,25.33802],[94.05447,25.34897],[94.06669,25.35955],[94.10131,25.3735],[94.13785,25.38008],[94.157,25.39006],[94.18183,25.41396],[94.17493,25.41454],[94.15955,25.42686],[94.15417,25.47183],[94.1357,25.51841],[94.10731,25.52421],[94.08465,25.53039],[94.09417,25.53728],[94.0891,25.54768],[94.0788,25.55843],[94.06729,25.55231],[94.04809,25.57559],[94.04295,25.57671],[94.03818,25.57005],[94.03677,25.57901],[94.02984,25.57734],[94.02173,25.59024],[94.01284,25.5926],[94.00234,25.58641],[94.01072,25.5736],[94.00727,25.56723],[93.9967,25.56831]]]}},{"type":"Feature","properties":{"ac_name":"KARONG","ac_no":47,"ac_category":"GEN","st_name":"MANIPUR"},"geometry":{"type":"Polygon","coordinates":[[[94.39357,25.42486],[94.39475,25.429],[94.37553,25.4363],[94.23406,25.43437],[94.18183,25.41396],[94.157,25.39006],[94.13785,25.38008],[94.10131,25.3735],[94.06669,25.35955],[94.05447,25.34897],[94.04519,25.33802],[94.04345,25.32372],[94.05048,25.29224],[94.04701,25.27993],[94.02495,25.25393],[93.99,25.19563],[93.97524,25.18064],[93.98747,25.17501],[94.03713,25.16767],[94.06233,25.13811],[94.09099,25.13724],[94.08441,25.08441],[94.11875,25.06913],[94.11742,25.07693],[94.12337,25.08295],[94.11829,25.09065],[94.12953,25.10129],[94.12952,25.1121],[94.13503,25.11291],[94.13221,25.11877],[94.14169,25.12128],[94.14906,25.13441],[94.15316,25.13054],[94.15717,25.13774],[94.15724,25.13287],[94.16478,25.13341],[94.16067,25.14263],[94.16596,25.14173],[94.16793,25.15112],[94.17268,25.15052],[94.17291,25.16056],[94.1811,25.15917],[94.17649,25.16435],[94.17957,25.16781],[94.18906,25.16964],[94.19205,25.1766],[94.21391,25.17518],[94.21258,25.17852],[94.21774,25.17988],[94.22124,25.19403],[94.24589,25.20368],[94.25273,25.22888],[94.28923,25.24189],[94.32604,25.28081],[94.33556,25.31015],[94.34718,25.31513],[94.3607,25.34543],[94.37752,25.35718],[94.37471,25.36157],[94.38055,25.36425],[94.37566,25.36871],[94.37686,25.39255],[94.38485,25.40179],[94.37941,25.40782],[94.38958,25.42],[94.38359,25.42354],[94.39357,25.42486]]]}},{"type":"Feature","properties":{"ac_name":"TAMEI","ac_no":52,"ac_category":"GEN","st_name":"MANIPUR"},"geometry":{"type":"Polygon","coordinates":[[[93.80501,25.46344],[93.78648,25.4461],[93.7833,25.43308],[93.77268,25.42616],[93.77408,25.41965],[93.76797,25.42],[93.7422,25.40404],[93.73475,25.3943],[93.73589,25.38516],[93.71582,25.37184],[93.70935,25.35718],[93.69681,25.35614],[93.6887,25.3601],[93.68159,25.32893],[93.6647,25.32574],[93.66763,25.31084],[93.65817,25.30396],[93.66052,25.29881],[93.64489,25.27602],[93.64598,25.26636],[93.63722,25.26366],[93.60518,25.19901],[93.59839,25.20178],[93.59542,25.1986],[93.59333,25.20352],[93.58791,25.20109],[93.59139,25.20806],[93.58413,25.22178],[93.56912,25.22627],[93.55598,25.24597],[93.5438,25.2479],[93.53513,25.24364],[93.52101,25.24738],[93.50154,25.24215],[93.50624,25.26933],[93.48977,25.27483],[93.48119,25.26994],[93.47196,25.27133],[93.47056,25.30507],[93.4557,25.29355],[93.42761,25.28316],[93.41603,25.26422],[93.40145,25.26081],[93.38099,25.23993],[93.38442,25.23134],[93.38138,25.22276],[93.36872,25.21107],[93.36548,25.1982],[93.35656,25.19215],[93.34574,25.16985],[93.34738,25.13891],[93.34215,25.13737],[93.34525,25.1302],[93.34156,25.12686],[93.34508,25.12359],[93.34121,25.12338],[93.33225,25.09347],[93.31466,25.08458],[93.30258,25.06422],[93.30547,25.05743],[93.30067,25.05594],[93.29965,25.04616],[93.29867,25.05188],[93.2838,25.04523],[93.27973,25.05106],[93.26378,25.04927],[93.26577,25.04399],[93.25917,25.04119],[93.25985,25.03529],[93.25132,25.02749],[93.25385,25.02075],[93.24399,25.01826],[93.24754,25.01488],[93.24175,25.00402],[93.24427,24.9982],[93.24899,24.99907],[93.24962,25.00466],[93.25972,25.00179],[93.25283,24.99886],[93.25697,24.99583],[93.25022,24.97364],[93.25373,24.96896],[93.25807,24.97114],[93.26178,24.96308],[93.25848,24.95015],[93.24766,24.95293],[93.24506,24.95061],[93.25121,24.94073],[93.23656,24.93726],[93.23706,24.93254],[93.24483,24.93537],[93.2382,24.9257],[93.2458,24.92525],[93.24864,24.91481],[93.24404,24.91079],[93.23494,24.91165],[93.2405,24.90375],[93.23832,24.89883],[93.22951,24.89825],[93.23201,24.89234],[93.22589,24.89224],[93.23257,24.88502],[93.22129,24.88145],[93.22623,24.87289],[93.22027,24.87378],[93.22152,24.86995],[93.20412,24.85132],[93.19461,24.85388],[93.20113,24.84864],[93.20135,24.84196],[93.19227,24.84327],[93.19574,24.83699],[93.20045,24.83831],[93.19135,24.8345],[93.19581,24.83093],[93.18998,24.8191],[93.19691,24.81166],[93.19102,24.80411],[93.17988,24.80333],[93.17548,24.7939],[93.18113,24.78566],[93.19007,24.78469],[93.18953,24.77908],[93.20378,24.77312],[93.21173,24.76122],[93.22529,24.7642],[93.23227,24.75265],[93.2223,24.72222],[93.21788,24.72407],[93.21566,24.71733],[93.20496,24.71392],[93.20138,24.70151],[93.21647,24.70748],[93.22475,24.70224],[93.22672,24.68576],[93.23369,24.67792],[93.25649,24.66956],[93.28223,24.66991],[93.296,24.68585],[93.29535,24.70586],[93.3105,24.7],[93.33353,24.71963],[93.33605,24.72485],[93.31742,24.7338],[93.33413,24.75037],[93.32486,24.76389],[93.33206,24.76595],[93.33914,24.75901],[93.35553,24.76387],[93.35107,24.77602],[93.35992,24.79241],[93.35545,24.79739],[93.35963,24.81603],[93.37012,24.82053],[93.38921,24.8152],[93.39553,24.80917],[93.39829,24.8243],[93.4043,24.82555],[93.39789,24.84575],[93.40059,24.85727],[93.3918,24.87683],[93.39889,24.89286],[93.39407,24.90808],[93.39635,24.92521],[93.43142,24.97742],[93.44854,25.02289],[93.47392,25.06133],[93.4773,25.08014],[93.47116,25.09925],[93.47378,25.11097],[93.49456,25.10185],[93.52129,25.11027],[93.54574,25.09896],[93.55965,25.09858],[93.64022,25.05139],[93.6488,25.06509],[93.64872,25.07327],[93.65889,25.07505],[93.66947,25.06413],[93.71976,25.03679],[93.73174,25.02126],[93.72444,25.00201],[93.68125,24.96428],[93.69672,24.92848],[93.70654,24.91935],[93.72122,24.93435],[93.743,24.94231],[93.76875,24.9589],[93.79932,24.95827],[93.8004,24.9734],[93.78884,24.99081],[93.79336,24.99501],[93.78748,25.00705],[93.79201,25.0175],[93.81665,25.02033],[93.80907,25.04203],[93.8081,25.05044],[93.79836,25.05895],[93.79443,25.06964],[93.79697,25.1009],[93.78606,25.12107],[93.77989,25.12616],[93.77284,25.15412],[93.77751,25.153],[93.78394,25.16686],[93.79238,25.16738],[93.79094,25.17361],[93.79734,25.17634],[93.79701,25.18352],[93.80202,25.18466],[93.82149,25.21908],[93.85363,25.22875],[93.86813,25.24876],[93.90228,25.27203],[93.90775,25.27373],[93.91659,25.26826],[93.92623,25.27069],[93.95243,25.28114],[93.95547,25.28655],[93.94339,25.29523],[93.93692,25.31025],[93.91918,25.32778],[93.88759,25.33506],[93.88728,25.34893],[93.89937,25.35672],[93.90821,25.38192],[93.92271,25.38915],[93.91755,25.40241],[93.89255,25.42281],[93.83331,25.42745],[93.82052,25.46054],[93.81028,25.45943],[93.80501,25.46344]]]}},{"type":"Feature","properties":{"ac_name":"UKHRUL","ac_no":44,"ac_category":"GEN","st_name":"MANIPUR"},"geometry":{"type":"Polygon","coordinates":[[[94.21774,25.17988],[94.21258,25.17852],[94.21391,25.17518],[94.19205,25.1766],[94.18906,25.16964],[94.17957,25.16781],[94.17649,25.16435],[94.1811,25.15917],[94.17291,25.16056],[94.17268,25.15052],[94.16793,25.15112],[94.16596,25.14173],[94.16067,25.14263],[94.16478,25.13341],[94.15724,25.13287],[94.15717,25.13774],[94.15316,25.13054],[94.14906,25.13441],[94.14169,25.12128],[94.13221,25.11877],[94.13503,25.11291],[94.12952,25.1121],[94.12953,25.10129],[94.11829,25.09065],[94.12337,25.08295],[94.11742,25.07693],[94.11875,25.06913],[94.12441,25.0533],[94.14101,25.05014],[94.14859,25.03516],[94.1503,25.02076],[94.14518,24.99871],[94.1536,24.96461],[94.17188,24.93709],[94.1659,24.93606],[94.17003,24.92077],[94.16455,24.91434],[94.15883,24.91567],[94.15554,24.90561],[94.15622,24.88407],[94.1474,24.88329],[94.14567,24.87226],[94.14122,24.87365],[94.13938,24.87019],[94.14273,24.87137],[94.14293,24.86608],[94.16863,24.88344],[94.18778,24.91784],[94.19525,24.92259],[94.26232,24.93616],[94.2915,24.96328],[94.33714,24.97156],[94.37864,24.97029],[94.42747,25.00455],[94.65283,25.0606],[94.65999,25.05451],[94.64593,25.03779],[94.64831,25.02577],[94.67154,25.02071],[94.73463,25.01969],[94.74408,25.03701],[94.74451,25.0474],[94.74411,25.06224],[94.73769,25.06559],[94.74467,25.08013],[94.73632,25.11013],[94.74091,25.12119],[94.73693,25.13456],[94.71464,25.13806],[94.69008,25.15756],[94.68014,25.14891],[94.66419,25.16276],[94.64825,25.16835],[94.64006,25.1661],[94.62003,25.18682],[94.60598,25.18137],[94.59206,25.19228],[94.58748,25.20445],[94.5085,25.19061],[94.41996,25.18106],[94.40031,25.17479],[94.38547,25.16716],[94.35264,25.12775],[94.30829,25.12199],[94.27897,25.10939],[94.2741,25.10174],[94.2674,25.05612],[94.24661,25.04092],[94.23591,25.04197],[94.22532,25.06105],[94.22804,25.13057],[94.21774,25.17988]]]}},{"type":"Feature","properties":{"ac_name":"SAIKUL","ac_no":46,"ac_category":"GEN","st_name":"MANIPUR"},"geometry":{"type":"Polygon","coordinates":[[[93.98747,25.17501],[93.97524,25.18064],[93.97314,25.15553],[93.9632,25.13926],[93.96112,25.11479],[93.93812,25.04492],[93.93423,25.02418],[93.90098,24.98141],[93.90121,24.97753],[93.91485,24.97084],[93.90622,24.96917],[93.90924,24.96614],[93.90185,24.95756],[93.89026,24.95388],[93.88913,24.94366],[93.88645,24.93922],[93.89041,24.93761],[93.89621,24.93906],[93.89567,24.93172],[93.90364,24.93349],[93.90826,24.92913],[93.9095,24.94518],[93.91971,24.96266],[93.92462,24.96845],[93.9263,24.96428],[93.93179,24.96756],[93.92112,24.94183],[93.92542,24.92532],[93.92112,24.92058],[93.92089,24.91466],[93.91729,24.91371],[93.9186,24.91062],[93.91193,24.89996],[93.92693,24.905],[93.93271,24.90489],[93.93108,24.89625],[93.93556,24.8929],[93.95049,24.89791],[93.95278,24.90172],[93.94664,24.90437],[93.96122,24.91427],[93.94795,24.91267],[93.94737,24.91872],[93.96292,24.92333],[93.96122,24.92958],[93.94886,24.93217],[93.95234,24.93865],[93.96865,24.93787],[93.96907,24.93233],[93.97438,24.9312],[93.97716,24.91484],[93.98535,24.92456],[93.98168,24.92863],[93.98389,24.94252],[93.97843,24.94257],[93.98152,24.94746],[93.96486,24.94851],[93.96449,24.95337],[93.95397,24.9512],[93.95949,24.95783],[93.95371,24.96524],[93.96401,24.95976],[93.96978,24.96465],[93.97245,24.95567],[93.99147,24.95375],[93.99274,24.96109],[93.98171,24.96924],[93.99511,24.96823],[94.0028,24.96018],[94.00093,24.9508],[94.01327,24.95642],[94.02111,24.99797],[94.00782,24.9981],[93.99761,24.99142],[93.9971,24.99448],[94.00316,25.004],[94.01897,25.00487],[94.02132,25.01688],[94.01397,25.03008],[94.01578,25.03869],[94.01601,25.04457],[94.03081,25.05106],[94.02371,25.03329],[94.03052,25.02726],[94.02735,25.02315],[94.03229,25.02142],[94.03084,25.01761],[94.04216,25.01986],[94.0469,25.01372],[94.03922,25.01557],[94.03585,25.01003],[94.03183,25.01272],[94.02755,25.0095],[94.02953,24.99906],[94.04023,25.00478],[94.04483,25.00139],[94.04266,24.99678],[94.04931,24.99521],[94.0325,24.99293],[94.03065,24.98625],[94.04675,24.98256],[94.04449,24.97815],[94.03608,24.98059],[94.03003,24.97619],[94.02762,24.96438],[94.04139,24.96976],[94.03958,24.95283],[94.05514,24.95106],[94.04449,24.94312],[94.05348,24.93613],[94.05878,24.93716],[94.05452,24.91197],[94.05322,24.88569],[94.06212,24.87587],[94.08471,24.88715],[94.08962,24.90206],[94.09594,24.9008],[94.10699,24.91457],[94.11958,24.9204],[94.12097,24.93594],[94.1308,24.9326],[94.13471,24.92089],[94.11414,24.88408],[94.10635,24.87893],[94.10114,24.85313],[94.08586,24.84969],[94.09043,24.82998],[94.09908,24.82373],[94.08575,24.81977],[94.08116,24.80517],[94.07195,24.7764],[94.07002,24.75003],[94.06538,24.75019],[94.06826,24.74533],[94.06511,24.74135],[94.05508,24.74051],[94.05988,24.7354],[94.05386,24.7332],[94.06003,24.72859],[94.05581,24.72738],[94.06654,24.72081],[94.0846,24.73089],[94.09689,24.72617],[94.09858,24.73227],[94.10915,24.72951],[94.11382,24.74356],[94.11063,24.79008],[94.12074,24.80001],[94.12167,24.82345],[94.12604,24.82666],[94.13027,24.82086],[94.12652,24.71764],[94.12617,24.7067],[94.13059,24.70474],[94.12309,24.70208],[94.12582,24.69749],[94.1155,24.69968],[94.10866,24.69593],[94.12376,24.69156],[94.12042,24.68044],[94.11341,24.67985],[94.11511,24.67705],[94.10613,24.67922],[94.09507,24.66824],[94.10719,24.6559],[94.11079,24.64441],[94.10548,24.64954],[94.10781,24.63661],[94.12408,24.62237],[94.12341,24.6178],[94.14743,24.61667],[94.16194,24.62253],[94.16795,24.63298],[94.20028,24.62548],[94.19707,24.65498],[94.18231,24.67146],[94.18763,24.68469],[94.18762,24.71581],[94.17203,24.73386],[94.17916,24.74855],[94.17532,24.75495],[94.17899,24.76757],[94.1659,24.77866],[94.16061,24.79488],[94.13309,24.80259],[94.14061,24.81623],[94.13918,24.82727],[94.1466,24.82941],[94.14302,24.83803],[94.14674,24.84068],[94.13612,24.85718],[94.14259,24.85871],[94.14293,24.86608],[94.14273,24.87137],[94.13938,24.87019],[94.14122,24.87365],[94.14567,24.87226],[94.1474,24.88329],[94.15622,24.88407],[94.15554,24.90561],[94.15883,24.91567],[94.16455,24.91434],[94.17003,24.92077],[94.1659,24.93606],[94.17188,24.93709],[94.1536,24.96461],[94.14518,24.99871],[94.1503,25.02076],[94.14859,25.03516],[94.14101,25.05014],[94.12441,25.0533],[94.11875,25.06913],[94.08441,25.08441],[94.09099,25.13724],[94.06233,25.13811],[94.03713,25.16767],[93.98747,25.17501]]]}},{"type":"Feature","properties":{"ac_name":"KANGPOKPI","ac_no":50,"ac_category":"GEN","st_name":"MANIPUR"},"geometry":{"type":"Polygon","coordinates":[[[93.96112,25.11479],[93.91188,25.15758],[93.88365,25.16201],[93.83348,25.14949],[93.78606,25.12107],[93.79697,25.1009],[93.79443,25.06964],[93.79836,25.05895],[93.8081,25.05044],[93.80907,25.04203],[93.87366,25.04703],[93.93812,25.04492],[93.96112,25.11479]]]}},{"type":"Feature","properties":{"ac_name":"PHUNGYAR","ac_no":43,"ac_category":"GEN","st_name":"MANIPUR"},"geometry":{"type":"Polygon","coordinates":[[[94.73463,25.01969],[94.67154,25.02071],[94.64831,25.02577],[94.64593,25.03779],[94.65999,25.05451],[94.65283,25.0606],[94.42747,25.00455],[94.37864,24.97029],[94.33714,24.97156],[94.2915,24.96328],[94.26232,24.93616],[94.19525,24.92259],[94.18778,24.91784],[94.16863,24.88344],[94.14293,24.86608],[94.14259,24.85871],[94.13612,24.85718],[94.14674,24.84068],[94.14302,24.83803],[94.1466,24.82941],[94.13918,24.82727],[94.14061,24.81623],[94.13309,24.80259],[94.16061,24.79488],[94.1659,24.77866],[94.17899,24.76757],[94.17532,24.75495],[94.17916,24.74855],[94.17203,24.73386],[94.18762,24.71581],[94.18763,24.68469],[94.18231,24.67146],[94.19707,24.65498],[94.20028,24.62548],[94.21185,24.61593],[94.22268,24.61908],[94.23563,24.61459],[94.24665,24.61708],[94.26374,24.59599],[94.28195,24.6006],[94.29271,24.58439],[94.30135,24.58178],[94.30432,24.5852],[94.31076,24.57081],[94.32464,24.57023],[94.3265,24.56499],[94.33338,24.56511],[94.32762,24.55295],[94.33101,24.5489],[94.3483,24.5528],[94.35456,24.54614],[94.35906,24.5508],[94.37288,24.54779],[94.36146,24.51863],[94.36894,24.51678],[94.36568,24.51189],[94.37661,24.51269],[94.37512,24.508],[94.3705,24.5086],[94.37914,24.50183],[94.37468,24.49388],[94.38026,24.49614],[94.39143,24.48415],[94.39551,24.4883],[94.39578,24.48363],[94.39928,24.48758],[94.40569,24.48211],[94.42598,24.48168],[94.45453,24.566],[94.47303,24.57141],[94.49659,24.59036],[94.52564,24.62632],[94.54493,24.66882],[94.54715,24.68669],[94.54084,24.70139],[94.54523,24.71046],[94.55671,24.71222],[94.56482,24.70544],[94.57076,24.70591],[94.56764,24.71588],[94.57588,24.72518],[94.58001,24.72386],[94.57871,24.70869],[94.58517,24.70474],[94.60501,24.71587],[94.61186,24.73783],[94.62894,24.75816],[94.6179,24.78057],[94.62961,24.80535],[94.63155,24.83904],[94.64987,24.85517],[94.64833,24.86084],[94.65693,24.87131],[94.67324,24.87541],[94.68764,24.88934],[94.70179,24.92958],[94.71101,24.92942],[94.71355,24.93616],[94.6966,24.96018],[94.69635,24.96826],[94.70712,24.98712],[94.72697,25.00004],[94.72747,25.01002],[94.73463,25.01969]]]}},{"type":"Feature","properties":{"ac_name":"TAMENGLONG","ac_no":53,"ac_category":"GEN","st_name":"MANIPUR"},"geometry":{"type":"Polygon","coordinates":[[[93.79932,24.95827],[93.76875,24.9589],[93.743,24.94231],[93.72122,24.93435],[93.70654,24.91935],[93.69672,24.92848],[93.68125,24.96428],[93.72444,25.00201],[93.73174,25.02126],[93.71976,25.03679],[93.66947,25.06413],[93.65889,25.07505],[93.64872,25.07327],[93.6488,25.06509],[93.64022,25.05139],[93.55965,25.09858],[93.54574,25.09896],[93.52129,25.11027],[93.49456,25.10185],[93.47378,25.11097],[93.47116,25.09925],[93.4773,25.08014],[93.47392,25.06133],[93.44854,25.02289],[93.43142,24.97742],[93.39635,24.92521],[93.39407,24.90808],[93.39889,24.89286],[93.3918,24.87683],[93.40059,24.85727],[93.39789,24.84575],[93.4043,24.82555],[93.4443,24.8455],[93.47637,24.84079],[93.49771,24.84517],[93.50239,24.84291],[93.49789,24.83798],[93.50212,24.82401],[93.55066,24.80778],[93.5616,24.81669],[93.56937,24.81514],[93.56586,24.81904],[93.57123,24.82218],[93.56632,24.82264],[93.57245,24.83299],[93.60652,24.82805],[93.61757,24.80433],[93.62725,24.7944],[93.65989,24.79416],[93.66719,24.78891],[93.70046,24.78674],[93.71599,24.79167],[93.75011,24.78407],[93.74897,24.79129],[93.75632,24.78824],[93.75787,24.79197],[93.74967,24.79599],[93.75104,24.80566],[93.74352,24.80777],[93.74955,24.81406],[93.74978,24.82586],[93.76251,24.83151],[93.76201,24.84372],[93.77213,24.84931],[93.76928,24.8689],[93.76136,24.88238],[93.7668,24.89574],[93.75855,24.90746],[93.77723,24.92455],[93.78161,24.94571],[93.79932,24.95827]]]}},{"type":"Feature","properties":{"ac_name":"KHUNDRAKPAM","ac_no":1,"ac_category":"GEN","st_name":"MANIPUR"},"geometry":{"type":"Polygon","coordinates":[[[94.01578,25.03869],[94.01397,25.03008],[94.02132,25.01688],[94.01897,25.00487],[94.00316,25.004],[93.9971,24.99448],[93.99761,24.99142],[94.00782,24.9981],[94.02111,24.99797],[94.01327,24.95642],[94.00093,24.9508],[94.0028,24.96018],[93.99511,24.96823],[93.98171,24.96924],[93.99274,24.96109],[93.99147,24.95375],[93.97245,24.95567],[93.96978,24.96465],[93.96401,24.95976],[93.95371,24.96524],[93.95949,24.95783],[93.95397,24.9512],[93.96449,24.95337],[93.96486,24.94851],[93.98152,24.94746],[93.97843,24.94257],[93.98389,24.94252],[93.98168,24.92863],[93.98535,24.92456],[93.97716,24.91484],[93.97438,24.9312],[93.96907,24.93233],[93.96865,24.93787],[93.95234,24.93865],[93.94886,24.93217],[93.96122,24.92958],[93.96292,24.92333],[93.94737,24.91872],[93.94795,24.91267],[93.96122,24.91427],[93.94664,24.90437],[93.96147,24.90115],[93.96885,24.89271],[93.98722,24.89189],[93.99209,24.8827],[94.00615,24.87348],[94.00677,24.86009],[94.0367,24.88282],[94.04399,24.88866],[94.04757,24.90395],[94.05452,24.91197],[94.05878,24.93716],[94.05348,24.93613],[94.04449,24.94312],[94.05514,24.95106],[94.03958,24.95283],[94.04139,24.96976],[94.02762,24.96438],[94.03003,24.97619],[94.03608,24.98059],[94.04449,24.97815],[94.04675,24.98256],[94.03065,24.98625],[94.0325,24.99293],[94.04931,24.99521],[94.04266,24.99678],[94.04483,25.00139],[94.04023,25.00478],[94.02953,24.99906],[94.02755,25.0095],[94.03183,25.01272],[94.03585,25.01003],[94.03922,25.01557],[94.0469,25.01372],[94.04216,25.01986],[94.03084,25.01761],[94.03229,25.02142],[94.02735,25.02315],[94.03052,25.02726],[94.02371,25.03329],[94.03081,25.05106],[94.01601,25.04457],[94.01578,25.03869]]]}},{"type":"Feature","properties":{"ac_name":"SAITU","ac_no":51,"ac_category":"GEN","st_name":"MANIPUR"},"geometry":{"type":"Polygon","coordinates":[[[93.93812,25.04492],[93.87366,25.04703],[93.80907,25.04203],[93.81665,25.02033],[93.79201,25.0175],[93.78748,25.00705],[93.79336,24.99501],[93.78884,24.99081],[93.8004,24.9734],[93.79932,24.95827],[93.78161,24.94571],[93.77723,24.92455],[93.75855,24.90746],[93.7668,24.89574],[93.76136,24.88238],[93.76928,24.8689],[93.77213,24.84931],[93.76201,24.84372],[93.76251,24.83151],[93.74978,24.82586],[93.74955,24.81406],[93.74352,24.80777],[93.75104,24.80566],[93.74967,24.79599],[93.75787,24.79197],[93.75632,24.78824],[93.74897,24.79129],[93.75011,24.78407],[93.73516,24.74825],[93.72674,24.74702],[93.72937,24.71987],[93.7389,24.70456],[93.72381,24.69188],[93.73283,24.66384],[93.71942,24.65866],[93.70796,24.64491],[93.72928,24.62417],[93.73741,24.62734],[93.73473,24.62104],[93.7413,24.62444],[93.7449,24.63557],[93.7504,24.64423],[93.74992,24.68186],[93.75422,24.68648],[93.76325,24.68451],[93.76845,24.6932],[93.77434,24.72843],[93.77139,24.73739],[93.7767,24.74077],[93.78414,24.7631],[93.78841,24.76789],[93.79231,24.76519],[93.78148,24.80466],[93.79119,24.82355],[93.80843,24.8356],[93.80773,24.8669],[93.81798,24.87424],[93.83413,24.92105],[93.84605,24.92985],[93.84328,24.9386],[93.84757,24.95479],[93.86304,24.95987],[93.87348,24.98037],[93.89579,24.97188],[93.90098,24.98141],[93.93423,25.02418],[93.93812,25.04492]]]}},{"type":"Feature","properties":{"ac_name":"SEKMAI","ac_no":16,"ac_category":"GEN","st_name":"MANIPUR"},"geometry":{"type":"Polygon","coordinates":[[[93.88913,24.94366],[93.89026,24.95388],[93.90185,24.95756],[93.90924,24.96614],[93.90622,24.96917],[93.91485,24.97084],[93.90121,24.97753],[93.90098,24.98141],[93.89579,24.97188],[93.87348,24.98037],[93.86304,24.95987],[93.84757,24.95479],[93.84328,24.9386],[93.84605,24.92985],[93.83413,24.92105],[93.81798,24.87424],[93.80773,24.8669],[93.84381,24.86014],[93.84649,24.85635],[93.86623,24.86465],[93.8792,24.8761],[93.88781,24.89369],[93.88645,24.93922],[93.88913,24.94366]]]}},{"type":"Feature","properties":{"ac_name":"HEINGANG","ac_no":2,"ac_category":"GEN","st_name":"MANIPUR"},"geometry":{"type":"Polygon","coordinates":[[[93.92677,24.89178],[93.92678,24.89177],[93.95488,24.88459],[93.96589,24.87265],[93.98191,24.87278],[93.99254,24.85822],[94.00293,24.85381],[94.00677,24.86009],[94.00615,24.87348],[93.99209,24.8827],[93.98722,24.89189],[93.96885,24.89271],[93.96147,24.90115],[93.94664,24.90437],[93.95278,24.90172],[93.95049,24.89791],[93.93556,24.8929],[93.93108,24.89625],[93.92677,24.89178]]]}},{"type":"Feature","properties":{"ac_name":"LAMLAI","ac_no":8,"ac_category":"GEN","st_name":"MANIPUR"},"geometry":{"type":"Polygon","coordinates":[[[94.05452,24.91197],[94.04757,24.90395],[94.04399,24.88866],[94.0367,24.88282],[94.03326,24.84432],[94.02464,24.83778],[94.03505,24.80648],[94.08116,24.80517],[94.08575,24.81977],[94.09908,24.82373],[94.09043,24.82998],[94.08586,24.84969],[94.10114,24.85313],[94.10635,24.87893],[94.11414,24.88408],[94.13471,24.92089],[94.1308,24.9326],[94.12097,24.93594],[94.11958,24.9204],[94.10699,24.91457],[94.09594,24.9008],[94.08962,24.90206],[94.08471,24.88715],[94.06212,24.87587],[94.05322,24.88569],[94.05452,24.91197]]]}},{"type":"Feature","properties":{"ac_name":"LAMSANG","ac_no":17,"ac_category":"GEN","st_name":"MANIPUR"},"geometry":{"type":"Polygon","coordinates":[[[93.89041,24.93761],[93.88645,24.93922],[93.88781,24.89369],[93.8792,24.8761],[93.86623,24.86465],[93.88135,24.85239],[93.89658,24.85287],[93.89802,24.86196],[93.91094,24.87536],[93.92678,24.89177],[93.92677,24.89178],[93.91851,24.89344],[93.90503,24.90417],[93.89041,24.93761]]]}},{"type":"Feature","properties":{"ac_name":"THANGMEIBAND","ac_no":9,"ac_category":"GEN","st_name":"MANIPUR"},"geometry":{"type":"Polygon","coordinates":[[[93.9609,24.8398],[93.97071,24.85063],[93.96589,24.87265],[93.95488,24.88459],[93.92678,24.89177],[93.91094,24.87536],[93.92581,24.86528],[93.94223,24.84535],[93.96036,24.83952],[93.9609,24.8398]]]}},{"type":"Feature","properties":{"ac_name":"KHURAI","ac_no":3,"ac_category":"GEN","st_name":"MANIPUR"},"geometry":{"type":"Polygon","coordinates":[[[94.0367,24.88282],[94.00677,24.86009],[94.00293,24.85381],[94.00652,24.8444],[93.99881,24.82257],[93.99902,24.80212],[94.0101,24.8069],[94.01437,24.81301],[94.01381,24.8306],[94.0164,24.83595],[94.02464,24.83778],[94.03326,24.84432],[94.0367,24.88282]]]}},{"type":"Feature","properties":{"ac_name":"WANGKHEI","ac_no":15,"ac_category":"GEN","st_name":"MANIPUR"},"geometry":{"type":"Polygon","coordinates":[[[94.00293,24.85381],[93.99254,24.85822],[93.98191,24.87278],[93.96589,24.87265],[93.97071,24.85063],[93.9609,24.8398],[93.97547,24.83531],[93.98051,24.82918],[93.98544,24.83146],[93.99881,24.82257],[94.00652,24.8444],[94.00293,24.85381]]]}},{"type":"Feature","properties":{"ac_name":"URIPOK","ac_no":10,"ac_category":"GEN","st_name":"MANIPUR"},"geometry":{"type":"Polygon","coordinates":[[[93.96036,24.83952],[93.94223,24.84535],[93.92581,24.86528],[93.91094,24.87536],[93.89802,24.86196],[93.89658,24.85287],[93.90808,24.85059],[93.91234,24.85436],[93.93096,24.84419],[93.94158,24.82938],[93.96123,24.8323],[93.96036,24.83952]]]}},{"type":"Feature","properties":{"ac_name":"PATSOI","ac_no":19,"ac_category":"GEN","st_name":"MANIPUR"},"geometry":{"type":"Polygon","coordinates":[[[93.86623,24.86465],[93.84649,24.85635],[93.84762,24.83199],[93.8424,24.80495],[93.84834,24.76715],[93.8812,24.7635],[93.89699,24.75618],[93.91101,24.74148],[93.93394,24.76972],[93.93396,24.77883],[93.94158,24.82938],[93.93096,24.84419],[93.91234,24.85436],[93.90808,24.85059],[93.89658,24.85287],[93.88135,24.85239],[93.86623,24.86465]]]}},{"type":"Feature","properties":{"ac_name":"KONTHOUJAM","ac_no":18,"ac_category":"GEN","st_name":"MANIPUR"},"geometry":{"type":"Polygon","coordinates":[[[93.84649,24.85635],[93.84381,24.86014],[93.80773,24.8669],[93.80843,24.8356],[93.79119,24.82355],[93.78148,24.80466],[93.79231,24.76519],[93.78841,24.76789],[93.78414,24.7631],[93.7767,24.74077],[93.77139,24.73739],[93.78618,24.73024],[93.80194,24.73145],[93.82051,24.72008],[93.83839,24.71993],[93.88413,24.71053],[93.87616,24.71725],[93.91101,24.74148],[93.89699,24.75618],[93.8812,24.7635],[93.84834,24.76715],[93.8424,24.80495],[93.84762,24.83199],[93.84649,24.85635]]]}},{"type":"Feature","properties":{"ac_name":"KHETRIGAO","ac_no":4,"ac_category":"GEN","st_name":"MANIPUR"},"geometry":{"type":"Polygon","coordinates":[[[94.03505,24.80648],[94.02464,24.83778],[94.0164,24.83595],[94.01381,24.8306],[94.01437,24.81301],[94.0101,24.8069],[93.99902,24.80212],[94.00991,24.7939],[94.0088,24.78879],[94.02519,24.77094],[94.03637,24.79071],[94.03505,24.80648]]]}},{"type":"Feature","properties":{"ac_name":"ANDRO","ac_no":7,"ac_category":"GEN","st_name":"MANIPUR"},"geometry":{"type":"Polygon","coordinates":[[[94.12652,24.71764],[94.13027,24.82086],[94.12604,24.82666],[94.12167,24.82345],[94.12074,24.80001],[94.11063,24.79008],[94.11382,24.74356],[94.10915,24.72951],[94.09858,24.73227],[94.09689,24.72617],[94.0846,24.73089],[94.06654,24.72081],[94.05581,24.72738],[94.05038,24.72087],[94.06098,24.71966],[94.0537,24.71535],[94.05897,24.71383],[94.05447,24.70932],[94.05912,24.70755],[94.05243,24.70382],[94.05322,24.69387],[94.05863,24.69349],[94.06304,24.70629],[94.07152,24.70441],[94.07338,24.6937],[94.07517,24.70607],[94.08474,24.70823],[94.09974,24.70458],[94.08895,24.69354],[94.10752,24.70073],[94.11851,24.70407],[94.11914,24.71874],[94.1263,24.72082],[94.12652,24.71764]]]}},{"type":"Feature","properties":{"ac_name":"YAISKUL","ac_no":14,"ac_category":"GEN","st_name":"MANIPUR"},"geometry":{"type":"Polygon","coordinates":[[[93.99881,24.82257],[93.98544,24.83146],[93.98051,24.82918],[93.97841,24.81593],[93.9817,24.80623],[93.9647,24.78638],[93.96596,24.77669],[93.97626,24.7787],[93.98589,24.77127],[94.00552,24.7809],[94.0088,24.78879],[94.00991,24.7939],[93.99902,24.80212],[93.99881,24.82257]]]}},{"type":"Feature","properties":{"ac_name":"KEISAMTHONG","ac_no":12,"ac_category":"GEN","st_name":"MANIPUR"},"geometry":{"type":"Polygon","coordinates":[[[93.96596,24.77669],[93.9647,24.78638],[93.9817,24.80623],[93.97841,24.81593],[93.97166,24.80473],[93.95736,24.79864],[93.94207,24.78108],[93.93396,24.77883],[93.93394,24.76972],[93.93255,24.75905],[93.96596,24.77669]]]}},{"type":"Feature","properties":{"ac_name":"ANDRO","ac_no":7,"ac_category":"GEN","st_name":"MANIPUR"},"geometry":{"type":"Polygon","coordinates":[[[94.08116,24.80517],[94.03505,24.80648],[94.03637,24.79071],[94.02519,24.77094],[94.02269,24.74516],[94.04662,24.73218],[94.04856,24.71318],[94.04209,24.69319],[94.04933,24.68161],[94.05067,24.67988],[94.05188,24.68062],[94.07296,24.68755],[94.07338,24.6937],[94.07152,24.70441],[94.06304,24.70629],[94.05863,24.69349],[94.05322,24.69387],[94.05243,24.70382],[94.05912,24.70755],[94.05447,24.70932],[94.05897,24.71383],[94.0537,24.71535],[94.06098,24.71966],[94.05038,24.72087],[94.05581,24.72738],[94.06003,24.72859],[94.05386,24.7332],[94.05988,24.7354],[94.05508,24.74051],[94.06511,24.74135],[94.06826,24.74533],[94.06538,24.75019],[94.07002,24.75003],[94.07195,24.7764],[94.08116,24.80517]]]}},{"type":"Feature","properties":{"ac_name":"NUNGBA","ac_no":54,"ac_category":"GEN","st_name":"MANIPUR"},"geometry":{"type":"Polygon","coordinates":[[[93.75011,24.78407],[93.71599,24.79167],[93.70046,24.78674],[93.66719,24.78891],[93.65989,24.79416],[93.62725,24.7944],[93.61757,24.80433],[93.60652,24.82805],[93.57245,24.83299],[93.56632,24.82264],[93.57123,24.82218],[93.56586,24.81904],[93.56937,24.81514],[93.5616,24.81669],[93.55066,24.80778],[93.50212,24.82401],[93.49789,24.83798],[93.50239,24.84291],[93.49771,24.84517],[93.47637,24.84079],[93.4443,24.8455],[93.4043,24.82555],[93.39829,24.8243],[93.39553,24.80917],[93.38921,24.8152],[93.37012,24.82053],[93.35963,24.81603],[93.35545,24.79739],[93.35992,24.79241],[93.35107,24.77602],[93.35553,24.76387],[93.33914,24.75901],[93.33206,24.76595],[93.32486,24.76389],[93.33413,24.75037],[93.31742,24.7338],[93.33605,24.72485],[93.33353,24.71963],[93.3105,24.7],[93.29535,24.70586],[93.296,24.68585],[93.28223,24.66991],[93.25649,24.66956],[93.23369,24.67792],[93.22672,24.68576],[93.22475,24.70224],[93.21647,24.70748],[93.20138,24.70151],[93.21621,24.69941],[93.20409,24.67466],[93.20685,24.67084],[93.21905,24.67151],[93.2171,24.66507],[93.212,24.66744],[93.20794,24.66252],[93.22192,24.63901],[93.22004,24.62876],[93.20959,24.62722],[93.21692,24.59357],[93.20952,24.58567],[93.20517,24.58901],[93.20247,24.58623],[93.20548,24.56913],[93.19052,24.57069],[93.19678,24.5637],[93.18029,24.54616],[93.1771,24.53606],[93.17158,24.51929],[93.18117,24.51463],[93.18309,24.52476],[93.19124,24.5244],[93.19471,24.51658],[93.20667,24.51285],[93.22002,24.49507],[93.23468,24.51484],[93.24421,24.51737],[93.24997,24.5126],[93.26427,24.51183],[93.26652,24.52315],[93.25932,24.52649],[93.27344,24.54368],[93.26898,24.54757],[93.28377,24.56299],[93.28151,24.56809],[93.30666,24.56543],[93.33362,24.56863],[93.34412,24.57854],[93.38262,24.56906],[93.38766,24.56776],[93.39115,24.57669],[93.39826,24.5748],[93.40608,24.56322],[93.43155,24.55658],[93.44889,24.54094],[93.46292,24.57049],[93.47078,24.57408],[93.48317,24.5681],[93.48975,24.55503],[93.50205,24.55759],[93.51184,24.56594],[93.53146,24.55669],[93.53555,24.55824],[93.53931,24.57648],[93.55749,24.5825],[93.56813,24.59272],[93.58764,24.56965],[93.59574,24.56624],[93.59548,24.56976],[93.60499,24.57075],[93.61243,24.57834],[93.62086,24.60077],[93.62798,24.60657],[93.64891,24.59257],[93.65246,24.60222],[93.662,24.60823],[93.67756,24.60678],[93.69771,24.61318],[93.71488,24.60571],[93.72276,24.61369],[93.72252,24.62097],[93.73489,24.61752],[93.73473,24.62104],[93.73741,24.62734],[93.72928,24.62417],[93.70796,24.64491],[93.71942,24.65866],[93.73283,24.66384],[93.72381,24.69188],[93.7389,24.70456],[93.72937,24.71987],[93.72674,24.74702],[93.73516,24.74825],[93.75011,24.78407]]]}},{"type":"Feature","properties":{"ac_name":"THONGJU","ac_no":5,"ac_category":"GEN","st_name":"MANIPUR"},"geometry":{"type":"Polygon","coordinates":[[[94.02519,24.77094],[94.0088,24.78879],[94.00552,24.7809],[93.98589,24.77127],[93.99678,24.75645],[93.9901,24.74887],[93.99183,24.72802],[93.99545,24.72809],[93.99856,24.73643],[94.01756,24.73433],[94.02269,24.74516],[94.02519,24.77094]]]}},{"type":"Feature","properties":{"ac_name":"SINGJAMEI","ac_no":13,"ac_category":"GEN","st_name":"MANIPUR"},"geometry":{"type":"Polygon","coordinates":[[[93.98589,24.77127],[93.97626,24.7787],[93.96596,24.77669],[93.93255,24.75905],[93.93898,24.71727],[93.94287,24.71936],[93.94909,24.74386],[93.95647,24.74049],[93.9667,24.75347],[93.9901,24.74887],[93.99678,24.75645],[93.98589,24.77127]]]}},{"type":"Feature","properties":{"ac_name":"NAORIYA PAKHANGLAK*","ac_no":21,"ac_category":"GEN","st_name":"MANIPUR"},"geometry":{"type":"Polygon","coordinates":[[[93.93394,24.76972],[93.91101,24.74148],[93.87616,24.71725],[93.88413,24.71053],[93.88863,24.70897],[93.92334,24.70632],[93.92387,24.70428],[93.9283,24.71337],[93.93898,24.71727],[93.93255,24.75905],[93.93394,24.76972]]]}},{"type":"Feature","properties":{"ac_name":"JIRIBAM","ac_no":40,"ac_category":"GEN","st_name":"MANIPUR"},"geometry":{"type":"Polygon","coordinates":[[[93.17548,24.7939],[93.17032,24.80206],[93.14915,24.78762],[93.15107,24.79489],[93.14203,24.79693],[93.14101,24.8014],[93.13469,24.80816],[93.13831,24.81031],[93.13473,24.81078],[93.13157,24.80537],[93.11863,24.80786],[93.12142,24.81927],[93.1093,24.81143],[93.11132,24.80019],[93.10482,24.79142],[93.10532,24.78134],[93.10049,24.77965],[93.10363,24.7678],[93.09817,24.75438],[93.09952,24.74347],[93.10259,24.74688],[93.10757,24.74165],[93.09677,24.73208],[93.09579,24.72442],[93.09033,24.72513],[93.09301,24.719],[93.08625,24.70963],[93.07717,24.71305],[93.07321,24.70792],[93.09016,24.6895],[93.08999,24.67697],[93.10278,24.67995],[93.10366,24.67369],[93.09587,24.66299],[93.09503,24.653],[93.08269,24.64959],[93.08652,24.62926],[93.07545,24.62564],[93.08381,24.61339],[93.07082,24.60089],[93.07988,24.59021],[93.09102,24.59238],[93.10347,24.58542],[93.10268,24.58113],[93.09235,24.58118],[93.08775,24.57249],[93.09351,24.5634],[93.10891,24.56338],[93.13382,24.55338],[93.136,24.54541],[93.14805,24.54427],[93.15162,24.53859],[93.15133,24.54187],[93.15963,24.53653],[93.1771,24.53606],[93.18029,24.54616],[93.19678,24.5637],[93.19052,24.57069],[93.20548,24.56913],[93.20247,24.58623],[93.20517,24.58901],[93.20952,24.58567],[93.21692,24.59357],[93.20959,24.62722],[93.22004,24.62876],[93.22192,24.63901],[93.20794,24.66252],[93.212,24.66744],[93.2171,24.66507],[93.21905,24.67151],[93.20685,24.67084],[93.20409,24.67466],[93.21621,24.69941],[93.20138,24.70151],[93.20496,24.71392],[93.21566,24.71733],[93.21788,24.72407],[93.2223,24.72222],[93.23227,24.75265],[93.22529,24.7642],[93.21173,24.76122],[93.20378,24.77312],[93.18953,24.77908],[93.19007,24.78469],[93.18113,24.78566],[93.17548,24.7939]]]}},{"type":"Feature","properties":{"ac_name":"LANGTHABAL","ac_no":20,"ac_category":"GEN","st_name":"MANIPUR"},"geometry":{"type":"Polygon","coordinates":[[[93.9901,24.74887],[93.9667,24.75347],[93.95647,24.74049],[93.94909,24.74386],[93.94287,24.71936],[93.94683,24.70798],[93.96517,24.7066],[93.9671,24.71242],[93.97227,24.71329],[93.97168,24.72536],[93.99183,24.72802],[93.9901,24.74887]]]}},{"type":"Feature","properties":{"ac_name":"KEIRAO","ac_no":6,"ac_category":"GEN","st_name":"MANIPUR"},"geometry":{"type":"Polygon","coordinates":[[[94.02269,24.74516],[94.01756,24.73433],[93.99856,24.73643],[93.99545,24.72809],[94.00098,24.72484],[94.00437,24.70914],[94.01198,24.70359],[94.01429,24.69573],[94.0068,24.68668],[94.01226,24.68266],[94.01638,24.66765],[94.0208,24.67068],[94.02301,24.66723],[94.02559,24.6753],[94.0325,24.66884],[94.03255,24.67303],[94.03621,24.67561],[94.03763,24.6704],[94.03913,24.6775],[94.04933,24.68161],[94.04209,24.69319],[94.04856,24.71318],[94.04662,24.73218],[94.02269,24.74516]]]}},{"type":"Feature","properties":{"ac_name":"HEIROK","ac_no":33,"ac_category":"GEN","st_name":"MANIPUR"},"geometry":{"type":"Polygon","coordinates":[[[94.10752,24.70073],[94.08895,24.69354],[94.07573,24.68382],[94.0622,24.65757],[94.06285,24.63493],[94.06862,24.62223],[94.08022,24.60082],[94.09032,24.59256],[94.11197,24.58601],[94.12016,24.60578],[94.13842,24.60164],[94.14813,24.60385],[94.14743,24.61667],[94.12341,24.6178],[94.12408,24.62237],[94.10781,24.63661],[94.10548,24.64954],[94.11079,24.64441],[94.10719,24.6559],[94.09507,24.66824],[94.10613,24.67922],[94.11511,24.67705],[94.11341,24.67985],[94.12042,24.68044],[94.12376,24.69156],[94.10866,24.69593],[94.1155,24.69968],[94.12582,24.69749],[94.12309,24.70208],[94.13059,24.70474],[94.12617,24.7067],[94.12652,24.71764],[94.1263,24.72082],[94.11914,24.71874],[94.11851,24.70407],[94.10752,24.70073]]]}},{"type":"Feature","properties":{"ac_name":"WANGOI","ac_no":22,"ac_category":"GEN","st_name":"MANIPUR"},"geometry":{"type":"Polygon","coordinates":[[[93.99223,24.72567],[93.99183,24.72802],[93.97168,24.72536],[93.97227,24.71329],[93.9671,24.71242],[93.96517,24.7066],[93.94683,24.70798],[93.94287,24.71936],[93.93898,24.71727],[93.9283,24.71337],[93.92387,24.70428],[93.92607,24.681],[93.91496,24.66477],[93.9342,24.66317],[93.93403,24.64826],[93.92639,24.65361],[93.92206,24.64796],[93.95192,24.64135],[93.95351,24.6554],[93.9411,24.67512],[93.98568,24.69316],[93.99223,24.72567]]]}},{"type":"Feature","properties":{"ac_name":"OINAM","ac_no":25,"ac_category":"GEN","st_name":"MANIPUR"},"geometry":{"type":"Polygon","coordinates":[[[93.83839,24.71993],[93.82051,24.72008],[93.80194,24.73145],[93.78618,24.73024],[93.77139,24.73739],[93.77434,24.72843],[93.76845,24.6932],[93.76325,24.68451],[93.75422,24.68648],[93.74992,24.68186],[93.7504,24.64423],[93.7449,24.63557],[93.77054,24.63263],[93.78654,24.61416],[93.80273,24.62166],[93.81427,24.63636],[93.80142,24.64398],[93.79727,24.66918],[93.81609,24.67506],[93.84318,24.6816],[93.84429,24.67763],[93.83839,24.71993]]]}},{"type":"Feature","properties":{"ac_name":"WANGKHEM","ac_no":32,"ac_category":"GEN","st_name":"MANIPUR"},"geometry":{"type":"Polygon","coordinates":[[[94.08474,24.70823],[94.07517,24.70607],[94.07338,24.6937],[94.07296,24.68755],[94.07928,24.68675],[94.08301,24.69185],[94.08895,24.69354],[94.09974,24.70458],[94.08474,24.70823]]]}},{"type":"Feature","properties":{"ac_name":"NAMBOL","ac_no":24,"ac_category":"GEN","st_name":"MANIPUR"},"geometry":{"type":"Polygon","coordinates":[[[93.88413,24.71053],[93.83839,24.71993],[93.84429,24.67763],[93.87327,24.68023],[93.88766,24.69032],[93.88863,24.70897],[93.88413,24.71053]]]}},{"type":"Feature","properties":{"ac_name":"LILONG","ac_no":30,"ac_category":"GEN","st_name":"MANIPUR"},"geometry":{"type":"Polygon","coordinates":[[[94.01198,24.70359],[94.00672,24.70265],[94.00257,24.69099],[93.99692,24.68591],[93.98568,24.69316],[93.9411,24.67512],[93.95351,24.6554],[93.95192,24.64135],[93.96396,24.64071],[93.97483,24.64254],[94.00602,24.66322],[94.01527,24.66122],[94.01638,24.66765],[94.01226,24.68266],[94.0068,24.68668],[94.01429,24.69573],[94.01198,24.70359]]]}},{"type":"Feature","properties":{"ac_name":"NAMBOL","ac_no":24,"ac_category":"GEN","st_name":"MANIPUR"},"geometry":{"type":"Polygon","coordinates":[[[93.92334,24.70632],[93.88863,24.70897],[93.88766,24.69032],[93.87327,24.68023],[93.84429,24.67763],[93.84318,24.6816],[93.81609,24.67506],[93.8414,24.65421],[93.85727,24.65126],[93.85984,24.64702],[93.88267,24.64975],[93.91496,24.66477],[93.91629,24.67232],[93.90386,24.67602],[93.90897,24.68188],[93.90428,24.68518],[93.90438,24.70016],[93.91208,24.70002],[93.91623,24.70557],[93.92387,24.70428],[93.92334,24.70632]]]}},{"type":"Feature","properties":{"ac_name":"WANGKHEM","ac_no":32,"ac_category":"GEN","st_name":"MANIPUR"},"geometry":{"type":"Polygon","coordinates":[[[94.08301,24.69185],[94.07928,24.68675],[94.07296,24.68755],[94.06081,24.6755],[94.05332,24.66193],[94.0622,24.65757],[94.07573,24.68382],[94.08895,24.69354],[94.08301,24.69185]]]}},{"type":"Feature","properties":{"ac_name":"NAMBOL","ac_no":24,"ac_category":"GEN","st_name":"MANIPUR"},"geometry":{"type":"Polygon","coordinates":[[[93.90438,24.70016],[93.90428,24.68518],[93.90897,24.68188],[93.90386,24.67602],[93.91629,24.67232],[93.91496,24.66477],[93.92607,24.681],[93.92387,24.70428],[93.91623,24.70557],[93.91208,24.70002],[93.90438,24.70016]]]}},{"type":"Feature","properties":{"ac_name":"ANDRO","ac_no":7,"ac_category":"GEN","st_name":"MANIPUR"},"geometry":{"type":"Polygon","coordinates":[[[94.07296,24.68755],[94.05188,24.68062],[94.06081,24.6755],[94.07296,24.68755]]]}},{"type":"Feature","properties":{"ac_name":"KEIRAO","ac_no":6,"ac_category":"GEN","st_name":"MANIPUR"},"geometry":{"type":"GeometryCollection","geometries":[{"type":"Polygon","coordinates":[[[94.05067,24.67988,0],[94.05188,24.68062,0],[94.06081,24.6755,0],[94.05332,24.66193,0],[94.03716,24.66683,0],[94.03255,24.67303,0],[94.03621,24.67561,0],[94.03763,24.6704,0],[94.03913,24.6775,0],[94.04933,24.68161,0],[94.05067,24.67988,0]]]},{"type":"Polygon","coordinates":[[[94.00257,24.69099,0],[93.99692,24.68591,0],[93.98568,24.69316,0],[93.99223,24.72567,0],[93.99183,24.72802,0],[93.99545,24.72809,0],[94.00098,24.72484,0],[94.00437,24.70914,0],[94.01198,24.70359,0],[94.00672,24.70265,0],[94.00257,24.69099,0]]]}]}},{"type":"Feature","properties":{"ac_name":"THOUBAL","ac_no":31,"ac_category":"GEN","st_name":"MANIPUR"},"geometry":{"type":"Polygon","coordinates":[[[94.02301,24.66723],[94.0208,24.67068],[94.01638,24.66765],[94.01527,24.66122],[94.01728,24.66079],[94.02139,24.65991],[94.02554,24.64502],[94.03326,24.64336],[94.0622,24.65757],[94.05332,24.66193],[94.03716,24.66683],[94.03255,24.67303],[94.0325,24.66884],[94.02559,24.6753],[94.02301,24.66723]]]}},{"type":"Feature","properties":{"ac_name":"KHANGABO","ac_no":35,"ac_category":"GEN","st_name":"MANIPUR"},"geometry":{"type":"Polygon","coordinates":[[[94.01728,24.66079],[94.01527,24.66122],[94.00602,24.66322],[93.97483,24.64254],[93.96396,24.64071],[93.97004,24.59295],[93.97611,24.59066],[93.98033,24.59644],[93.99319,24.59992],[94.02384,24.5963],[94.047,24.60445],[94.06862,24.62223],[94.06285,24.63493],[94.0622,24.65757],[94.03326,24.64336],[94.02554,24.64502],[94.02139,24.65991],[94.01728,24.66079]]]}},{"type":"Feature","properties":{"ac_name":"MAYANG IMPHAL","ac_no":23,"ac_category":"GEN","st_name":"MANIPUR"},"geometry":{"type":"Polygon","coordinates":[[[93.85984,24.64702],[93.85727,24.65126],[93.8414,24.65421],[93.81609,24.67506],[93.79727,24.66918],[93.80142,24.64398],[93.81427,24.63636],[93.80273,24.62166],[93.80839,24.60995],[93.81697,24.60739],[93.8457,24.62489],[93.85284,24.62109],[93.85276,24.6098],[93.86851,24.60974],[93.86847,24.59977],[93.88702,24.58119],[93.86839,24.57133],[93.86553,24.56392],[93.8733,24.55171],[93.89769,24.55635],[93.90934,24.57005],[93.91085,24.5829],[93.90455,24.59037],[93.91093,24.59307],[93.91175,24.61106],[93.90663,24.61433],[93.89861,24.60778],[93.89199,24.61216],[93.88374,24.61474],[93.8713,24.63299],[93.86106,24.63885],[93.85984,24.64702]]]}},{"type":"Feature","properties":{"ac_name":"WANGOI","ac_no":22,"ac_category":"GEN","st_name":"MANIPUR"},"geometry":{"type":"Polygon","coordinates":[[[93.92206,24.64796],[93.92639,24.65361],[93.93403,24.64826],[93.9342,24.66317],[93.91496,24.66477],[93.88267,24.64975],[93.85984,24.64702],[93.86106,24.63885],[93.8713,24.63299],[93.88374,24.61474],[93.89199,24.61216],[93.88843,24.61574],[93.89991,24.61948],[93.90072,24.63141],[93.91875,24.63966],[93.92206,24.64796]]]}},{"type":"Feature","properties":{"ac_name":"TENGNOUPAL","ac_no":42,"ac_category":"GEN","st_name":"MANIPUR"},"geometry":{"type":"Polygon","coordinates":[[[94.24665,24.61708],[94.23563,24.61459],[94.22268,24.61908],[94.21185,24.61593],[94.20028,24.62548],[94.16795,24.63298],[94.16194,24.62253],[94.14743,24.61667],[94.14813,24.60385],[94.13842,24.60164],[94.12016,24.60578],[94.11197,24.58601],[94.0942,24.55408],[94.08876,24.55251],[94.07803,24.56258],[94.0708,24.56375],[94.07004,24.56001],[94.07231,24.54141],[94.08602,24.51822],[94.06395,24.51647],[94.062,24.52198],[94.05463,24.513],[94.05056,24.52283],[94.0555,24.53085],[94.05081,24.5289],[94.03752,24.53847],[94.03303,24.50256],[94.04761,24.47043],[94.03506,24.45548],[94.01888,24.44447],[94.00192,24.44157],[93.99998,24.46064],[93.98229,24.46835],[93.98082,24.48272],[93.97318,24.4876],[93.96791,24.48519],[93.96786,24.4715],[93.97492,24.4475],[93.96309,24.41885],[94.02645,24.37753],[94.09831,24.40073],[94.108,24.39887],[94.14917,24.37226],[94.1543,24.35816],[94.14383,24.32108],[94.14283,24.28854],[94.1811,24.23957],[94.15716,24.17299],[94.1536,24.12795],[94.16175,24.11356],[94.17537,24.10412],[94.25451,24.08253],[94.2516,24.1264],[94.25966,24.16531],[94.27643,24.17338],[94.29153,24.23299],[94.30661,24.24142],[94.32165,24.27631],[94.32172,24.3289],[94.35049,24.33508],[94.37845,24.3797],[94.36096,24.39448],[94.39495,24.40983],[94.40833,24.43989],[94.39683,24.45459],[94.39835,24.48235],[94.40569,24.48211],[94.39928,24.48758],[94.39578,24.48363],[94.39551,24.4883],[94.39143,24.48415],[94.38026,24.49614],[94.37468,24.49388],[94.37914,24.50183],[94.3705,24.5086],[94.37512,24.508],[94.37661,24.51269],[94.36568,24.51189],[94.36894,24.51678],[94.36146,24.51863],[94.37288,24.54779],[94.35906,24.5508],[94.35456,24.54614],[94.3483,24.5528],[94.33101,24.5489],[94.32762,24.55295],[94.33338,24.56511],[94.3265,24.56499],[94.32464,24.57023],[94.31076,24.57081],[94.30432,24.5852],[94.30135,24.58178],[94.29271,24.58439],[94.28195,24.6006],[94.26374,24.59599],[94.24665,24.61708]]]}},{"type":"Feature","properties":{"ac_name":"WABGAI","ac_no":36,"ac_category":"GEN","st_name":"MANIPUR"},"geometry":{"type":"Polygon","coordinates":[[[93.95192,24.64135],[93.92206,24.64796],[93.91875,24.63966],[93.90072,24.63141],[93.89991,24.61948],[93.88843,24.61574],[93.89199,24.61216],[93.89861,24.60778],[93.90663,24.61433],[93.91175,24.61106],[93.91093,24.59307],[93.90455,24.59037],[93.91085,24.5829],[93.90934,24.57005],[93.92736,24.56369],[93.95429,24.56715],[93.97195,24.54754],[93.99245,24.55294],[93.99516,24.56283],[93.98785,24.58701],[93.97611,24.59066],[93.97004,24.59295],[93.96396,24.64071],[93.95192,24.64135]]]}},{"type":"Feature","properties":{"ac_name":"WANGJING TENTHA","ac_no":34,"ac_category":"GEN","st_name":"MANIPUR"},"geometry":{"type":"Polygon","coordinates":[[[94.11197,24.58601],[94.09032,24.59256],[94.08022,24.60082],[94.06862,24.62223],[94.047,24.60445],[94.02384,24.5963],[93.99319,24.59992],[93.98033,24.59644],[93.97611,24.59066],[93.98785,24.58701],[93.99516,24.56283],[94.05537,24.56801],[94.06543,24.55741],[94.07004,24.56001],[94.0708,24.56375],[94.07803,24.56258],[94.08876,24.55251],[94.0942,24.55408],[94.11197,24.58601]]]}},{"type":"Feature","properties":{"ac_name":"BISHENPUR","ac_no":26,"ac_category":"GEN","st_name":"MANIPUR"},"geometry":{"type":"Polygon","coordinates":[[[93.73473,24.62104],[93.73489,24.61752],[93.73914,24.60891],[93.73475,24.60497],[93.73536,24.57994],[93.72559,24.57108],[93.73322,24.56164],[93.7285,24.55593],[93.73323,24.54522],[93.7307,24.51006],[93.76159,24.50912],[93.77939,24.54132],[93.79007,24.57909],[93.78654,24.61416],[93.77054,24.63263],[93.7449,24.63557],[93.7413,24.62444],[93.73473,24.62104]]]}},{"type":"Feature","properties":{"ac_name":"THANGA","ac_no":28,"ac_category":"GEN","st_name":"MANIPUR"},"geometry":{"type":"Polygon","coordinates":[[[93.80273,24.62166],[93.78654,24.61416],[93.79007,24.57909],[93.77939,24.54132],[93.76159,24.50912],[93.77006,24.50133],[93.77036,24.48995],[93.76018,24.45121],[93.75042,24.43721],[93.76603,24.43547],[93.78073,24.45948],[93.7881,24.45514],[93.79314,24.44327],[93.82252,24.4474],[93.85172,24.44046],[93.85971,24.45517],[93.85378,24.45739],[93.87131,24.46973],[93.87162,24.47772],[93.88214,24.48982],[93.87428,24.4989],[93.88275,24.5088],[93.87526,24.51101],[93.87688,24.51773],[93.86794,24.52436],[93.8733,24.55171],[93.86553,24.56392],[93.86839,24.57133],[93.88702,24.58119],[93.86847,24.59977],[93.86851,24.60974],[93.85276,24.6098],[93.85284,24.62109],[93.8457,24.62489],[93.81697,24.60739],[93.80839,24.60995],[93.80273,24.62166]]]}},{"type":"Feature","properties":{"ac_name":"HENGLEP","ac_no":57,"ac_category":"GEN","st_name":"MANIPUR"},"geometry":{"type":"Polygon","coordinates":[[[93.73489,24.61752],[93.72252,24.62097],[93.72276,24.61369],[93.71488,24.60571],[93.69771,24.61318],[93.67756,24.60678],[93.662,24.60823],[93.65246,24.60222],[93.64891,24.59257],[93.62798,24.60657],[93.62086,24.60077],[93.61243,24.57834],[93.60499,24.57075],[93.59548,24.56976],[93.59574,24.56624],[93.58764,24.56965],[93.56813,24.59272],[93.55749,24.5825],[93.53931,24.57648],[93.53555,24.55824],[93.53146,24.55669],[93.51184,24.56594],[93.50205,24.55759],[93.48975,24.55503],[93.48317,24.5681],[93.47078,24.57408],[93.46292,24.57049],[93.44889,24.54094],[93.43155,24.55658],[93.40608,24.56322],[93.39826,24.5748],[93.39115,24.57669],[93.38766,24.56776],[93.38262,24.56906],[93.38786,24.55984],[93.37941,24.52982],[93.38582,24.52323],[93.40311,24.51909],[93.39708,24.50645],[93.38244,24.49684],[93.37826,24.47168],[93.36597,24.45177],[93.37439,24.43762],[93.37179,24.41734],[93.36431,24.4069],[93.37765,24.39336],[93.38905,24.40129],[93.43371,24.38566],[93.46596,24.38499],[93.49194,24.3635],[93.47384,24.30043],[93.45768,24.26448],[93.48896,24.25435],[93.56139,24.24953],[93.60696,24.27558],[93.59132,24.29395],[93.5857,24.31351],[93.58882,24.33947],[93.60885,24.37567],[93.6275,24.39121],[93.69878,24.41817],[93.70201,24.42277],[93.69766,24.42448],[93.70343,24.42538],[93.70289,24.43237],[93.70847,24.43304],[93.71081,24.43903],[93.71161,24.44858],[93.72353,24.46318],[93.71892,24.46671],[93.72284,24.47061],[93.71772,24.47283],[93.73017,24.48458],[93.72515,24.50417],[93.7307,24.51006],[93.73323,24.54522],[93.7285,24.55593],[93.73322,24.56164],[93.72559,24.57108],[93.73536,24.57994],[93.73475,24.60497],[93.73914,24.60891],[93.73489,24.61752]]]}},{"type":"Feature","properties":{"ac_name":"KAKCHING","ac_no":37,"ac_category":"GEN","st_name":"MANIPUR"},"geometry":{"type":"Polygon","coordinates":[[[94.07004,24.56001],[94.06543,24.55741],[94.05537,24.56801],[93.99516,24.56283],[93.99245,24.55294],[93.97195,24.54754],[93.97554,24.53537],[93.97318,24.4876],[93.98082,24.48272],[93.98229,24.46835],[93.99998,24.46064],[94.00192,24.44157],[94.01888,24.44447],[94.03506,24.45548],[94.04761,24.47043],[94.03303,24.50256],[94.03752,24.53847],[94.05081,24.5289],[94.0555,24.53085],[94.05056,24.52283],[94.05463,24.513],[94.062,24.52198],[94.06395,24.51647],[94.08602,24.51822],[94.07231,24.54141],[94.07004,24.56001]]]}},{"type":"Feature","properties":{"ac_name":"HIYANGLAM","ac_no":38,"ac_category":"GEN","st_name":"MANIPUR"},"geometry":{"type":"Polygon","coordinates":[[[93.97195,24.54754],[93.95429,24.56715],[93.92736,24.56369],[93.90934,24.57005],[93.89769,24.55635],[93.8733,24.55171],[93.86794,24.52436],[93.87688,24.51773],[93.87526,24.51101],[93.88275,24.5088],[93.87428,24.4989],[93.88214,24.48982],[93.87162,24.47772],[93.87131,24.46973],[93.85378,24.45739],[93.85971,24.45517],[93.85172,24.44046],[93.83839,24.42709],[93.84785,24.41534],[93.83935,24.40961],[93.84619,24.39644],[93.90208,24.41341],[93.92512,24.41571],[93.94554,24.41331],[93.95283,24.40829],[93.96299,24.40713],[93.96309,24.41885],[93.97492,24.4475],[93.96786,24.4715],[93.96791,24.48519],[93.97318,24.4876],[93.97554,24.53537],[93.97195,24.54754]]]}},{"type":"Feature","properties":{"ac_name":"THANLON","ac_no":56,"ac_category":"GEN","st_name":"MANIPUR"},"geometry":{"type":"Polygon","coordinates":[[[93.38262,24.56906],[93.34412,24.57854],[93.33362,24.56863],[93.30666,24.56543],[93.28151,24.56809],[93.28377,24.56299],[93.26898,24.54757],[93.27344,24.54368],[93.25932,24.52649],[93.26652,24.52315],[93.26427,24.51183],[93.24997,24.5126],[93.25082,24.46893],[93.25801,24.45469],[93.24692,24.44388],[93.23055,24.41367],[93.21879,24.38024],[93.22696,24.3339],[93.24291,24.3065],[93.23363,24.2927],[93.23374,24.27721],[93.22146,24.26512],[93.20077,24.22996],[93.20313,24.20499],[93.19869,24.18641],[93.15048,24.08408],[93.16119,24.07333],[93.16586,24.07366],[93.16282,24.05988],[93.16748,24.05144],[93.18741,24.0538],[93.2045,24.04956],[93.21188,24.04856],[93.22008,24.06033],[93.22033,24.08345],[93.24109,24.08236],[93.25025,24.08024],[93.26121,24.06946],[93.26301,24.05779],[93.25077,24.03298],[93.25522,24.02799],[93.25313,24.02127],[93.28219,24.04298],[93.28643,24.05255],[93.29377,24.04888],[93.31773,24.05323],[93.32617,24.04852],[93.33836,24.06179],[93.33431,24.07454],[93.32837,24.07727],[93.33086,24.08549],[93.33635,24.09065],[93.34508,24.09153],[93.34743,24.08757],[93.35405,24.09092],[93.34297,24.09728],[93.34184,24.10238],[93.3488,24.10495],[93.34842,24.09898],[93.35444,24.09896],[93.3597,24.09154],[93.36722,24.11498],[93.38726,24.13492],[93.38729,24.16845],[93.40005,24.20171],[93.41159,24.20792],[93.41464,24.20043],[93.43227,24.22502],[93.43896,24.24802],[93.45768,24.26448],[93.47384,24.30043],[93.49194,24.3635],[93.46596,24.38499],[93.43371,24.38566],[93.38905,24.40129],[93.37765,24.39336],[93.36431,24.4069],[93.37179,24.41734],[93.37439,24.43762],[93.36597,24.45177],[93.37826,24.47168],[93.38244,24.49684],[93.39708,24.50645],[93.40311,24.51909],[93.38582,24.52323],[93.37941,24.52982],[93.38786,24.55984],[93.38262,24.56906]]]}},{"type":"Feature","properties":{"ac_name":"TIPAIMUKH","ac_no":55,"ac_category":"GEN","st_name":"MANIPUR"},"geometry":{"type":"Polygon","coordinates":[[[93.08775,24.57249],[93.05815,24.57457],[93.0704,24.55797],[93.06428,24.5468],[93.05682,24.5546],[93.04902,24.5432],[93.04978,24.51934],[93.03823,24.51262],[93.0426,24.50512],[93.03249,24.49541],[93.04626,24.47408],[93.04554,24.46361],[93.0357,24.46007],[93.03292,24.42918],[93.04254,24.42061],[93.04216,24.41447],[93.02419,24.40675],[93.0153,24.40945],[93.01381,24.41707],[93.0087,24.41185],[93.00907,24.40659],[93.02494,24.39136],[93.01842,24.38347],[93.02154,24.37331],[93.01773,24.34995],[93.04034,24.34137],[93.02311,24.30216],[93.00681,24.28262],[93.01219,24.27097],[93.0042,24.25758],[93.00927,24.24344],[93.02398,24.23375],[93.01597,24.22482],[93.02193,24.21787],[93.01491,24.20003],[92.9992,24.19625],[93.00768,24.18212],[93.00313,24.17379],[93.00596,24.16176],[92.98833,24.14935],[92.99015,24.13622],[92.98352,24.12554],[92.97407,24.12489],[92.97151,24.11629],[92.97459,24.11219],[92.991,24.11556],[93.01277,24.10144],[93.02687,24.10081],[93.04667,24.09002],[93.06058,24.09188],[93.07841,24.10177],[93.08769,24.08141],[93.09763,24.07308],[93.09937,24.04325],[93.12605,24.06218],[93.14046,24.08792],[93.15048,24.08408],[93.19869,24.18641],[93.20313,24.20499],[93.20077,24.22996],[93.22146,24.26512],[93.23374,24.27721],[93.23363,24.2927],[93.24291,24.3065],[93.22696,24.3339],[93.21879,24.38024],[93.23055,24.41367],[93.24692,24.44388],[93.25801,24.45469],[93.25082,24.46893],[93.24997,24.5126],[93.24421,24.51737],[93.23468,24.51484],[93.22002,24.49507],[93.20667,24.51285],[93.19471,24.51658],[93.19124,24.5244],[93.18309,24.52476],[93.18117,24.51463],[93.17158,24.51929],[93.1771,24.53606],[93.15963,24.53653],[93.15133,24.54187],[93.15162,24.53859],[93.14805,24.54427],[93.136,24.54541],[93.13382,24.55338],[93.10891,24.56338],[93.09351,24.5634],[93.08775,24.57249]]]}},{"type":"Feature","properties":{"ac_name":"MOIRANG","ac_no":27,"ac_category":"GEN","st_name":"MANIPUR"},"geometry":{"type":"Polygon","coordinates":[[[93.76159,24.50912],[93.7307,24.51006],[93.72515,24.50417],[93.73017,24.48458],[93.71772,24.47283],[93.72284,24.47061],[93.71892,24.46671],[93.72353,24.46318],[93.71161,24.44858],[93.71081,24.43903],[93.72567,24.4447],[93.75042,24.43721],[93.76018,24.45121],[93.77036,24.48995],[93.77006,24.50133],[93.76159,24.50912]]]}},{"type":"Feature","properties":{"ac_name":"KUMBI","ac_no":29,"ac_category":"GEN","st_name":"MANIPUR"},"geometry":{"type":"Polygon","coordinates":[[[93.75042,24.43721],[93.72567,24.4447],[93.71081,24.43903],[93.70847,24.43304],[93.70289,24.43237],[93.70343,24.42538],[93.69766,24.42448],[93.70201,24.42277],[93.70456,24.41267],[93.69616,24.40865],[93.7014,24.40691],[93.69895,24.40058],[93.71635,24.40315],[93.72631,24.42314],[93.7349,24.42528],[93.73202,24.41604],[93.72463,24.41585],[93.73158,24.41264],[93.73696,24.39695],[93.73989,24.40263],[93.74078,24.39992],[93.74878,24.40522],[93.75446,24.39892],[93.79399,24.39364],[93.8058,24.38986],[93.79852,24.36227],[93.80705,24.35595],[93.83133,24.36085],[93.83986,24.35329],[93.84676,24.31355],[93.86412,24.28745],[93.87386,24.28629],[93.86677,24.29059],[93.87134,24.29722],[93.86518,24.31295],[93.85383,24.31337],[93.85713,24.31592],[93.85372,24.32838],[93.85931,24.32495],[93.86452,24.3336],[93.85147,24.34263],[93.86351,24.35435],[93.84983,24.35338],[93.85413,24.36062],[93.84682,24.37168],[93.85198,24.37982],[93.84609,24.38621],[93.84619,24.39644],[93.83935,24.40961],[93.84785,24.41534],[93.83839,24.42709],[93.85172,24.44046],[93.82252,24.4474],[93.79314,24.44327],[93.7881,24.45514],[93.78073,24.45948],[93.76603,24.43547],[93.75042,24.43721]]]}},{"type":"Feature","properties":{"ac_name":"CHANDEL","ac_no":41,"ac_category":"GEN","st_name":"MANIPUR"},"geometry":{"type":"Polygon","coordinates":[[[93.96309,24.41885],[93.96299,24.40713],[93.95283,24.40829],[93.94438,24.40439],[93.94429,24.39299],[93.93431,24.39424],[93.92569,24.3867],[93.90979,24.35041],[93.9083,24.33792],[93.92957,24.30909],[93.93666,24.2904],[93.92394,24.27951],[93.91824,24.28079],[93.91828,24.26226],[93.90825,24.26221],[93.9081,24.2495],[93.89513,24.24681],[93.88211,24.2366],[93.87961,24.26585],[93.88408,24.27863],[93.88271,24.28372],[93.87386,24.28629],[93.87874,24.28032],[93.86393,24.26494],[93.86209,24.24721],[93.86746,24.24314],[93.85906,24.23426],[93.8791,24.2289],[93.87937,24.22327],[93.8682,24.21939],[93.86877,24.2136],[93.86147,24.20685],[93.85117,24.21387],[93.83639,24.18604],[93.81092,24.16792],[93.80124,24.14951],[93.78078,24.1406],[93.77148,24.11929],[93.7744,24.09558],[93.73988,24.0152],[93.74415,24.0026],[93.75909,24.00375],[93.77197,23.96902],[93.79786,23.94735],[93.79954,23.93272],[93.80776,23.92676],[93.81965,23.92361],[93.83993,23.9323],[93.85913,23.9321],[93.87191,23.94126],[93.88276,23.94171],[93.8937,23.95298],[93.94409,23.94625],[93.95839,23.92946],[93.97525,23.92472],[93.98867,23.92864],[93.99816,23.92179],[94.01647,23.92703],[94.02524,23.91564],[94.04049,23.91073],[94.04903,23.88724],[94.06815,23.88997],[94.08169,23.88212],[94.09606,23.88919],[94.09819,23.88307],[94.10248,23.88326],[94.09932,23.8806],[94.10489,23.87537],[94.10313,23.87013],[94.11308,23.86297],[94.10944,23.85479],[94.11611,23.85238],[94.11065,23.84933],[94.11346,23.84333],[94.11735,23.84354],[94.11793,23.83718],[94.13285,23.83289],[94.14392,23.83581],[94.14478,23.84975],[94.15664,23.84817],[94.16969,23.92841],[94.17689,23.92593],[94.18984,23.93364],[94.18841,23.95967],[94.23731,24.03538],[94.22779,24.05692],[94.22959,24.05974],[94.23929,24.05292],[94.25451,24.08253],[94.17537,24.10412],[94.16175,24.11356],[94.1536,24.12795],[94.15716,24.17299],[94.1811,24.23957],[94.14283,24.28854],[94.14383,24.32108],[94.1543,24.35816],[94.14917,24.37226],[94.108,24.39887],[94.09831,24.40073],[94.02645,24.37753],[93.96309,24.41885]]]}},{"type":"Feature","properties":{"ac_name":"SUGNOO","ac_no":39,"ac_category":"GEN","st_name":"MANIPUR"},"geometry":{"type":"Polygon","coordinates":[[[93.95283,24.40829],[93.94554,24.41331],[93.92512,24.41571],[93.90208,24.41341],[93.84619,24.39644],[93.84609,24.38621],[93.85198,24.37982],[93.84682,24.37168],[93.85413,24.36062],[93.84983,24.35338],[93.86351,24.35435],[93.85147,24.34263],[93.86452,24.3336],[93.85931,24.32495],[93.85372,24.32838],[93.85713,24.31592],[93.85383,24.31337],[93.86518,24.31295],[93.87134,24.29722],[93.86677,24.29059],[93.87386,24.28629],[93.88271,24.28372],[93.88408,24.27863],[93.87961,24.26585],[93.88211,24.2366],[93.89513,24.24681],[93.9081,24.2495],[93.90825,24.26221],[93.91828,24.26226],[93.91824,24.28079],[93.92394,24.27951],[93.93666,24.2904],[93.92957,24.30909],[93.9083,24.33792],[93.90979,24.35041],[93.92569,24.3867],[93.93431,24.39424],[93.94429,24.39299],[93.94438,24.40439],[93.95283,24.40829]]]}},{"type":"Feature","properties":{"ac_name":"SAIKOT","ac_no":59,"ac_category":"GEN","st_name":"MANIPUR"},"geometry":{"type":"Polygon","coordinates":[[[93.79399,24.39364],[93.75446,24.39892],[93.74878,24.40522],[93.74078,24.39992],[93.73989,24.40263],[93.73696,24.39695],[93.73158,24.41264],[93.72463,24.41585],[93.73202,24.41604],[93.7349,24.42528],[93.72631,24.42314],[93.71635,24.40315],[93.69895,24.40058],[93.7014,24.40691],[93.69616,24.40865],[93.70456,24.41267],[93.70201,24.42277],[93.69878,24.41817],[93.6275,24.39121],[93.60885,24.37567],[93.58882,24.33947],[93.5857,24.31351],[93.59132,24.29395],[93.60696,24.27558],[93.67682,24.23433],[93.70925,24.30754],[93.73184,24.32352],[93.79399,24.39364]]]}},{"type":"Feature","properties":{"ac_name":"CHURACHANDPUR","ac_no":58,"ac_category":"GEN","st_name":"MANIPUR"},"geometry":{"type":"Polygon","coordinates":[[[93.84676,24.31355],[93.83986,24.35329],[93.83133,24.36085],[93.80705,24.35595],[93.79852,24.36227],[93.8058,24.38986],[93.79399,24.39364],[93.73184,24.32352],[93.70925,24.30754],[93.67682,24.23433],[93.71306,24.21559],[93.72145,24.22025],[93.7323,24.24466],[93.73781,24.29124],[93.7457,24.30773],[93.75203,24.31076],[93.83022,24.3053],[93.84676,24.31355]]]}},{"type":"Feature","properties":{"ac_name":"SINGHAT","ac_no":60,"ac_category":"GEN","st_name":"MANIPUR"},"geometry":{"type":"Polygon","coordinates":[[[93.87386,24.28629],[93.86412,24.28745],[93.84676,24.31355],[93.83022,24.3053],[93.75203,24.31076],[93.7457,24.30773],[93.73781,24.29124],[93.7323,24.24466],[93.72145,24.22025],[93.71306,24.21559],[93.67682,24.23433],[93.60696,24.27558],[93.56139,24.24953],[93.48896,24.25435],[93.45768,24.26448],[93.43896,24.24802],[93.43227,24.22502],[93.41464,24.20043],[93.41159,24.20792],[93.40005,24.20171],[93.38729,24.16845],[93.38726,24.13492],[93.36722,24.11498],[93.3597,24.09154],[93.3725,24.09081],[93.38977,24.08284],[93.3988,24.08531],[93.41662,24.07186],[93.43314,24.02433],[93.43971,24.01539],[93.45245,24.01409],[93.45268,23.99959],[93.46095,23.99872],[93.46337,23.99395],[93.46166,23.97607],[93.47464,23.96195],[93.49147,23.95064],[93.49591,23.95315],[93.50553,23.94238],[93.51499,23.94283],[93.52498,23.95607],[93.53018,23.95427],[93.53983,23.961],[93.55034,23.95955],[93.55954,23.98203],[93.57094,23.97758],[93.57359,23.96698],[93.59185,23.96069],[93.59924,23.97265],[93.60853,23.97191],[93.61198,23.99718],[93.62376,24.01137],[93.65236,24.00971],[93.65642,24.00201],[93.68978,24.00915],[93.72332,23.99754],[93.74011,24.00256],[93.74121,23.99716],[93.74415,24.0026],[93.73988,24.0152],[93.7744,24.09558],[93.77148,24.11929],[93.78078,24.1406],[93.80124,24.14951],[93.81092,24.16792],[93.83639,24.18604],[93.85117,24.21387],[93.86147,24.20685],[93.86877,24.2136],[93.8682,24.21939],[93.87937,24.22327],[93.8791,24.2289],[93.85906,24.23426],[93.86746,24.24314],[93.86209,24.24721],[93.86393,24.26494],[93.87874,24.28032],[93.87386,24.28629]]]}},{"type":"Feature","properties":{"ac_name":"HEINGANG","ac_no":2,"ac_category":"GEN","st_name":"MANIPUR"},"geometry":{"type":"Polygon","coordinates":[[[93.93108,24.89625],[93.93271,24.90489],[93.92693,24.905],[93.91193,24.89996],[93.9186,24.91062],[93.91729,24.91371],[93.92089,24.91466],[93.92112,24.92058],[93.92542,24.92532],[93.92112,24.94183],[93.93179,24.96756],[93.9263,24.96428],[93.92462,24.96845],[93.91971,24.96266],[93.9095,24.94518],[93.90826,24.92913],[93.90364,24.93349],[93.89567,24.93172],[93.89621,24.93906],[93.89041,24.93761],[93.90503,24.90417],[93.91851,24.89344],[93.92677,24.89178],[93.93108,24.89625]]]}},{"type":"Feature","properties":{"ac_name":"SAGOLBAND","ac_no":11,"ac_category":"GEN","st_name":"MANIPUR"},"geometry":{"type":"Polygon","coordinates":[[[93.96036,24.83952],[93.96123,24.8323],[93.94158,24.82938],[93.93396,24.77883],[93.94207,24.78108],[93.95736,24.79864],[93.97166,24.80473],[93.97841,24.81593],[93.98051,24.82918],[93.97547,24.83531],[93.9609,24.8398],[93.96036,24.83952]]]}}]}