{"type":"FeatureCollection","features":[{"type":"Feature","properties":{"ac_name":"SERLUI","ac_no":6,"ac_category":"ST","st_name":"MIZORAM"},"geometry":{"type":"Polygon","coordinates":[[[92.7709,24.5006],[92.7635,24.5212],[92.752,24.5065],[92.7511,24.4925],[92.7124,24.4116],[92.703,24.3751],[92.6925,24.3687],[92.6846,24.3467],[92.6769,24.3503],[92.6685,24.3462],[92.6605,24.3484],[92.6491,24.3288],[92.6381,24.3285],[92.6398,24.3338],[92.6357,24.3315],[92.6352,24.337],[92.6219,24.3315],[92.612,24.2537],[92.6566,24.2726],[92.6821,24.2724],[92.6948,24.2669],[92.7016,24.2572],[92.6929,24.2314],[92.6962,24.2125],[92.739,24.2208],[92.7803,24.2226],[92.7948,24.1648],[92.8821,24.1687],[92.8917,24.1739],[92.8985,24.2318],[92.89,24.2427],[92.8805,24.233],[92.8723,24.2413],[92.8602,24.2419],[92.8601,24.2491],[92.8642,24.2509],[92.8588,24.2584],[92.8642,24.262],[92.8611,24.2698],[92.8667,24.2767],[92.8732,24.277],[92.8727,24.2867],[92.8615,24.3082],[92.8544,24.3085],[92.866,24.3174],[92.861,24.328],[92.871,24.3305],[92.8904,24.3561],[92.8836,24.3635],[92.8904,24.3696],[92.8917,24.3779],[92.884,24.381],[92.889,24.3912],[92.8909,24.3876],[92.894,24.3897],[92.8883,24.3983],[92.8831,24.4018],[92.8681,24.3948],[92.8605,24.3986],[92.846,24.3865],[92.843,24.3782],[92.8353,24.3788],[92.8292,24.3739],[92.8229,24.3868],[92.8297,24.4007],[92.82,24.404],[92.8188,24.4104],[92.8125,24.4096],[92.8068,24.4192],[92.7991,24.4195],[92.8011,24.4299],[92.7709,24.5006]]]}},{"type":"Feature","properties":{"ac_name":"TUIVAWL","ac_no":7,"ac_category":"ST","st_name":"MIZORAM"},"geometry":{"type":"Polygon","coordinates":[[[93.0087,24.4118],[92.9963,24.3992],[92.9738,24.4081],[92.9596,24.3917],[92.9506,24.4028],[92.939,24.4004],[92.9306,24.3931],[92.9095,24.4129],[92.9033,24.3917],[92.8925,24.3931],[92.8909,24.4003],[92.8883,24.3983],[92.894,24.3897],[92.8909,24.3876],[92.889,24.3912],[92.884,24.381],[92.8917,24.3779],[92.8904,24.3696],[92.8836,24.3635],[92.8904,24.3561],[92.871,24.3305],[92.861,24.328],[92.866,24.3174],[92.8544,24.3085],[92.8615,24.3082],[92.8727,24.2867],[92.8732,24.277],[92.8667,24.2767],[92.8611,24.2698],[92.8642,24.262],[92.8588,24.2584],[92.8642,24.2509],[92.8601,24.2491],[92.8602,24.2419],[92.8723,24.2413],[92.8805,24.233],[92.89,24.2427],[92.8985,24.2318],[92.8917,24.1739],[92.8821,24.1687],[92.8854,24.1659],[92.8827,24.1537],[92.8715,24.1396],[92.8756,24.1297],[92.8533,24.0946],[92.8566,24.0881],[92.8534,24.072],[92.8454,24.0632],[92.8442,24.0276],[92.8377,24.0146],[92.8329,24.0227],[92.8296,24.0211],[92.8253,23.9993],[92.8044,23.9794],[92.8095,23.9723],[92.8008,23.9273],[92.8109,23.9128],[92.8061,23.9058],[92.8188,23.8948],[92.8054,23.8799],[92.829,23.8593],[92.9955,23.824],[92.9988,23.8388],[92.9934,23.8546],[92.986,23.8601],[92.9799,23.8885],[92.9849,23.8994],[92.992,23.9033],[92.9934,23.9107],[92.987,23.9198],[92.9934,23.9348],[92.992,23.9593],[93.0013,23.9675],[93.0029,23.9786],[92.9973,23.9977],[92.9985,24.0268],[92.9924,24.0354],[92.9929,24.0501],[92.9992,24.0553],[92.9914,24.0888],[92.9749,24.1029],[92.9715,24.1163],[92.9741,24.1249],[92.9835,24.1255],[92.9902,24.1362],[92.9883,24.1494],[93.006,24.1618],[93.0031,24.1738],[93.0077,24.1821],[92.9992,24.1963],[93.0149,24.2],[93.0219,24.2179],[93.016,24.2248],[93.024,24.2338],[93.0093,24.2434],[93.0042,24.2576],[93.0122,24.271],[93.0068,24.2826],[93.0231,24.3022],[93.0403,24.3414],[93.0177,24.3499],[93.0215,24.3733],[93.0184,24.3835],[93.0249,24.3914],[93.0091,24.4066],[93.0087,24.4118]]]}},{"type":"Feature","properties":{"ac_name":"KOLASIB","ac_no":5,"ac_category":"ST","st_name":"MIZORAM"},"geometry":{"type":"Polygon","coordinates":[[[92.612,24.2537],[92.6063,24.2487],[92.572,24.2519],[92.5508,24.2473],[92.5471,24.2206],[92.5311,24.1857],[92.5341,24.1804],[92.5296,24.1788],[92.5329,24.1716],[92.5263,24.1622],[92.5373,24.1535],[92.5417,24.1435],[92.5363,24.1318],[92.6461,24.1381],[92.6499,24.1594],[92.6625,24.1866],[92.683,24.1818],[92.7065,24.1862],[92.7066,24.2017],[92.6962,24.2125],[92.6929,24.2314],[92.7016,24.2572],[92.6948,24.2669],[92.6821,24.2724],[92.6566,24.2726],[92.612,24.2537]]]}},{"type":"Feature","properties":{"ac_name":"HACHHEK","ac_no":1,"ac_category":"ST","st_name":"MIZORAM"},"geometry":{"type":"Polygon","coordinates":[[[92.4227,24.2549],[92.3462,24.2534],[92.2996,24.2525],[92.2927,24.2473],[92.2952,24.2349],[92.2992,24.2336],[92.2956,24.2277],[92.3024,24.227],[92.3001,24.2216],[92.3141,24.224],[92.3099,24.2126],[92.3157,24.2138],[92.3242,24.2064],[92.3192,24.2023],[92.3301,24.1896],[92.3255,24.1866],[92.3319,24.1827],[92.3271,24.1663],[92.3365,24.148],[92.3353,24.1429],[92.3299,24.1446],[92.3336,24.1392],[92.3272,24.1401],[92.3258,24.1301],[92.3309,24.128],[92.3253,24.1233],[92.3265,24.1166],[92.3322,24.114],[92.3274,24.1104],[92.3314,24.1069],[92.3264,24.1008],[92.3296,24.0985],[92.3257,24.095],[92.3269,24.0826],[92.3214,24.0766],[92.3272,24.0765],[92.3219,24.0745],[92.3232,24.0681],[92.3167,24.0719],[92.3152,24.0665],[92.3226,24.0586],[92.3185,24.0575],[92.3202,24.0506],[92.3145,24.0492],[92.3181,24.0413],[92.3148,24.0339],[92.3195,24.0339],[92.3181,24.0232],[92.3239,24.0196],[92.3215,24.0171],[92.3184,24.022],[92.3173,24.0173],[92.3242,24.0128],[92.3311,23.9982],[92.3298,23.9834],[92.3229,23.9779],[92.3235,23.973],[92.3135,23.968],[92.3114,23.9581],[92.3125,23.9315],[92.3311,23.9207],[92.3311,23.9066],[92.322,23.9022],[92.3216,23.889],[92.3166,23.8853],[92.3208,23.883],[92.3155,23.8811],[92.3175,23.8755],[92.3253,23.8742],[92.3251,23.8692],[92.3089,23.8607],[92.2939,23.8704],[92.2895,23.8687],[92.2734,23.8447],[92.2857,23.8155],[92.2713,23.818],[92.2603,23.8131],[92.2685,23.7684],[92.267,23.7359],[92.3786,23.7325],[92.3962,23.772],[92.3936,23.7844],[92.408,23.797],[92.4018,23.8064],[92.4005,23.8235],[92.4182,23.8507],[92.4214,23.962],[92.4456,24.0017],[92.4738,24.0305],[92.5008,24.1411],[92.5417,24.1435],[92.5373,24.1535],[92.5263,24.1622],[92.5329,24.1716],[92.5296,24.1788],[92.5237,24.1716],[92.5156,24.1791],[92.5099,24.1725],[92.5142,24.1697],[92.5068,24.1701],[92.5113,24.1656],[92.5033,24.1679],[92.5061,24.1642],[92.5016,24.1608],[92.4839,24.1632],[92.4771,24.1476],[92.4805,24.1444],[92.4654,24.1361],[92.4507,24.147],[92.4493,24.1437],[92.443,24.1541],[92.4366,24.1527],[92.4357,24.1792],[92.4189,24.1928],[92.4227,24.2549]]]}},{"type":"Feature","properties":{"ac_name":"TUIRIAL","ac_no":4,"ac_category":"ST","st_name":"MIZORAM"},"geometry":{"type":"Polygon","coordinates":[[[92.8821,24.1687],[92.7948,24.1648],[92.7803,24.2226],[92.739,24.2208],[92.6962,24.2125],[92.7066,24.2017],[92.7065,24.1862],[92.683,24.1818],[92.6625,24.1866],[92.6499,24.1594],[92.6461,24.1381],[92.5363,24.1318],[92.5349,24.1247],[92.541,24.123],[92.5352,24.1105],[92.5362,24.0338],[92.5471,24.0409],[92.5508,24.0613],[92.5553,24.0536],[92.5611,24.0531],[92.5564,24.0408],[92.5647,24.039],[92.5737,24.0668],[92.5711,24.0749],[92.5804,24.0749],[92.5839,24.063],[92.5982,24.0506],[92.6114,24.05],[92.6192,24.0321],[92.6232,24.0313],[92.6243,24.0397],[92.6352,24.0334],[92.6266,24.0266],[92.6199,24.0085],[92.6296,23.9977],[92.629,23.9862],[92.6171,23.9618],[92.627,23.9456],[92.6198,23.9359],[92.6416,23.9301],[92.6432,23.9229],[92.6548,23.9206],[92.6599,23.909],[92.6562,23.902],[92.6381,23.8927],[92.64,23.8812],[92.6509,23.88],[92.6618,23.8715],[92.693,23.8681],[92.6995,23.8613],[92.7325,23.8715],[92.7599,23.8667],[92.7831,23.8812],[92.8054,23.8799],[92.8188,23.8948],[92.8061,23.9058],[92.8109,23.9128],[92.8008,23.9273],[92.8095,23.9723],[92.8044,23.9794],[92.8253,23.9993],[92.8296,24.0211],[92.8329,24.0227],[92.8377,24.0146],[92.8442,24.0276],[92.8454,24.0632],[92.8534,24.072],[92.8566,24.0881],[92.8533,24.0946],[92.8756,24.1297],[92.8715,24.1396],[92.8827,24.1537],[92.8854,24.1659],[92.8821,24.1687]]]}},{"type":"Feature","properties":{"ac_name":"CHALFILH","ac_no":8,"ac_category":"ST","st_name":"MIZORAM"},"geometry":{"type":"Polygon","coordinates":[[[92.9715,24.1163],[92.9749,24.1029],[92.9914,24.0888],[92.9992,24.0553],[92.9929,24.0501],[92.9924,24.0354],[92.9985,24.0268],[92.9973,23.9977],[93.0029,23.9786],[93.0013,23.9675],[92.992,23.9593],[92.9934,23.9348],[92.987,23.9198],[92.9934,23.9107],[92.992,23.9033],[92.9849,23.8994],[92.9799,23.8885],[92.986,23.8601],[92.9934,23.8546],[92.9988,23.8388],[92.9955,23.824],[92.829,23.8593],[92.8281,23.8302],[92.824,23.8305],[92.8268,23.8244],[92.8071,23.8117],[92.8073,23.7812],[92.8018,23.7694],[92.812,23.742],[92.8081,23.7149],[92.9369,23.6869],[92.9564,23.6814],[92.9703,23.6687],[92.9989,23.6628],[93.0425,23.6626],[93.0412,23.7664],[93.072,23.7751],[93.1466,23.8112],[93.1619,23.8407],[93.1582,23.8834],[93.1858,23.9079],[93.1683,23.9407],[93.2045,24.0496],[93.1874,24.0538],[93.1675,24.0514],[93.1628,24.0599],[93.1659,24.0737],[93.1612,24.0733],[93.1505,24.0841],[93.1405,24.0879],[93.126,24.0622],[93.0994,24.0432],[93.0976,24.0731],[93.0877,24.0814],[93.0784,24.1018],[93.0606,24.0919],[93.0467,24.09],[93.0269,24.1008],[93.0128,24.1014],[92.991,24.1156],[92.9746,24.1122],[92.9715,24.1163]]]}},{"type":"Feature","properties":{"ac_name":"MAMIT","ac_no":3,"ac_category":"ST","st_name":"MIZORAM"},"geometry":{"type":"Polygon","coordinates":[[[92.5363,24.1318],[92.5417,24.1435],[92.5008,24.1411],[92.4738,24.0305],[92.4456,24.0017],[92.4214,23.962],[92.4182,23.8507],[92.4005,23.8235],[92.4018,23.8064],[92.408,23.797],[92.3936,23.7844],[92.3962,23.772],[92.3786,23.7325],[92.267,23.7359],[92.2664,23.7241],[92.2798,23.719],[92.2787,23.7101],[92.2897,23.7016],[92.2917,23.6819],[92.2729,23.6423],[92.2823,23.6382],[92.2771,23.6323],[92.2788,23.6251],[92.2805,23.6308],[92.2915,23.6276],[92.4475,23.6846],[92.4751,23.724],[92.4908,23.726],[92.5026,23.74],[92.5239,23.7439],[92.5139,23.7149],[92.5175,23.7102],[92.5231,23.7123],[92.5379,23.7256],[92.5426,23.7429],[92.5526,23.7534],[92.5534,23.7704],[92.5585,23.7807],[92.5658,23.7847],[92.5951,23.7751],[92.6046,23.7573],[92.6299,23.7608],[92.6265,23.7631],[92.6372,23.7727],[92.6393,23.786],[92.6364,23.7937],[92.6221,23.7972],[92.635,23.8163],[92.6479,23.8119],[92.653,23.8191],[92.643,23.8206],[92.6434,23.8283],[92.6581,23.8328],[92.6593,23.8378],[92.6479,23.8547],[92.64,23.8812],[92.6381,23.8927],[92.6562,23.902],[92.6599,23.909],[92.6548,23.9206],[92.6432,23.9229],[92.6416,23.9301],[92.6198,23.9359],[92.627,23.9456],[92.6171,23.9618],[92.629,23.9862],[92.6296,23.9977],[92.6199,24.0085],[92.6266,24.0266],[92.6352,24.0334],[92.6243,24.0397],[92.6232,24.0313],[92.6192,24.0321],[92.6114,24.05],[92.5982,24.0506],[92.5839,24.063],[92.5804,24.0749],[92.5711,24.0749],[92.5737,24.0668],[92.5647,24.039],[92.5564,24.0408],[92.5611,24.0531],[92.5553,24.0536],[92.5508,24.0613],[92.5471,24.0409],[92.5362,24.0338],[92.5352,24.1105],[92.541,24.123],[92.5349,24.1247],[92.5363,24.1318]]]}},{"type":"Feature","properties":{"ac_name":"LENGTENG","ac_no":21,"ac_category":"ST","st_name":"MIZORAM"},"geometry":{"type":"Polygon","coordinates":[[[93.2411,24.0824],[93.2203,24.0834],[93.2201,24.0603],[93.2119,24.0486],[93.2045,24.0496],[93.1683,23.9407],[93.1858,23.9079],[93.1582,23.8834],[93.1619,23.8407],[93.1466,23.8112],[93.072,23.7751],[93.0412,23.7664],[93.0425,23.6626],[93.0537,23.5564],[93.0417,23.4764],[93.0563,23.4172],[93.0414,23.4114],[93.0376,23.3732],[93.0433,23.3156],[93.0148,23.2787],[93.0109,23.2705],[93.0404,23.2651],[93.0535,23.275],[93.0778,23.3184],[93.0941,23.3879],[93.1037,23.5171],[93.1532,23.5227],[93.1654,23.6484],[93.1638,23.6901],[93.1694,23.7054],[93.1582,23.7339],[93.1626,23.7414],[93.1835,23.749],[93.2512,23.7957],[93.2838,23.8234],[93.369,23.933],[93.3596,23.9409],[93.3612,23.9447],[93.351,23.9419],[93.3547,23.9434],[93.3488,23.9483],[93.3538,23.9516],[93.3513,23.9614],[93.3411,23.9694],[93.343,23.9749],[93.3366,23.9758],[93.3394,23.9803],[93.333,23.9789],[93.3343,23.985],[93.3287,23.985],[93.3372,23.9897],[93.3298,24.0207],[93.3389,24.0219],[93.3315,24.0304],[93.326,24.0297],[93.3379,24.0404],[93.3279,24.0422],[93.3262,24.0485],[93.3177,24.0532],[93.2938,24.0489],[93.2864,24.0526],[93.2822,24.043],[93.2531,24.0213],[93.2552,24.028],[93.2508,24.033],[93.263,24.0578],[93.2612,24.0695],[93.2503,24.0802],[93.2411,24.0824]]]}},{"type":"Feature","properties":{"ac_name":"CHAMPHAI NORTH","ac_no":23,"ac_category":"ST","st_name":"MIZORAM"},"geometry":{"type":"Polygon","coordinates":[[[93.369,23.933],[93.2838,23.8234],[93.2512,23.7957],[93.1835,23.749],[93.1626,23.7414],[93.1582,23.7339],[93.1694,23.7054],[93.1638,23.6901],[93.1654,23.6484],[93.1532,23.5227],[93.1896,23.513],[93.209,23.5085],[93.2065,23.4905],[93.2098,23.485],[93.2369,23.4726],[93.2575,23.4546],[93.2596,23.4472],[93.3107,23.4498],[93.3045,23.4598],[93.3086,23.4695],[93.3155,23.4677],[93.3211,23.4564],[93.3478,23.4818],[93.362,23.4825],[93.3582,23.4988],[93.3524,23.5027],[93.3592,23.5104],[93.3736,23.4976],[93.3735,23.4907],[93.3952,23.4918],[93.3973,23.5098],[93.4087,23.5174],[93.4183,23.5401],[93.4094,23.5633],[93.4145,23.5711],[93.4217,23.5711],[93.4229,23.5851],[93.428,23.5887],[93.4198,23.612],[93.4192,23.6233],[93.4241,23.6294],[93.4168,23.6375],[93.4159,23.647],[93.4355,23.6782],[93.4362,23.6867],[93.4253,23.6891],[93.4193,23.7017],[93.4073,23.7072],[93.4061,23.7149],[93.4122,23.7174],[93.4109,23.7293],[93.4058,23.7334],[93.4038,23.7451],[93.3949,23.7494],[93.3918,23.7562],[93.4038,23.8064],[93.3988,23.8153],[93.3903,23.8177],[93.3928,23.8233],[93.3887,23.8255],[93.3849,23.8482],[93.3888,23.8653],[93.3846,23.8758],[93.3952,23.9239],[93.3917,23.9237],[93.3936,23.9291],[93.3811,23.9346],[93.3698,23.9298],[93.369,23.933]]]}},{"type":"Feature","properties":{"ac_name":"AIZAWL EAST-I","ac_no":13,"ac_category":"GEN","st_name":"MIZORAM"},"geometry":{"type":"Polygon","coordinates":[[[92.829,23.8593],[92.8054,23.8799],[92.7831,23.8812],[92.7599,23.8667],[92.7325,23.8715],[92.6995,23.8613],[92.693,23.8681],[92.6882,23.8293],[92.7234,23.8042],[92.7515,23.7784],[92.7517,23.7587],[92.7442,23.7366],[92.7488,23.727],[92.7441,23.7158],[92.7533,23.7168],[92.7605,23.6967],[92.7609,23.6765],[92.7648,23.6519],[92.7486,23.654],[92.7387,23.6464],[92.729,23.6239],[92.7543,23.6273],[92.7804,23.6127],[92.7875,23.6179],[92.7936,23.6166],[92.7964,23.6342],[92.7924,23.6599],[92.8035,23.6765],[92.8015,23.6961],[92.8075,23.6975],[92.8081,23.7149],[92.812,23.742],[92.8018,23.7694],[92.8073,23.7812],[92.8071,23.8117],[92.8268,23.8244],[92.824,23.8305],[92.8281,23.8302],[92.829,23.8593]]]}},{"type":"Feature","properties":{"ac_name":"AIZAWL WEST-I","ac_no":15,"ac_category":"ST","st_name":"MIZORAM"},"geometry":{"type":"Polygon","coordinates":[[[92.693,23.8681],[92.6618,23.8715],[92.6509,23.88],[92.64,23.8812],[92.6479,23.8547],[92.6593,23.8378],[92.6581,23.8328],[92.6434,23.8283],[92.643,23.8206],[92.653,23.8191],[92.6479,23.8119],[92.635,23.8163],[92.6221,23.7972],[92.6364,23.7937],[92.6393,23.786],[92.6372,23.7727],[92.6265,23.7631],[92.6299,23.7608],[92.6489,23.7148],[92.6645,23.7081],[92.6614,23.7006],[92.6713,23.6957],[92.6637,23.731],[92.6641,23.7563],[92.6723,23.7614],[92.6709,23.769],[92.6748,23.7706],[92.6897,23.757],[92.6979,23.7611],[92.7163,23.7611],[92.7132,23.7814],[92.7234,23.8042],[92.6882,23.8293],[92.693,23.8681]]]}},{"type":"Feature","properties":{"ac_name":"AIZAWL NORTH-I","ac_no":10,"ac_category":"ST","st_name":"MIZORAM"},"geometry":{"type":"Polygon","coordinates":[[[92.7234,23.8042],[92.7132,23.7814],[92.7163,23.7611],[92.7145,23.7489],[92.7228,23.7465],[92.7361,23.751],[92.7442,23.7366],[92.7517,23.7587],[92.7515,23.7784],[92.7234,23.8042]]]}},{"type":"Feature","properties":{"ac_name":"DAMPA","ac_no":2,"ac_category":"ST","st_name":"MIZORAM"},"geometry":{"type":"Polygon","coordinates":[[[92.6614,23.7006],[92.6645,23.7081],[92.6489,23.7148],[92.6299,23.7608],[92.6046,23.7573],[92.5951,23.7751],[92.5658,23.7847],[92.5585,23.7807],[92.5534,23.7704],[92.5526,23.7534],[92.5426,23.7429],[92.5379,23.7256],[92.5231,23.7123],[92.5175,23.7102],[92.5139,23.7149],[92.5239,23.7439],[92.5026,23.74],[92.4908,23.726],[92.4751,23.724],[92.4475,23.6846],[92.2915,23.6276],[92.296,23.6217],[92.288,23.6184],[92.2873,23.5963],[92.2895,23.5987],[92.2966,23.5886],[92.3012,23.5931],[92.3083,23.5784],[92.3065,23.5642],[92.3131,23.5558],[92.3096,23.5554],[92.3064,23.5361],[92.3174,23.5277],[92.313,23.5161],[92.3184,23.5166],[92.3176,23.494],[92.3218,23.4914],[92.3159,23.4865],[92.3262,23.4782],[92.3174,23.4713],[92.3312,23.4658],[92.3308,23.4598],[92.3258,23.4584],[92.3299,23.4541],[92.3333,23.456],[92.327,23.4492],[92.3338,23.4288],[92.3352,23.4336],[92.3461,23.4337],[92.3474,23.4134],[92.3569,23.4107],[92.3549,23.4011],[92.3524,23.4052],[92.353,23.3926],[92.3582,23.3899],[92.3519,23.3814],[92.3644,23.3799],[92.3563,23.3712],[92.3626,23.3667],[92.3697,23.374],[92.3687,23.3673],[92.3778,23.3623],[92.3754,23.3573],[92.3795,23.3519],[92.3639,23.3232],[92.3676,23.3176],[92.367,23.3235],[92.371,23.3186],[92.3758,23.3204],[92.3756,23.3136],[92.3855,23.3065],[92.3809,23.2857],[92.3879,23.2819],[92.3934,23.2664],[92.4055,23.2668],[92.4103,23.2624],[92.423,23.2643],[92.4377,23.28],[92.4334,23.2849],[92.4507,23.2871],[92.4627,23.319],[92.469,23.318],[92.472,23.3223],[92.4674,23.3425],[92.4595,23.3498],[92.4622,23.363],[92.4568,23.3658],[92.4571,23.3803],[92.4637,23.3894],[92.475,23.3904],[92.4877,23.382],[92.494,23.3906],[92.5085,23.3793],[92.5404,23.3799],[92.5549,23.3701],[92.5624,23.372],[92.5655,23.3783],[92.5758,23.3774],[92.5856,23.3848],[92.5849,23.4017],[92.5889,23.4053],[92.6184,23.3871],[92.634,23.3917],[92.644,23.3825],[92.6695,23.3835],[92.6549,23.4323],[92.6544,23.49],[92.6579,23.498],[92.6514,23.5188],[92.6372,23.5225],[92.6319,23.5343],[92.6406,23.5419],[92.645,23.5539],[92.6536,23.555],[92.6556,23.5605],[92.6573,23.5711],[92.6509,23.5775],[92.6486,23.5906],[92.6687,23.6008],[92.6717,23.6099],[92.6721,23.6238],[92.6492,23.631],[92.6493,23.6359],[92.634,23.6482],[92.6339,23.6591],[92.6575,23.6908],[92.6614,23.7006]]]}},{"type":"Feature","properties":{"ac_name":"AIZAWL NORTH-III (S","ac_no":12,"ac_category":"GEN","st_name":"MIZORAM"},"geometry":{"type":"Polygon","coordinates":[[[92.7228,23.7465],[92.7145,23.7489],[92.7163,23.7611],[92.6979,23.7611],[92.6897,23.757],[92.6748,23.7706],[92.6709,23.769],[92.6723,23.7614],[92.6641,23.7563],[92.6637,23.731],[92.6768,23.7266],[92.6979,23.7271],[92.6985,23.7206],[92.687,23.7159],[92.6868,23.7096],[92.7134,23.7153],[92.7135,23.7424],[92.722,23.743],[92.7228,23.7465]]]}},{"type":"Feature","properties":{"ac_name":"AIZAWL NORTH-II (ST","ac_no":11,"ac_category":"GEN","st_name":"MIZORAM"},"geometry":{"type":"Polygon","coordinates":[[[92.7442,23.7366],[92.7361,23.751],[92.7228,23.7465],[92.722,23.743],[92.7135,23.7424],[92.7134,23.7153],[92.7441,23.7158],[92.7488,23.727],[92.7442,23.7366]]]}},{"type":"Feature","properties":{"ac_name":"AIZAWL WEST-II","ac_no":16,"ac_category":"ST","st_name":"MIZORAM"},"geometry":{"type":"Polygon","coordinates":[[[92.6868,23.7096],[92.687,23.7159],[92.6985,23.7206],[92.6979,23.7271],[92.6768,23.7266],[92.6637,23.731],[92.6713,23.6957],[92.6884,23.6882],[92.7013,23.6889],[92.7048,23.6896],[92.7042,23.6964],[92.6868,23.7096]]]}},{"type":"Feature","properties":{"ac_name":"TAWI","ac_no":9,"ac_category":"ST","st_name":"MIZORAM"},"geometry":{"type":"Polygon","coordinates":[[[93.0425,23.6626],[92.9989,23.6628],[92.9703,23.6687],[92.9564,23.6814],[92.9369,23.6869],[92.8081,23.7149],[92.8075,23.6975],[92.8015,23.6961],[92.8035,23.6765],[92.7924,23.6599],[92.7964,23.6342],[92.7936,23.6166],[92.7967,23.6079],[92.7916,23.5919],[92.8261,23.5897],[92.8702,23.5802],[92.8671,23.5522],[92.8703,23.5094],[92.8777,23.5194],[92.9167,23.5234],[92.9444,23.5149],[92.9687,23.4783],[93.0414,23.4114],[93.0563,23.4172],[93.0417,23.4764],[93.0537,23.5564],[93.0425,23.6626]]]}},{"type":"Feature","properties":{"ac_name":"AIZAWL EAST-II","ac_no":14,"ac_category":"ST","st_name":"MIZORAM"},"geometry":{"type":"Polygon","coordinates":[[[92.7441,23.7158],[92.7134,23.7153],[92.6868,23.7096],[92.7042,23.6964],[92.7138,23.701],[92.7272,23.6952],[92.7605,23.6967],[92.7533,23.7168],[92.7441,23.7158]]]}},{"type":"Feature","properties":{"ac_name":"AIZAWL SOUTH-I","ac_no":18,"ac_category":"ST","st_name":"MIZORAM"},"geometry":{"type":"Polygon","coordinates":[[[92.7605,23.6967],[92.7272,23.6952],[92.7138,23.701],[92.7042,23.6964],[92.7048,23.6896],[92.7013,23.6889],[92.7087,23.6814],[92.7221,23.6814],[92.7609,23.6765],[92.7605,23.6967]]]}},{"type":"Feature","properties":{"ac_name":"AIZAWL WEST-III (ST","ac_no":17,"ac_category":"GEN","st_name":"MIZORAM"},"geometry":{"type":"Polygon","coordinates":[[[92.6713,23.6957],[92.6614,23.7006],[92.6575,23.6908],[92.6722,23.6882],[92.6739,23.6775],[92.6819,23.6806],[92.6892,23.6713],[92.7075,23.6728],[92.722,23.6688],[92.7264,23.6697],[92.7221,23.6814],[92.7087,23.6814],[92.7013,23.6889],[92.6884,23.6882],[92.6713,23.6957]]]}},{"type":"Feature","properties":{"ac_name":"AIZAWL SOUTH-III (S","ac_no":20,"ac_category":"GEN","st_name":"MIZORAM"},"geometry":{"type":"Polygon","coordinates":[[[92.6739,23.6775],[92.6722,23.6882],[92.6575,23.6908],[92.6339,23.6591],[92.634,23.6482],[92.6493,23.6359],[92.6492,23.631],[92.6721,23.6238],[92.6717,23.6099],[92.6687,23.6008],[92.6486,23.5906],[92.6509,23.5775],[92.6573,23.5711],[92.6556,23.5605],[92.6536,23.555],[92.645,23.5539],[92.6406,23.5419],[92.6319,23.5343],[92.6372,23.5225],[92.6514,23.5188],[92.6579,23.498],[92.6544,23.49],[92.6549,23.4323],[92.6695,23.3835],[92.6753,23.3796],[92.6718,23.3693],[92.6815,23.3679],[92.6875,23.3556],[92.6862,23.3288],[92.6989,23.2977],[92.709,23.2987],[92.733,23.3144],[92.778,23.3003],[92.7881,23.2765],[92.8094,23.2736],[92.8243,23.2994],[92.8504,23.3234],[92.8309,23.3341],[92.8088,23.3687],[92.836,23.4284],[92.8492,23.481],[92.8615,23.4977],[92.7918,23.5044],[92.7836,23.5005],[92.7816,23.533],[92.7743,23.5398],[92.7755,23.5457],[92.7912,23.5502],[92.7916,23.5919],[92.7967,23.6079],[92.7936,23.6166],[92.7875,23.6179],[92.7804,23.6127],[92.7543,23.6273],[92.729,23.6239],[92.7387,23.6464],[92.7154,23.662],[92.7092,23.653],[92.687,23.6523],[92.6739,23.6775]]]}},{"type":"Feature","properties":{"ac_name":"AIZAWL SOUTH-II (ST","ac_no":19,"ac_category":"GEN","st_name":"MIZORAM"},"geometry":{"type":"Polygon","coordinates":[[[92.7609,23.6765],[92.7221,23.6814],[92.7264,23.6697],[92.722,23.6688],[92.7075,23.6728],[92.6892,23.6713],[92.6819,23.6806],[92.6739,23.6775],[92.687,23.6523],[92.7092,23.653],[92.7154,23.662],[92.7387,23.6464],[92.7486,23.654],[92.7648,23.6519],[92.7609,23.6765]]]}},{"type":"Feature","properties":{"ac_name":"TUIKUM","ac_no":27,"ac_category":"ST","st_name":"MIZORAM"},"geometry":{"type":"Polygon","coordinates":[[[92.8703,23.5094],[92.8671,23.5522],[92.8702,23.5802],[92.8261,23.5897],[92.7916,23.5919],[92.7912,23.5502],[92.7755,23.5457],[92.7743,23.5398],[92.7816,23.533],[92.7836,23.5005],[92.7918,23.5044],[92.8615,23.4977],[92.8492,23.481],[92.836,23.4284],[92.8088,23.3687],[92.8309,23.3341],[92.8589,23.3311],[92.8863,23.2748],[92.8878,23.25],[92.9056,23.2532],[92.9077,23.2668],[92.9273,23.2779],[93.0148,23.2787],[93.0433,23.3156],[93.0376,23.3732],[93.0414,23.4114],[92.9687,23.4783],[92.9444,23.5149],[92.9167,23.5234],[92.8777,23.5194],[92.8703,23.5094]]]}},{"type":"Feature","properties":{"ac_name":"CHAMPHAI SOUTH","ac_no":24,"ac_category":"ST","st_name":"MIZORAM"},"geometry":{"type":"Polygon","coordinates":[[[93.3952,23.4918],[93.3735,23.4907],[93.3736,23.4976],[93.3592,23.5104],[93.3524,23.5027],[93.3582,23.4988],[93.362,23.4825],[93.3478,23.4818],[93.3211,23.4564],[93.3155,23.4677],[93.3086,23.4695],[93.3045,23.4598],[93.3107,23.4498],[93.2596,23.4472],[93.27,23.4042],[93.2693,23.3798],[93.2754,23.3742],[93.2734,23.3598],[93.2888,23.3186],[93.3008,23.3173],[93.3126,23.3298],[93.3234,23.3316],[93.3314,23.3385],[93.3449,23.3393],[93.3492,23.3275],[93.3688,23.3182],[93.3666,23.3221],[93.3725,23.3294],[93.362,23.3367],[93.3554,23.3526],[93.3702,23.3589],[93.3814,23.3581],[93.3838,23.362],[93.3877,23.3595],[93.3911,23.3697],[93.3864,23.3744],[93.3929,23.3752],[93.396,23.3829],[93.4014,23.3842],[93.388,23.4213],[93.3878,23.4466],[93.3901,23.4504],[93.3946,23.4479],[93.3921,23.4579],[93.3991,23.472],[93.3925,23.4787],[93.3952,23.4918]]]}},{"type":"Feature","properties":{"ac_name":"TUICHANG","ac_no":22,"ac_category":"ST","st_name":"MIZORAM"},"geometry":{"type":"Polygon","coordinates":[[[93.1896,23.513],[93.1532,23.5227],[93.1037,23.5171],[93.0941,23.3879],[93.0778,23.3184],[93.0535,23.275],[93.0404,23.2651],[93.0109,23.2705],[93.0096,23.2628],[93.0348,23.2453],[93.0474,23.214],[93.1276,23.1954],[93.1622,23.1799],[93.1642,23.1734],[93.1719,23.1901],[93.1661,23.1988],[93.1771,23.2045],[93.1976,23.2584],[93.2081,23.2693],[93.2077,23.2901],[93.2177,23.3236],[93.2239,23.3286],[93.2256,23.3483],[93.2417,23.3694],[93.2607,23.3718],[93.2693,23.3798],[93.27,23.4042],[93.2596,23.4472],[93.2575,23.4546],[93.2369,23.4726],[93.2098,23.485],[93.2065,23.4905],[93.209,23.5085],[93.1896,23.513]]]}},{"type":"Feature","properties":{"ac_name":"EAST TUIPUI","ac_no":25,"ac_category":"ST","st_name":"MIZORAM"},"geometry":{"type":"Polygon","coordinates":[[[93.3688,23.3182],[93.3492,23.3275],[93.3449,23.3393],[93.3314,23.3385],[93.3234,23.3316],[93.3126,23.3298],[93.3008,23.3173],[93.2888,23.3186],[93.2734,23.3598],[93.2754,23.3742],[93.2693,23.3798],[93.2607,23.3718],[93.2417,23.3694],[93.2256,23.3483],[93.2239,23.3286],[93.2177,23.3236],[93.2077,23.2901],[93.2081,23.2693],[93.1976,23.2584],[93.1771,23.2045],[93.1661,23.1988],[93.1719,23.1901],[93.1642,23.1734],[93.1804,23.1219],[93.1936,23.054],[93.2013,23.0547],[93.2023,23.0502],[93.2099,23.0479],[93.212,23.0373],[93.217,23.0344],[93.2148,23.0269],[93.2292,23.0199],[93.2288,23.0116],[93.2413,23.0067],[93.271,23.0112],[93.276,23.0042],[93.2832,23.0087],[93.2944,23.007],[93.3062,23.0212],[93.3132,23.0191],[93.3201,23.0371],[93.3274,23.0399],[93.3268,23.0476],[93.3334,23.0496],[93.3341,23.0595],[93.343,23.0588],[93.34,23.0676],[93.3514,23.0705],[93.3385,23.0742],[93.3441,23.0926],[93.3498,23.0917],[93.3534,23.0967],[93.3577,23.1093],[93.3549,23.1158],[93.3626,23.1154],[93.3656,23.1218],[93.3769,23.1268],[93.3766,23.1327],[93.3844,23.1331],[93.3865,23.1436],[93.3778,23.1409],[93.3675,23.1442],[93.3721,23.1703],[93.3681,23.1754],[93.3804,23.1869],[93.3764,23.1906],[93.3798,23.1997],[93.3747,23.2045],[93.3794,23.215],[93.388,23.2165],[93.3802,23.2252],[93.3759,23.2479],[93.3689,23.2501],[93.3735,23.2607],[93.3653,23.2687],[93.3688,23.276],[93.3621,23.2799],[93.3698,23.288],[93.3646,23.3059],[93.3713,23.3094],[93.3633,23.3129],[93.3711,23.3136],[93.3688,23.3182]]]}},{"type":"Feature","properties":{"ac_name":"THORANG","ac_no":34,"ac_category":"ST","st_name":"MIZORAM"},"geometry":{"type":"Polygon","coordinates":[[[92.6862,23.3288],[92.6875,23.3556],[92.6815,23.3679],[92.6718,23.3693],[92.6753,23.3796],[92.6695,23.3835],[92.644,23.3825],[92.634,23.3917],[92.6184,23.3871],[92.5889,23.4053],[92.5849,23.4017],[92.5856,23.3848],[92.5758,23.3774],[92.5655,23.3783],[92.5624,23.372],[92.5549,23.3701],[92.5404,23.3799],[92.5085,23.3793],[92.494,23.3906],[92.4877,23.382],[92.475,23.3904],[92.4637,23.3894],[92.4571,23.3803],[92.4568,23.3658],[92.4622,23.363],[92.4595,23.3498],[92.4674,23.3425],[92.472,23.3223],[92.469,23.318],[92.4627,23.319],[92.4507,23.2871],[92.4334,23.2849],[92.4377,23.28],[92.423,23.2643],[92.4103,23.2624],[92.4055,23.2668],[92.3934,23.2664],[92.388,23.266],[92.3887,23.26],[92.3979,23.256],[92.3951,23.2487],[92.4035,23.2409],[92.4005,23.2364],[92.3463,23.2367],[92.3542,23.2201],[92.3534,23.1862],[92.3613,23.182],[92.3545,23.1788],[92.364,23.1566],[92.3973,23.159],[92.4088,23.1898],[92.4121,23.1939],[92.4249,23.1945],[92.4347,23.1604],[92.4476,23.1523],[92.4644,23.1321],[92.4643,23.0532],[92.5895,22.9632],[92.5887,22.9512],[92.5708,22.9287],[92.5429,22.9088],[92.5346,22.8805],[92.5441,22.8672],[92.5632,22.8587],[92.5788,22.844],[92.5897,22.7811],[92.6148,22.7497],[92.6382,22.737],[92.6633,22.7324],[92.6741,22.7327],[92.6692,22.7624],[92.6591,22.7704],[92.6597,22.7916],[92.6647,22.7932],[92.6694,22.8147],[92.6567,22.8385],[92.6458,22.8466],[92.64,22.8733],[92.6516,22.8863],[92.6685,22.8741],[92.686,22.8881],[92.6886,22.9196],[92.6782,22.9644],[92.6734,22.9694],[92.6708,23.0171],[92.661,23.0477],[92.6598,23.1443],[92.6152,23.2679],[92.6219,23.2984],[92.644,23.307],[92.684,23.3123],[92.681,23.3271],[92.6862,23.3288]]]}},{"type":"Feature","properties":{"ac_name":"SERCHHIP","ac_no":26,"ac_category":"ST","st_name":"MIZORAM"},"geometry":{"type":"Polygon","coordinates":[[[92.684,23.3123],[92.6887,23.308],[92.6835,23.2811],[92.6876,23.2801],[92.6902,23.2614],[92.6916,23.2228],[92.7044,23.2085],[92.7002,23.1986],[92.7081,23.1929],[92.7191,23.1927],[92.7242,23.2112],[92.7219,23.2415],[92.7331,23.24],[92.7377,23.2332],[92.7518,23.2337],[92.7554,23.2276],[92.7702,23.2341],[92.7765,23.2293],[92.7875,23.2314],[92.8135,23.2263],[92.8183,23.2421],[92.8323,23.2463],[92.846,23.2373],[92.8482,23.2243],[92.8574,23.2159],[92.8555,23.1966],[92.865,23.1736],[92.8697,23.1756],[92.8751,23.1702],[92.8841,23.17],[92.8943,23.1789],[92.9144,23.1827],[92.9178,23.1892],[92.9056,23.2532],[92.8878,23.25],[92.8863,23.2748],[92.8589,23.3311],[92.8309,23.3341],[92.8504,23.3234],[92.8243,23.2994],[92.8094,23.2736],[92.7881,23.2765],[92.778,23.3003],[92.733,23.3144],[92.709,23.2987],[92.6989,23.2977],[92.6862,23.3288],[92.681,23.3271],[92.684,23.3123]]]}},{"type":"Feature","properties":{"ac_name":"LUNGLEI WEST","ac_no":32,"ac_category":"ST","st_name":"MIZORAM"},"geometry":{"type":"Polygon","coordinates":[[[92.7081,23.1929],[92.7002,23.1986],[92.7044,23.2085],[92.6916,23.2228],[92.6902,23.2614],[92.6876,23.2801],[92.6835,23.2811],[92.6887,23.308],[92.684,23.3123],[92.644,23.307],[92.6219,23.2984],[92.6152,23.2679],[92.6598,23.1443],[92.661,23.0477],[92.6708,23.0171],[92.6734,22.9694],[92.6782,22.9644],[92.6886,22.9196],[92.686,22.8881],[92.6685,22.8741],[92.6881,22.8303],[92.7211,22.8371],[92.7225,22.8511],[92.7391,22.8507],[92.7533,22.8665],[92.7583,22.8865],[92.7675,22.8929],[92.7602,22.9073],[92.7461,22.9144],[92.7482,22.9481],[92.7363,22.9513],[92.7346,22.9556],[92.7401,22.9848],[92.7241,22.997],[92.7246,23.0104],[92.7357,23.0245],[92.7348,23.0532],[92.7123,23.1447],[92.7019,23.1634],[92.7099,23.1775],[92.7081,23.1929]]]}},{"type":"Feature","properties":{"ac_name":"HRANGTURZO","ac_no":28,"ac_category":"ST","st_name":"MIZORAM"},"geometry":{"type":"Polygon","coordinates":[[[93.0148,23.2787],[92.9273,23.2779],[92.9077,23.2668],[92.9056,23.2532],[92.9178,23.1892],[92.9352,23.1874],[92.9345,23.1721],[92.9538,23.1662],[92.958,23.131],[92.9573,23.1169],[92.9645,23.1121],[93.0186,23.0797],[93.0365,23.0817],[93.0401,23.0782],[93.0386,23.0503],[93.0429,23.0467],[93.0774,23.0367],[93.0804,23.0292],[93.0928,23.0263],[93.1218,23.0061],[93.1278,23.031],[93.1256,23.0408],[93.1349,23.0482],[93.1345,23.0599],[93.1401,23.0593],[93.1405,23.0533],[93.1512,23.054],[93.1552,23.0435],[93.1606,23.0482],[93.1686,23.0466],[93.1831,23.0597],[93.1879,23.0523],[93.1936,23.054],[93.1804,23.1219],[93.1642,23.1734],[93.1622,23.1799],[93.1276,23.1954],[93.0474,23.214],[93.0348,23.2453],[93.0096,23.2628],[93.0109,23.2705],[93.0148,23.2787]]]}},{"type":"Feature","properties":{"ac_name":"LUNGLEI NORTH","ac_no":30,"ac_category":"ST","st_name":"MIZORAM"},"geometry":{"type":"Polygon","coordinates":[[[92.9178,23.1892],[92.9144,23.1827],[92.8943,23.1789],[92.8841,23.17],[92.8751,23.1702],[92.8697,23.1756],[92.865,23.1736],[92.8555,23.1966],[92.8574,23.2159],[92.8482,23.2243],[92.846,23.2373],[92.8323,23.2463],[92.8183,23.2421],[92.8135,23.2263],[92.7875,23.2314],[92.7765,23.2293],[92.7702,23.2341],[92.7554,23.2276],[92.7518,23.2337],[92.7377,23.2332],[92.7331,23.24],[92.7219,23.2415],[92.7242,23.2112],[92.7191,23.1927],[92.7081,23.1929],[92.7099,23.1775],[92.7019,23.1634],[92.7123,23.1447],[92.7348,23.0532],[92.7357,23.0245],[92.7246,23.0104],[92.7241,22.997],[92.7401,22.9848],[92.7346,22.9556],[92.7363,22.9513],[92.7482,22.9481],[92.7461,22.9144],[92.7602,22.9073],[92.7675,22.8929],[92.7946,22.9116],[92.8085,22.9317],[92.8303,22.9487],[92.9018,22.9542],[92.8984,22.986],[92.9295,23.0023],[92.9141,23.0842],[92.9232,23.1322],[92.958,23.131],[92.9538,23.1662],[92.9345,23.1721],[92.9352,23.1874],[92.9178,23.1892]]]}},{"type":"Feature","properties":{"ac_name":"WEST TUIPUI","ac_no":35,"ac_category":"ST","st_name":"MIZORAM"},"geometry":{"type":"Polygon","coordinates":[[[92.3761,22.9474],[92.3724,22.9402],[92.3754,22.937],[92.3711,22.9361],[92.3762,22.9291],[92.3964,22.9298],[92.4009,22.9121],[92.4045,22.9177],[92.4137,22.9134],[92.4194,22.9185],[92.4199,22.9093],[92.4337,22.8859],[92.4455,22.8966],[92.4499,22.8931],[92.4484,22.8762],[92.4601,22.8706],[92.4548,22.8694],[92.4527,22.8621],[92.4612,22.8613],[92.4641,22.8543],[92.4566,22.8514],[92.4627,22.8418],[92.4528,22.8425],[92.4616,22.8303],[92.4545,22.8192],[92.4588,22.8188],[92.4612,22.8078],[92.4653,22.8099],[92.4651,22.803],[92.4718,22.7966],[92.4693,22.7825],[92.4727,22.7829],[92.4758,22.7716],[92.4735,22.7599],[92.4825,22.747],[92.4939,22.7463],[92.5002,22.7432],[92.4995,22.7385],[92.5079,22.737],[92.5055,22.7442],[92.5208,22.7614],[92.5434,22.7573],[92.5671,22.7315],[92.5775,22.738],[92.5777,22.7453],[92.5849,22.7477],[92.5987,22.7212],[92.5993,22.6957],[92.6087,22.6803],[92.6309,22.6635],[92.6392,22.6658],[92.6521,22.6848],[92.657,22.7115],[92.6636,22.7177],[92.6633,22.7324],[92.6382,22.737],[92.6148,22.7497],[92.5897,22.7811],[92.5788,22.844],[92.5632,22.8587],[92.5441,22.8672],[92.5346,22.8805],[92.5429,22.9088],[92.5708,22.9287],[92.5887,22.9512],[92.5895,22.9632],[92.4643,23.0532],[92.4644,23.1321],[92.4476,23.1523],[92.4347,23.1604],[92.4249,23.1945],[92.4121,23.1939],[92.4088,23.1898],[92.3973,23.159],[92.364,23.1566],[92.3569,23.1345],[92.3676,23.1269],[92.3577,23.103],[92.3696,23.0965],[92.372,23.0873],[92.3797,23.0865],[92.3918,23.0574],[92.382,23.0337],[92.3844,23.0285],[92.3795,23.0121],[92.3843,23.0097],[92.3839,22.9818],[92.3791,22.9811],[92.3799,22.9756],[92.3742,22.9711],[92.3761,22.9474]]]}},{"type":"Feature","properties":{"ac_name":"SOUTH TUIPUI","ac_no":29,"ac_category":"ST","st_name":"MIZORAM"},"geometry":{"type":"Polygon","coordinates":[[[93.1218,23.0061],[93.0928,23.0263],[93.0804,23.0292],[93.0774,23.0367],[93.0429,23.0467],[93.0386,23.0503],[93.0401,23.0782],[93.0365,23.0817],[93.0186,23.0797],[92.9645,23.1121],[92.9573,23.1169],[92.958,23.131],[92.9232,23.1322],[92.9141,23.0842],[92.9295,23.0023],[92.8984,22.986],[92.9018,22.9542],[92.8939,22.9302],[92.937,22.9162],[92.946,22.9074],[92.9237,22.8238],[92.9024,22.8085],[92.9026,22.7963],[92.9164,22.7787],[92.9274,22.7785],[92.9223,22.7814],[92.9226,22.7903],[92.9388,22.7905],[92.9572,22.7812],[92.977,22.7583],[93.0028,22.7543],[93.0099,22.7773],[93.016,22.785],[93.0255,22.7843],[93.0283,22.7966],[93.0526,22.7926],[93.0601,22.7948],[93.06,22.8009],[93.0754,22.8071],[93.0832,22.8048],[93.0788,22.7979],[93.0959,22.7865],[93.0942,22.8062],[93.11,22.8182],[93.1031,22.8241],[93.1128,22.8298],[93.1095,22.8332],[93.1177,22.8425],[93.1171,22.8638],[93.126,22.871],[93.1336,22.8911],[93.1294,22.9042],[93.1397,22.9142],[93.1497,22.9084],[93.1641,22.9104],[93.1628,22.9158],[93.1542,22.9178],[93.1477,22.9257],[93.145,22.946],[93.1377,22.951],[93.141,22.9584],[93.1354,22.9708],[93.1433,22.9756],[93.1386,22.9819],[93.1403,22.9897],[93.1321,22.991],[93.1253,23.0026],[93.1197,23.0024],[93.1218,23.0061]]]}},{"type":"Feature","properties":{"ac_name":"LUNGLEI EAST","ac_no":31,"ac_category":"ST","st_name":"MIZORAM"},"geometry":{"type":"Polygon","coordinates":[[[92.9018,22.9542],[92.8303,22.9487],[92.8085,22.9317],[92.7946,22.9116],[92.7675,22.8929],[92.7583,22.8865],[92.7533,22.8665],[92.7563,22.8641],[92.7867,22.8902],[92.8097,22.8985],[92.8175,22.8936],[92.8221,22.8664],[92.8323,22.8594],[92.839,22.8411],[92.8614,22.8318],[92.8659,22.8063],[92.9024,22.8085],[92.9237,22.8238],[92.946,22.9074],[92.937,22.9162],[92.8939,22.9302],[92.9018,22.9542]]]}},{"type":"Feature","properties":{"ac_name":"LUNGLEI SOUTH","ac_no":33,"ac_category":"ST","st_name":"MIZORAM"},"geometry":{"type":"Polygon","coordinates":[[[92.7533,22.8665],[92.7391,22.8507],[92.7225,22.8511],[92.7211,22.8371],[92.6881,22.8303],[92.6685,22.8741],[92.6516,22.8863],[92.64,22.8733],[92.6458,22.8466],[92.6567,22.8385],[92.6694,22.8147],[92.6647,22.7932],[92.6597,22.7916],[92.6591,22.7704],[92.6692,22.7624],[92.6741,22.7327],[92.6633,22.7324],[92.6636,22.7177],[92.657,22.7115],[92.6521,22.6848],[92.6392,22.6658],[92.6309,22.6635],[92.629,22.6575],[92.6395,22.6512],[92.6459,22.6362],[92.6442,22.6177],[92.6718,22.6254],[92.681,22.6253],[92.6941,22.6174],[92.691,22.6078],[92.6953,22.5907],[92.7098,22.5811],[92.7204,22.5647],[92.7523,22.5424],[92.7537,22.5211],[92.7616,22.4987],[92.7727,22.5025],[92.7787,22.499],[92.7747,22.5191],[92.7771,22.5316],[92.7796,22.5391],[92.7952,22.5527],[92.8008,22.5678],[92.7933,22.6056],[92.8005,22.6079],[92.8,22.6221],[92.8049,22.628],[92.8418,22.6214],[92.8806,22.5824],[92.8913,22.5829],[92.8854,22.6047],[92.8652,22.6305],[92.8658,22.6452],[92.8531,22.6461],[92.8326,22.6729],[92.8245,22.6686],[92.8158,22.6776],[92.806,22.7024],[92.8098,22.7173],[92.7935,22.7392],[92.7914,22.7539],[92.7975,22.782],[92.792,22.7876],[92.7949,22.7919],[92.8051,22.7925],[92.822,22.767],[92.838,22.7572],[92.847,22.7569],[92.853,22.7711],[92.86,22.7737],[92.8836,22.7564],[92.8901,22.7625],[92.8852,22.7941],[92.8933,22.8015],[92.9026,22.7963],[92.9024,22.8085],[92.8659,22.8063],[92.8614,22.8318],[92.839,22.8411],[92.8323,22.8594],[92.8221,22.8664],[92.8175,22.8936],[92.8097,22.8985],[92.7867,22.8902],[92.7563,22.8641],[92.7533,22.8665]]]}},{"type":"Feature","properties":{"ac_name":"LAWNGTLAI EAST","ac_no":38,"ac_category":"ST","st_name":"MIZORAM"},"geometry":{"type":"Polygon","coordinates":[[[92.9274,22.7785],[92.9164,22.7787],[92.9026,22.7963],[92.8933,22.8015],[92.8852,22.7941],[92.8901,22.7625],[92.8836,22.7564],[92.86,22.7737],[92.853,22.7711],[92.847,22.7569],[92.838,22.7572],[92.822,22.767],[92.8051,22.7925],[92.7949,22.7919],[92.792,22.7876],[92.7975,22.782],[92.7914,22.7539],[92.7935,22.7392],[92.8098,22.7173],[92.806,22.7024],[92.8158,22.6776],[92.8245,22.6686],[92.8326,22.6729],[92.8531,22.6461],[92.8658,22.6452],[92.8652,22.6305],[92.8854,22.6047],[92.8913,22.5829],[92.8965,22.5832],[92.9007,22.5755],[92.9099,22.5456],[92.9315,22.5554],[92.9419,22.5647],[92.9462,22.576],[92.952,22.6282],[92.941,22.6429],[92.9528,22.6533],[92.9778,22.6291],[92.9798,22.6224],[92.9964,22.6227],[92.9985,22.6171],[92.9925,22.6034],[93.0207,22.5656],[93.0223,22.5127],[93.026,22.5078],[93.0466,22.4988],[93.0572,22.5072],[93.0643,22.531],[93.0766,22.5462],[93.0711,22.5568],[93.0762,22.5679],[93.0925,22.5701],[93.1131,22.5594],[93.1282,22.578],[93.1384,22.5837],[93.1402,22.5927],[93.1337,22.6144],[93.1272,22.6177],[93.1283,22.624],[93.1077,22.6369],[93.1096,22.6558],[93.0954,22.6723],[93.0945,22.6806],[93.102,22.6831],[93.0966,22.6869],[93.0987,22.6943],[93.0909,22.7048],[93.1071,22.7509],[93.0997,22.7642],[93.0959,22.7865],[93.0788,22.7979],[93.0832,22.8048],[93.0754,22.8071],[93.06,22.8009],[93.0601,22.7948],[93.0526,22.7926],[93.0283,22.7966],[93.0255,22.7843],[93.016,22.785],[93.0099,22.7773],[93.0028,22.7543],[92.977,22.7583],[92.9572,22.7812],[92.9388,22.7905],[92.9226,22.7903],[92.9223,22.7814],[92.9274,22.7785]]]}},{"type":"Feature","properties":{"ac_name":"TUICHAWNG","ac_no":36,"ac_category":"ST","st_name":"MIZORAM"},"geometry":{"type":"Polygon","coordinates":[[[92.5079,22.737],[92.5167,22.7219],[92.5138,22.709],[92.529,22.6659],[92.5237,22.6583],[92.5261,22.6346],[92.5322,22.6331],[92.5272,22.6217],[92.5346,22.612],[92.5339,22.6084],[92.5295,22.6097],[92.5298,22.6044],[92.5388,22.5896],[92.5325,22.5878],[92.5383,22.5862],[92.5375,22.5748],[92.5272,22.5728],[92.5281,22.5654],[92.522,22.5597],[92.5305,22.5537],[92.5322,22.5444],[92.5398,22.5408],[92.5431,22.5139],[92.5465,22.5168],[92.5512,22.5131],[92.5463,22.5105],[92.5507,22.5097],[92.5491,22.5015],[92.5435,22.4993],[92.5509,22.4979],[92.5437,22.4907],[92.5557,22.4296],[92.5514,22.4277],[92.5564,22.4243],[92.5513,22.4231],[92.5524,22.4097],[92.5572,22.4092],[92.5545,22.4058],[92.5601,22.4016],[92.5564,22.399],[92.56,22.3959],[92.5593,22.382],[92.5719,22.3582],[92.5741,22.332],[92.5809,22.3218],[92.5779,22.311],[92.5837,22.3041],[92.5837,22.2846],[92.5804,22.2735],[92.5911,22.249],[92.5878,22.2156],[92.5944,22.2039],[92.5941,22.1813],[92.5958,22.1752],[92.6074,22.1721],[92.6086,22.1647],[92.6105,22.1382],[92.6054,22.1239],[92.5937,22.1259],[92.5891,22.1317],[92.5926,22.1386],[92.5781,22.1438],[92.5751,22.138],[92.5636,22.1338],[92.5621,22.1282],[92.5748,22.1153],[92.5918,22.0654],[92.6019,22.0609],[92.5988,22.0421],[92.5922,22.0389],[92.5993,22.0288],[92.5976,22.0093],[92.6124,21.9913],[92.611,21.9837],[92.6036,21.9821],[92.6037,21.9762],[92.6346,21.9835],[92.6518,22.0163],[92.67,22.0096],[92.6796,22.0115],[92.6809,22.0154],[92.6645,22.0306],[92.6558,22.0463],[92.6563,22.0627],[92.6396,22.1132],[92.6301,22.1284],[92.6295,22.1663],[92.6336,22.1783],[92.6265,22.209],[92.6317,22.2252],[92.6272,22.2373],[92.6303,22.2582],[92.6268,22.2702],[92.6286,22.2803],[92.6365,22.277],[92.6393,22.2819],[92.6364,22.3099],[92.6253,22.3435],[92.6334,22.3547],[92.6266,22.393],[92.6349,22.4063],[92.6333,22.4179],[92.625,22.4269],[92.6314,22.4457],[92.6195,22.4673],[92.6251,22.488],[92.6179,22.5035],[92.6216,22.5124],[92.6161,22.5397],[92.6227,22.5619],[92.6209,22.5841],[92.6319,22.584],[92.6279,22.5978],[92.6316,22.607],[92.6444,22.6118],[92.6442,22.6177],[92.6459,22.6362],[92.6395,22.6512],[92.629,22.6575],[92.6309,22.6635],[92.6087,22.6803],[92.5993,22.6957],[92.5987,22.7212],[92.5849,22.7477],[92.5777,22.7453],[92.5775,22.738],[92.5671,22.7315],[92.5434,22.7573],[92.5208,22.7614],[92.5055,22.7442],[92.5079,22.737]]]}},{"type":"Feature","properties":{"ac_name":"SAIHA","ac_no":39,"ac_category":"ST","st_name":"MIZORAM"},"geometry":{"type":"Polygon","coordinates":[[[92.9315,22.5554],[92.9379,22.5305],[92.9333,22.4828],[92.943,22.4679],[92.9487,22.4771],[92.9809,22.4788],[93.0242,22.4583],[93.0795,22.4529],[93.118,22.427],[93.1786,22.4325],[93.1769,22.4401],[93.1682,22.4432],[93.1632,22.4512],[93.1395,22.4537],[93.1321,22.4652],[93.1352,22.4908],[93.1236,22.5094],[93.1284,22.5236],[93.1064,22.5269],[93.1123,22.533],[93.1091,22.5467],[93.1131,22.5594],[93.0925,22.5701],[93.0762,22.5679],[93.0711,22.5568],[93.0766,22.5462],[93.0643,22.531],[93.0572,22.5072],[93.0466,22.4988],[93.026,22.5078],[93.0223,22.5127],[93.0207,22.5656],[92.9925,22.6034],[92.9985,22.6171],[92.9964,22.6227],[92.9798,22.6224],[92.9778,22.6291],[92.9528,22.6533],[92.941,22.6429],[92.952,22.6282],[92.9462,22.576],[92.9419,22.5647],[92.9315,22.5554]]]}},{"type":"Feature","properties":{"ac_name":"LAWNGTLAI WEST","ac_no":37,"ac_category":"ST","st_name":"MIZORAM"},"geometry":{"type":"Polygon","coordinates":[[[92.8913,22.5829],[92.8806,22.5824],[92.8418,22.6214],[92.8049,22.628],[92.8,22.6221],[92.8005,22.6079],[92.7933,22.6056],[92.8008,22.5678],[92.7952,22.5527],[92.7796,22.5391],[92.7771,22.5316],[92.7747,22.5191],[92.7787,22.499],[92.7727,22.5025],[92.7616,22.4987],[92.7537,22.5211],[92.7523,22.5424],[92.7204,22.5647],[92.7098,22.5811],[92.6953,22.5907],[92.691,22.6078],[92.6941,22.6174],[92.681,22.6253],[92.6718,22.6254],[92.6442,22.6177],[92.6444,22.6118],[92.6316,22.607],[92.6279,22.5978],[92.6319,22.584],[92.6209,22.5841],[92.6227,22.5619],[92.6161,22.5397],[92.6216,22.5124],[92.6179,22.5035],[92.6251,22.488],[92.6195,22.4673],[92.6314,22.4457],[92.625,22.4269],[92.6333,22.4179],[92.6349,22.4063],[92.6266,22.393],[92.6334,22.3547],[92.6253,22.3435],[92.6364,22.3099],[92.6393,22.2819],[92.6365,22.277],[92.6286,22.2803],[92.6268,22.2702],[92.6303,22.2582],[92.6272,22.2373],[92.6317,22.2252],[92.6265,22.209],[92.6336,22.1783],[92.6295,22.1663],[92.6301,22.1284],[92.6396,22.1132],[92.6563,22.0627],[92.6558,22.0463],[92.6645,22.0306],[92.6809,22.0154],[92.6854,22.0417],[92.6816,22.1035],[92.6878,22.1038],[92.6903,22.0723],[92.6915,22.1341],[92.6968,22.1417],[92.6947,22.1535],[92.6992,22.1551],[92.7129,22.1473],[92.727,22.1491],[92.7351,22.1342],[92.7533,22.1248],[92.76,22.1258],[92.771,22.1095],[92.7901,22.1054],[92.7978,22.0939],[92.8039,22.0983],[92.81,22.0963],[92.8178,22.0869],[92.8183,22.0752],[92.8365,22.0722],[92.8409,22.0595],[92.8511,22.0654],[92.8451,22.0817],[92.842,22.1156],[92.8451,22.1353],[92.8316,22.2561],[92.8311,22.2755],[92.8371,22.2882],[92.8271,22.3012],[92.8215,22.326],[92.8227,22.3312],[92.8388,22.332],[92.8492,22.3238],[92.8625,22.3246],[92.88,22.3577],[92.929,22.3956],[92.9401,22.3896],[92.9357,22.3851],[92.9376,22.3799],[92.9537,22.3731],[92.9596,22.3783],[92.9636,22.3936],[92.9496,22.4017],[92.9397,22.4394],[92.9387,22.4588],[92.943,22.4679],[92.9333,22.4828],[92.9379,22.5305],[92.9315,22.5554],[92.9099,22.5456],[92.9007,22.5755],[92.8965,22.5832],[92.8913,22.5829]]]}},{"type":"Feature","properties":{"ac_name":"PALAK","ac_no":40,"ac_category":"ST","st_name":"MIZORAM"},"geometry":{"type":"Polygon","coordinates":[[[93.1786,22.4325],[93.118,22.427],[93.0795,22.4529],[93.0242,22.4583],[92.9809,22.4788],[92.9487,22.4771],[92.943,22.4679],[92.9387,22.4588],[92.9397,22.4394],[92.9496,22.4017],[92.9636,22.3936],[92.9596,22.3783],[92.9537,22.3731],[92.9376,22.3799],[92.9357,22.3851],[92.9401,22.3896],[92.929,22.3956],[92.88,22.3577],[92.8625,22.3246],[92.8492,22.3238],[92.8388,22.332],[92.8227,22.3312],[92.8215,22.326],[92.8271,22.3012],[92.8371,22.2882],[92.8311,22.2755],[92.8316,22.2561],[92.8451,22.1353],[92.842,22.1156],[92.8451,22.0817],[92.8511,22.0654],[92.8579,22.0676],[92.8627,22.0627],[92.8645,22.0242],[92.8797,22.0223],[92.8784,22.0151],[92.8913,22.0115],[92.9035,21.9414],[92.912,21.9518],[92.9119,21.9664],[92.9214,21.9929],[92.9295,21.9962],[92.935,22.0061],[92.9343,22.0106],[92.9285,22.0087],[92.9266,22.0154],[92.9398,22.0141],[92.9512,22.03],[92.9599,22.0262],[92.9643,22.0112],[92.978,21.9982],[92.9809,21.9812],[93.0008,21.9784],[93.0044,22.0171],[92.9945,22.0314],[92.9975,22.0361],[92.9941,22.0422],[93.0018,22.0676],[93.0069,22.0714],[93.0053,22.0805],[93.0119,22.0889],[93.0045,22.1047],[93.0473,22.0987],[93.0592,22.1012],[93.0567,22.122],[93.0446,22.1379],[93.0391,22.1392],[93.0436,22.1432],[93.0366,22.1448],[93.0488,22.1694],[93.0378,22.1954],[93.0458,22.203],[93.0572,22.2017],[93.0627,22.2078],[93.0885,22.1968],[93.1109,22.2043],[93.1236,22.174],[93.1507,22.1763],[93.1612,22.1965],[93.1483,22.2118],[93.1519,22.2173],[93.1473,22.2294],[93.1394,22.2355],[93.1433,22.2386],[93.1417,22.2457],[93.1474,22.2497],[93.1628,22.2502],[93.1771,22.246],[93.1993,22.256],[93.202,22.2648],[93.1937,22.2882],[93.1992,22.2941],[93.1898,22.3005],[93.1954,22.3016],[93.1906,22.3091],[93.1957,22.3144],[93.1889,22.3216],[93.1966,22.329],[93.1857,22.3399],[93.1881,22.3652],[93.1834,22.3737],[93.1898,22.3826],[93.1818,22.3949],[93.1874,22.4032],[93.1817,22.4176],[93.1856,22.425],[93.1786,22.4325]]]}}]}