{"type":"FeatureCollection","features":[{"type":"Feature","properties":{"ac_name":"TIZIT","ac_no":41,"ac_category":"GEN","st_name":"NAGALAND"},"geometry":{"type":"Polygon","coordinates":[[[94.94575,26.93518],[94.93099,26.93249],[94.92347,26.94642],[94.91462,26.93686],[94.87899,26.92197],[94.86552,26.90838],[94.85038,26.8749],[94.84284,26.86846],[94.83698,26.8692],[94.83444,26.86015],[94.8185,26.8485],[94.86775,26.82831],[94.89296,26.84388],[94.94337,26.84948],[94.95922,26.84593],[94.96977,26.83296],[94.97836,26.80382],[94.99068,26.78882],[95.00138,26.785],[95.01255,26.7847],[95.08605,26.80503],[95.10495,26.76934],[95.12151,26.75571],[95.16057,26.7515],[95.22324,26.75964],[95.2325,26.7682],[95.2288,26.77534],[95.24219,26.78342],[95.20828,26.79509],[95.212,26.79949],[95.20473,26.8047],[95.19732,26.82258],[95.19698,26.8361],[95.20293,26.84635],[95.18696,26.84779],[95.18095,26.85603],[95.18599,26.86573],[95.19955,26.87097],[95.20866,26.88234],[95.22806,26.88077],[95.22852,26.89214],[95.23191,26.91971],[95.22607,26.92655],[95.21217,26.93011],[95.20663,26.94215],[95.20905,26.95254],[95.202,26.9576],[95.2113,26.96628],[95.2016,26.97388],[95.20235,26.98202],[95.19149,26.98486],[95.19051,26.99289],[95.19696,26.99684],[95.19462,27.03171],[95.19311,27.03545],[95.14606,26.99668],[95.11194,26.9809],[95.10602,26.96562],[95.09229,26.95584],[95.03416,26.93559],[95.01646,26.92104],[94.99107,26.92075],[94.98948,26.91386],[94.98198,26.91297],[94.97606,26.92133],[94.9673,26.92322],[94.96107,26.93699],[94.9551,26.93975],[94.94575,26.93518]]]}},{"type":"Feature","properties":{"ac_name":"TAPI","ac_no":43,"ac_category":"GEN","st_name":"NAGALAND"},"geometry":{"type":"Polygon","coordinates":[[[95.22324,26.75964],[95.16057,26.7515],[95.12151,26.75571],[95.10495,26.76934],[95.08605,26.80503],[95.01255,26.7847],[95.00138,26.785],[94.99068,26.78882],[94.97836,26.80382],[94.96977,26.83296],[94.95922,26.84593],[94.94337,26.84948],[94.89296,26.84388],[94.86775,26.82831],[94.87219,26.82334],[94.87613,26.77282],[94.89145,26.74845],[94.8951,26.71252],[94.9177,26.69824],[94.9695,26.72373],[94.98907,26.73442],[95.00314,26.73379],[95.01682,26.7214],[95.05136,26.72952],[95.06118,26.72762],[95.07982,26.70552],[95.09255,26.62855],[95.12054,26.62556],[95.12135,26.64828],[95.12554,26.6578],[95.13537,26.66313],[95.14557,26.68848],[95.17159,26.71025],[95.20992,26.72867],[95.21944,26.74582],[95.21485,26.74816],[95.2176,26.75589],[95.22324,26.75964]]]}},{"type":"Feature","properties":{"ac_name":"WAKCHING","ac_no":42,"ac_category":"GEN","st_name":"NAGALAND"},"geometry":{"type":"Polygon","coordinates":[[[94.86775,26.82831],[94.8185,26.8485],[94.82123,26.84203],[94.813,26.8336],[94.81443,26.81966],[94.80662,26.81844],[94.80477,26.81409],[94.79529,26.81471],[94.80346,26.80258],[94.78876,26.79603],[94.8133,26.79219],[94.80886,26.78507],[94.81537,26.78394],[94.81456,26.77439],[94.79365,26.76834],[94.79841,26.76499],[94.80497,26.76768],[94.79805,26.76077],[94.80439,26.74902],[94.81582,26.74344],[94.82628,26.72419],[94.83424,26.71856],[94.81493,26.69572],[94.80552,26.69738],[94.80522,26.68922],[94.78816,26.69854],[94.77982,26.69773],[94.79011,26.6883],[94.78748,26.67786],[94.78112,26.67301],[94.78624,26.66772],[94.77952,26.6586],[94.78753,26.65491],[94.78671,26.63367],[94.80368,26.6303],[94.80995,26.62474],[94.85383,26.66498],[94.91994,26.67528],[94.95118,26.67371],[94.9893,26.63776],[94.98753,26.68897],[94.9695,26.72373],[94.9177,26.69824],[94.8951,26.71252],[94.89145,26.74845],[94.87613,26.77282],[94.87219,26.82334],[94.86775,26.82831]]]}},{"type":"Feature","properties":{"ac_name":"TAMLU","ac_no":49,"ac_category":"GEN","st_name":"NAGALAND"},"geometry":{"type":"Polygon","coordinates":[[[94.73863,26.76868],[94.73627,26.74956],[94.75668,26.72947],[94.7436,26.73151],[94.74905,26.69839],[94.72402,26.69805],[94.72833,26.69511],[94.71962,26.68073],[94.66763,26.6477],[94.67851,26.64786],[94.68665,26.63958],[94.70682,26.63839],[94.72156,26.62224],[94.71962,26.61078],[94.73065,26.60568],[94.73273,26.59489],[94.73278,26.5949],[94.74252,26.60843],[94.75524,26.61345],[94.76004,26.61111],[94.77249,26.56333],[94.81433,26.54075],[94.88686,26.54893],[94.88265,26.55443],[94.88554,26.55631],[94.88963,26.55113],[94.89385,26.56007],[94.88258,26.56376],[94.88725,26.56597],[94.8805,26.57317],[94.87992,26.58213],[94.89316,26.58903],[94.89004,26.59213],[94.88484,26.58934],[94.88381,26.59506],[94.89187,26.5973],[94.89389,26.60086],[94.88969,26.6036],[94.89481,26.60385],[94.88458,26.6064],[94.88423,26.61513],[94.87389,26.60883],[94.87026,26.61352],[94.85525,26.61007],[94.83073,26.62231],[94.80995,26.62474],[94.80368,26.6303],[94.78671,26.63367],[94.78753,26.65491],[94.77952,26.6586],[94.78624,26.66772],[94.78112,26.67301],[94.78748,26.67786],[94.79011,26.6883],[94.77982,26.69773],[94.78816,26.69854],[94.80522,26.68922],[94.80552,26.69738],[94.81493,26.69572],[94.83424,26.71856],[94.82628,26.72419],[94.81582,26.74344],[94.80439,26.74902],[94.79805,26.76077],[94.80497,26.76768],[94.79841,26.76499],[94.79365,26.76834],[94.81456,26.77439],[94.81537,26.78394],[94.80886,26.78507],[94.8133,26.79219],[94.78876,26.79603],[94.77015,26.78922],[94.75837,26.76644],[94.74029,26.77594],[94.73863,26.76868]]]}},{"type":"Feature","properties":{"ac_name":"TULI","ac_no":21,"ac_category":"GEN","st_name":"NAGALAND"},"geometry":{"type":"Polygon","coordinates":[[[94.73863,26.76868],[94.69937,26.7378],[94.6856,26.72913],[94.61952,26.71199],[94.62086,26.72303],[94.608,26.72869],[94.6095,26.73701],[94.59607,26.73416],[94.59408,26.72531],[94.59115,26.7207],[94.60173,26.71928],[94.60348,26.71291],[94.59335,26.71432],[94.59416,26.69685],[94.57721,26.70042],[94.56761,26.69206],[94.57196,26.68648],[94.56098,26.68572],[94.56376,26.63815],[94.55949,26.61946],[94.56368,26.5953],[94.55416,26.57534],[94.55559,26.5534],[94.56849,26.54285],[94.59167,26.54139],[94.59823,26.58803],[94.60999,26.60958],[94.67431,26.58921],[94.69951,26.58742],[94.73273,26.59489],[94.73065,26.60568],[94.71962,26.61078],[94.72156,26.62224],[94.70682,26.63839],[94.68665,26.63958],[94.67851,26.64786],[94.66763,26.6477],[94.71962,26.68073],[94.72833,26.69511],[94.72402,26.69805],[94.74905,26.69839],[94.7436,26.73151],[94.75668,26.72947],[94.73627,26.74956],[94.73863,26.76868]]]}},{"type":"Feature","properties":{"ac_name":"PHOMCHING","ac_no":44,"ac_category":"GEN","st_name":"NAGALAND"},"geometry":{"type":"Polygon","coordinates":[[[95.20992,26.72867],[95.17159,26.71025],[95.14557,26.68848],[95.13537,26.66313],[95.12554,26.6578],[95.12135,26.64828],[95.12054,26.62556],[95.14863,26.61272],[95.16347,26.62154],[95.16657,26.63412],[95.18104,26.64298],[95.19276,26.64116],[95.20845,26.64781],[95.23392,26.68246],[95.23018,26.694],[95.23282,26.70579],[95.22576,26.71026],[95.22206,26.72236],[95.20992,26.72867]]]}},{"type":"Feature","properties":{"ac_name":"MON TOWN","ac_no":46,"ac_category":"GEN","st_name":"NAGALAND"},"geometry":{"type":"Polygon","coordinates":[[[94.9695,26.72373],[94.98753,26.68897],[94.9893,26.63776],[94.99003,26.62769],[95.01053,26.62097],[95.02514,26.57567],[95.04273,26.57016],[95.05339,26.58264],[95.04409,26.59732],[95.04796,26.61237],[95.09255,26.62855],[95.07982,26.70552],[95.06118,26.72762],[95.05136,26.72952],[95.01682,26.7214],[95.00314,26.73379],[94.98907,26.73442],[94.9695,26.72373]]]}},{"type":"Feature","properties":{"ac_name":"ABOI","ac_no":47,"ac_category":"GEN","st_name":"NAGALAND"},"geometry":{"type":"Polygon","coordinates":[[[94.99003,26.62769],[94.9893,26.63776],[94.95118,26.67371],[94.91994,26.67528],[94.85383,26.66498],[94.80995,26.62474],[94.83073,26.62231],[94.85525,26.61007],[94.87026,26.61352],[94.87389,26.60883],[94.88423,26.61513],[94.88458,26.6064],[94.89481,26.60385],[94.88969,26.6036],[94.89389,26.60086],[94.89187,26.5973],[94.88381,26.59506],[94.88484,26.58934],[94.89004,26.59213],[94.89316,26.58903],[94.87992,26.58213],[94.8805,26.57317],[94.88725,26.56597],[94.88258,26.56376],[94.89385,26.56007],[94.88963,26.55113],[94.88554,26.55631],[94.88265,26.55443],[94.88686,26.54893],[94.894,26.53254],[94.89264,26.51167],[94.93523,26.51963],[94.98527,26.53981],[94.97592,26.57088],[94.99003,26.62769]]]}},{"type":"Feature","properties":{"ac_name":"ALUNGTAKI","ac_no":30,"ac_category":"GEN","st_name":"NAGALAND"},"geometry":{"type":"Polygon","coordinates":[[[94.56098,26.68572],[94.56204,26.7051],[94.54991,26.70195],[94.54792,26.70617],[94.53966,26.70629],[94.52708,26.69958],[94.52405,26.69601],[94.52099,26.69929],[94.51808,26.68244],[94.51327,26.68019],[94.50824,26.68566],[94.50938,26.68159],[94.49271,26.66615],[94.48542,26.66808],[94.46042,26.66202],[94.45823,26.65379],[94.45303,26.65252],[94.46581,26.63308],[94.45386,26.63193],[94.45144,26.63637],[94.43325,26.62094],[94.40842,26.61296],[94.40312,26.61105],[94.40167,26.59382],[94.40754,26.59167],[94.41335,26.57743],[94.40574,26.56808],[94.40649,26.55601],[94.4019,26.5546],[94.4061,26.5492],[94.401,26.54843],[94.40599,26.54432],[94.39643,26.54296],[94.40092,26.5345],[94.39514,26.53352],[94.39586,26.52756],[94.38532,26.53069],[94.3852,26.52595],[94.3758,26.52169],[94.37173,26.50593],[94.34779,26.50458],[94.35288,26.49945],[94.34655,26.49213],[94.35284,26.49022],[94.34654,26.48608],[94.34456,26.4888],[94.33953,26.48065],[94.3255,26.48211],[94.3263,26.47559],[94.31953,26.47439],[94.32373,26.46563],[94.31836,26.46538],[94.31573,26.45825],[94.30516,26.43925],[94.29875,26.43757],[94.2902,26.41793],[94.29077,26.40709],[94.29704,26.4061],[94.30333,26.39621],[94.30126,26.37716],[94.32365,26.40279],[94.3295,26.38991],[94.34041,26.38036],[94.40242,26.43992],[94.4342,26.48583],[94.49087,26.52825],[94.52103,26.56881],[94.56368,26.5953],[94.55949,26.61946],[94.56376,26.63815],[94.56098,26.68572]]]}},{"type":"Feature","properties":{"ac_name":"TEHOK","ac_no":45,"ac_category":"GEN","st_name":"NAGALAND"},"geometry":{"type":"Polygon","coordinates":[[[95.12054,26.62556],[95.09255,26.62855],[95.04796,26.61237],[95.04409,26.59732],[95.05339,26.58264],[95.04273,26.57016],[95.02514,26.57567],[95.01053,26.62097],[94.99003,26.62769],[94.97592,26.57088],[94.98527,26.53981],[95.04228,26.55015],[95.06234,26.54886],[95.11353,26.53153],[95.10722,26.54148],[95.1253,26.5577],[95.13929,26.55612],[95.14098,26.56672],[95.15427,26.58282],[95.14684,26.59228],[95.14863,26.61272],[95.12054,26.62556]]]}},{"type":"Feature","properties":{"ac_name":"LONGLENG","ac_no":50,"ac_category":"GEN","st_name":"NAGALAND"},"geometry":{"type":"Polygon","coordinates":[[[94.88686,26.54893],[94.81433,26.54075],[94.77249,26.56333],[94.76004,26.61111],[94.75524,26.61345],[94.74252,26.60843],[94.73278,26.5949],[94.73273,26.59489],[94.72936,26.58277],[94.7248,26.5826],[94.72554,26.56502],[94.68651,26.52476],[94.74652,26.49138],[94.77528,26.46108],[94.80356,26.4198],[94.82624,26.40644],[94.85916,26.39389],[94.87064,26.39721],[94.89611,26.41542],[94.89985,26.43798],[94.90275,26.44364],[94.89895,26.44662],[94.90593,26.45446],[94.89711,26.47247],[94.88917,26.4757],[94.89647,26.48197],[94.89128,26.48619],[94.89054,26.50184],[94.89442,26.49909],[94.89762,26.5049],[94.89264,26.51167],[94.894,26.53254],[94.88686,26.54893]]]}},{"type":"Feature","properties":{"ac_name":"ARKAKONG","ac_no":22,"ac_category":"GEN","st_name":"NAGALAND"},"geometry":{"type":"Polygon","coordinates":[[[94.73273,26.59489],[94.69951,26.58742],[94.67431,26.58921],[94.60999,26.60958],[94.59823,26.58803],[94.59167,26.54139],[94.58329,26.52223],[94.54408,26.47439],[94.58271,26.45854],[94.60468,26.45618],[94.63668,26.47015],[94.69044,26.4756],[94.69431,26.49722],[94.68494,26.51606],[94.68651,26.52476],[94.72554,26.56502],[94.7248,26.5826],[94.72936,26.58277],[94.73273,26.59489]]]}},{"type":"Feature","properties":{"ac_name":"JANGPETKONG","ac_no":29,"ac_category":"GEN","st_name":"NAGALAND"},"geometry":{"type":"Polygon","coordinates":[[[94.59167,26.54139],[94.56849,26.54285],[94.55559,26.5534],[94.55416,26.57534],[94.56368,26.5953],[94.52103,26.56881],[94.49087,26.52825],[94.4342,26.48583],[94.40242,26.43992],[94.34041,26.38036],[94.35058,26.37224],[94.35854,26.35687],[94.35051,26.33978],[94.34277,26.33634],[94.34348,26.33142],[94.35665,26.33531],[94.41385,26.37496],[94.44217,26.40025],[94.47828,26.42298],[94.54408,26.47439],[94.58329,26.52223],[94.59167,26.54139]]]}},{"type":"Feature","properties":{"ac_name":"MOKA","ac_no":48,"ac_category":"GEN","st_name":"NAGALAND"},"geometry":{"type":"Polygon","coordinates":[[[95.11353,26.53153],[95.06234,26.54886],[95.04228,26.55015],[94.98527,26.53981],[94.93523,26.51963],[94.89264,26.51167],[94.89762,26.5049],[94.89442,26.49909],[94.89054,26.50184],[94.89128,26.48619],[94.89647,26.48197],[94.88917,26.4757],[94.89711,26.47247],[94.90593,26.45446],[94.89895,26.44662],[94.90275,26.44364],[94.89985,26.43798],[94.91732,26.43457],[94.93349,26.43922],[94.94054,26.45062],[94.96124,26.45831],[94.9793,26.48073],[94.9965,26.49203],[95.01447,26.49337],[95.02478,26.4871],[95.03991,26.48588],[95.04629,26.4755],[95.05356,26.47916],[95.07283,26.47226],[95.0965,26.49344],[95.09999,26.50588],[95.11365,26.51765],[95.11353,26.53153]]]}},{"type":"Feature","properties":{"ac_name":"BHANDARI","ac_no":40,"ac_category":"GEN","st_name":"NAGALAND"},"geometry":{"type":"Polygon","coordinates":[[[94.31573,26.45825],[94.29987,26.46369],[94.28969,26.47994],[94.28084,26.535],[94.28608,26.5428],[94.28133,26.54796],[94.28435,26.56135],[94.25607,26.54135],[94.23704,26.50612],[94.22786,26.50145],[94.20665,26.4863],[94.20212,26.46908],[94.18527,26.45902],[94.17126,26.43025],[94.17529,26.42457],[94.17156,26.41624],[94.17739,26.38245],[94.17046,26.36223],[94.16079,26.35482],[94.16137,26.34709],[94.17259,26.35072],[94.17739,26.34645],[94.17156,26.33822],[94.14524,26.33072],[94.1383,26.33633],[94.11576,26.32936],[94.11572,26.32325],[94.12218,26.31815],[94.10576,26.32035],[94.09949,26.31378],[94.09858,26.30301],[94.08751,26.29336],[94.08404,26.2832],[94.07483,26.28346],[94.07444,26.26382],[94.06819,26.25658],[94.04741,26.24922],[94.03613,26.2257],[94.03194,26.19793],[94.00775,26.18273],[94.00117,26.17219],[94.00275,26.15886],[93.9964,26.15363],[93.9951,26.1482],[94.00345,26.14096],[93.99792,26.13134],[93.9871,26.13142],[93.99781,26.12833],[93.98688,26.11402],[93.99751,26.10843],[93.98928,26.09742],[93.98867,26.08655],[93.98193,26.08162],[93.98721,26.06676],[93.97056,26.04654],[93.97052,26.04033],[93.9626,26.03675],[93.95975,26.01225],[93.95296,26.00339],[93.96007,25.99429],[93.95485,25.96895],[93.9692,25.95585],[93.9689,25.93546],[93.97835,25.9277],[93.98011,25.92118],[93.98939,25.92076],[93.99493,25.92546],[93.99129,25.92732],[94.0132,25.93924],[94.03882,25.94052],[94.05038,25.95263],[94.08642,25.96665],[94.08674,25.97542],[94.0981,25.98343],[94.10808,26.01474],[94.13104,26.03881],[94.0417,26.04246],[94.0409,26.05345],[94.044,26.06229],[94.1534,26.17866],[94.23743,26.25016],[94.20546,26.28715],[94.22059,26.29563],[94.28647,26.29703],[94.30049,26.30471],[94.35324,26.31602],[94.366,26.33663],[94.35665,26.33531],[94.34348,26.33142],[94.34277,26.33634],[94.35051,26.33978],[94.35854,26.35687],[94.35058,26.37224],[94.34041,26.38036],[94.3295,26.38991],[94.32365,26.40279],[94.30126,26.37716],[94.30333,26.39621],[94.29704,26.4061],[94.29077,26.40709],[94.2902,26.41793],[94.29875,26.43757],[94.30516,26.43925],[94.31573,26.45825]]]}},{"type":"Feature","properties":{"ac_name":"NOKSEN","ac_no":51,"ac_category":"GEN","st_name":"NAGALAND"},"geometry":{"type":"Polygon","coordinates":[[[94.68651,26.52476],[94.68494,26.51606],[94.69431,26.49722],[94.69044,26.4756],[94.7059,26.45769],[94.70806,26.45257],[94.7037,26.44993],[94.71062,26.44555],[94.71169,26.43742],[94.70079,26.43099],[94.70462,26.42547],[94.69964,26.4183],[94.70245,26.40844],[94.69332,26.4128],[94.68691,26.40659],[94.68892,26.3962],[94.67944,26.38942],[94.67813,26.38132],[94.67091,26.38226],[94.6701,26.37665],[94.66263,26.3807],[94.65747,26.37576],[94.66376,26.3719],[94.66216,26.36567],[94.65323,26.36148],[94.65128,26.3515],[94.65751,26.34742],[94.68094,26.34254],[94.72281,26.34544],[94.78135,26.37017],[94.79247,26.36997],[94.81938,26.35799],[94.87071,26.35616],[94.92,26.34637],[94.92311,26.39617],[94.90718,26.39781],[94.89611,26.41542],[94.87064,26.39721],[94.85916,26.39389],[94.82624,26.40644],[94.80356,26.4198],[94.77528,26.46108],[94.74652,26.49138],[94.68651,26.52476]]]}},{"type":"Feature","properties":{"ac_name":"TOBU","ac_no":55,"ac_category":"GEN","st_name":"NAGALAND"},"geometry":{"type":"Polygon","coordinates":[[[95.07283,26.47226],[95.05356,26.47916],[95.04629,26.4755],[95.03991,26.48588],[95.02478,26.4871],[95.01447,26.49337],[94.9965,26.49203],[94.9793,26.48073],[94.96124,26.45831],[94.94054,26.45062],[94.93349,26.43922],[94.91732,26.43457],[94.89985,26.43798],[94.89611,26.41542],[94.90718,26.39781],[94.92311,26.39617],[94.92,26.34637],[94.9247,26.32671],[94.93969,26.31692],[94.96238,26.31269],[94.97909,26.31637],[94.998,26.31429],[95.04741,26.35458],[95.08114,26.37369],[95.10812,26.39522],[95.0998,26.39402],[95.09646,26.40074],[95.104,26.42055],[95.08444,26.44732],[95.07258,26.44771],[95.06675,26.44157],[95.06316,26.44464],[95.06175,26.44989],[95.07283,26.47226]]]}},{"type":"Feature","properties":{"ac_name":"ANGETYONGPANG","ac_no":24,"ac_category":"GEN","st_name":"NAGALAND"},"geometry":{"type":"Polygon","coordinates":[[[94.69044,26.4756],[94.63668,26.47015],[94.60468,26.45618],[94.61041,26.42827],[94.60625,26.41049],[94.59241,26.39648],[94.57688,26.36801],[94.52885,26.34668],[94.49267,26.34863],[94.50335,26.33657],[94.54253,26.33431],[94.5529,26.33687],[94.56669,26.33357],[94.57547,26.32264],[94.60575,26.33039],[94.6247,26.3293],[94.62892,26.33409],[94.638,26.32991],[94.63859,26.33662],[94.6528,26.34125],[94.6511,26.34795],[94.65751,26.34742],[94.65128,26.3515],[94.65323,26.36148],[94.66216,26.36567],[94.66376,26.3719],[94.65747,26.37576],[94.66263,26.3807],[94.6701,26.37665],[94.67091,26.38226],[94.67813,26.38132],[94.67944,26.38942],[94.68892,26.3962],[94.68691,26.40659],[94.69332,26.4128],[94.70245,26.40844],[94.69964,26.4183],[94.70462,26.42547],[94.70079,26.43099],[94.71169,26.43742],[94.71062,26.44555],[94.7037,26.44993],[94.70806,26.45257],[94.7059,26.45769],[94.69044,26.4756]]]}},{"type":"Feature","properties":{"ac_name":"IMPUR","ac_no":23,"ac_category":"GEN","st_name":"NAGALAND"},"geometry":{"type":"Polygon","coordinates":[[[94.60468,26.45618],[94.58271,26.45854],[94.54408,26.47439],[94.47828,26.42298],[94.44217,26.40025],[94.49267,26.34863],[94.52885,26.34668],[94.57688,26.36801],[94.59241,26.39648],[94.60625,26.41049],[94.61041,26.42827],[94.60468,26.45618]]]}},{"type":"Feature","properties":{"ac_name":"NOKLAK","ac_no":56,"ac_category":"GEN","st_name":"NAGALAND"},"geometry":{"type":"Polygon","coordinates":[[[95.10812,26.39522],[95.08114,26.37369],[95.04741,26.35458],[94.998,26.31429],[94.98555,26.29558],[94.97176,26.19958],[94.97021,26.1541],[94.98088,26.15027],[94.99134,26.1537],[95.03217,26.18121],[95.03779,26.16969],[95.03438,26.15815],[95.01684,26.13907],[95.01981,26.13059],[95.04284,26.11256],[95.09192,26.12558],[95.12636,26.12921],[95.11894,26.1408],[95.12356,26.14527],[95.11893,26.14832],[95.11715,26.16294],[95.12656,26.17807],[95.12224,26.18612],[95.14253,26.21155],[95.12004,26.22524],[95.11444,26.23342],[95.12723,26.25372],[95.11941,26.26487],[95.12825,26.29318],[95.1281,26.30173],[95.12231,26.3072],[95.12594,26.32341],[95.12283,26.33071],[95.12824,26.33958],[95.12109,26.34958],[95.1322,26.37774],[95.12815,26.38598],[95.10812,26.39522]]]}},{"type":"Feature","properties":{"ac_name":"KORIDANG","ac_no":28,"ac_category":"GEN","st_name":"NAGALAND"},"geometry":{"type":"Polygon","coordinates":[[[94.49267,26.34863],[94.44217,26.40025],[94.41385,26.37496],[94.35665,26.33531],[94.366,26.33663],[94.35324,26.31602],[94.35968,26.27074],[94.3482,26.25057],[94.33506,26.24023],[94.35598,26.24192],[94.36979,26.23148],[94.38367,26.22873],[94.38001,26.20702],[94.37123,26.19294],[94.39573,26.20188],[94.40545,26.21158],[94.44572,26.2061],[94.4441,26.21812],[94.45909,26.23603],[94.45462,26.24459],[94.47883,26.29334],[94.4571,26.28764],[94.43473,26.29542],[94.42138,26.30135],[94.42417,26.31653],[94.43553,26.32723],[94.45123,26.33196],[94.48964,26.32338],[94.50335,26.33657],[94.49267,26.34863]]]}},{"type":"Feature","properties":{"ac_name":"LONGKHIM CHARE","ac_no":52,"ac_category":"GEN","st_name":"NAGALAND"},"geometry":{"type":"Polygon","coordinates":[[[94.65751,26.34742],[94.6511,26.34795],[94.6528,26.34125],[94.63859,26.33662],[94.638,26.32991],[94.62892,26.33409],[94.6247,26.3293],[94.59652,26.31229],[94.59938,26.3099],[94.59629,26.29982],[94.59078,26.30176],[94.59252,26.29557],[94.58276,26.30085],[94.58155,26.28951],[94.57562,26.28727],[94.5727,26.29214],[94.55923,26.28216],[94.56541,26.26809],[94.55966,26.25617],[94.56613,26.25464],[94.57289,26.24223],[94.58307,26.23836],[94.58704,26.22701],[94.58339,26.21894],[94.59969,26.19739],[94.61242,26.19351],[94.62376,26.19982],[94.63824,26.21724],[94.65644,26.20319],[94.66631,26.21259],[94.67152,26.21101],[94.68093,26.19853],[94.68941,26.19813],[94.69498,26.18092],[94.70513,26.19149],[94.737,26.20444],[94.7536,26.21639],[94.76019,26.22841],[94.76128,26.25478],[94.76768,26.27415],[94.78647,26.304],[94.79528,26.30947],[94.80132,26.31797],[94.80396,26.33959],[94.79247,26.36997],[94.78135,26.37017],[94.72281,26.34544],[94.68094,26.34254],[94.65751,26.34742]]]}},{"type":"Feature","properties":{"ac_name":"TUENSANG SADAR-II","ac_no":54,"ac_category":"GEN","st_name":"NAGALAND"},"geometry":{"type":"Polygon","coordinates":[[[94.92,26.34637],[94.87071,26.35616],[94.81938,26.35799],[94.79247,26.36997],[94.80396,26.33959],[94.80132,26.31797],[94.79528,26.30947],[94.82251,26.26738],[94.8299,26.24567],[94.82775,26.23583],[94.81179,26.22117],[94.78819,26.21822],[94.78747,26.20374],[94.76924,26.20379],[94.7577,26.2087],[94.7536,26.21639],[94.737,26.20444],[94.70513,26.19149],[94.69498,26.18092],[94.69661,26.1714],[94.70339,26.1736],[94.70414,26.17041],[94.74686,26.16057],[94.77705,26.14282],[94.79435,26.09447],[94.86324,26.12089],[94.94776,26.12732],[94.96995,26.11857],[94.97021,26.1541],[94.97176,26.19958],[94.98555,26.29558],[94.998,26.31429],[94.97909,26.31637],[94.96238,26.31269],[94.93969,26.31692],[94.9247,26.32671],[94.92,26.34637]]]}},{"type":"Feature","properties":{"ac_name":"MONGUYA","ac_no":25,"ac_category":"GEN","st_name":"NAGALAND"},"geometry":{"type":"Polygon","coordinates":[[[94.6247,26.3293],[94.60575,26.33039],[94.57547,26.32264],[94.56669,26.33357],[94.5529,26.33687],[94.54253,26.33431],[94.54029,26.32447],[94.52134,26.30919],[94.53226,26.30802],[94.53302,26.29704],[94.51274,26.27996],[94.49525,26.27725],[94.48322,26.2924],[94.48623,26.2797],[94.4991,26.26813],[94.49845,26.25478],[94.50599,26.25254],[94.50593,26.24473],[94.51598,26.23933],[94.49777,26.22913],[94.50158,26.2264],[94.4966,26.21784],[94.50811,26.21371],[94.52611,26.21207],[94.53114,26.21688],[94.53748,26.2074],[94.55353,26.20178],[94.57202,26.20703],[94.58339,26.21894],[94.58704,26.22701],[94.58307,26.23836],[94.57289,26.24223],[94.56613,26.25464],[94.55966,26.25617],[94.56541,26.26809],[94.55923,26.28216],[94.5727,26.29214],[94.57562,26.28727],[94.58155,26.28951],[94.58276,26.30085],[94.59252,26.29557],[94.59078,26.30176],[94.59629,26.29982],[94.59938,26.3099],[94.59652,26.31229],[94.6247,26.3293]]]}},{"type":"Feature","properties":{"ac_name":"MOKOKCHUNG TOWN","ac_no":27,"ac_category":"GEN","st_name":"NAGALAND"},"geometry":{"type":"Polygon","coordinates":[[[94.54253,26.33431],[94.50335,26.33657],[94.49419,26.31923],[94.49964,26.30591],[94.51043,26.30302],[94.52134,26.30919],[94.54029,26.32447],[94.54253,26.33431]]]}},{"type":"Feature","properties":{"ac_name":"AONGLENDEN","ac_no":26,"ac_category":"GEN","st_name":"NAGALAND"},"geometry":{"type":"Polygon","coordinates":[[[94.52134,26.30919],[94.51043,26.30302],[94.49964,26.30591],[94.49419,26.31923],[94.50335,26.33657],[94.48964,26.32338],[94.45123,26.33196],[94.43553,26.32723],[94.42417,26.31653],[94.42138,26.30135],[94.43473,26.29542],[94.4571,26.28764],[94.47883,26.29334],[94.48322,26.2924],[94.49525,26.27725],[94.51274,26.27996],[94.53302,26.29704],[94.53226,26.30802],[94.52134,26.30919]]]}},{"type":"Feature","properties":{"ac_name":"TUENSANG SADAR-I","ac_no":53,"ac_category":"GEN","st_name":"NAGALAND"},"geometry":{"type":"Polygon","coordinates":[[[94.79528,26.30947],[94.78647,26.304],[94.76768,26.27415],[94.76128,26.25478],[94.76019,26.22841],[94.7536,26.21639],[94.7577,26.2087],[94.76924,26.20379],[94.78747,26.20374],[94.78819,26.21822],[94.81179,26.22117],[94.82775,26.23583],[94.8299,26.24567],[94.82251,26.26738],[94.79528,26.30947]]]}},{"type":"Feature","properties":{"ac_name":"SANIS","ac_no":39,"ac_category":"GEN","st_name":"NAGALAND"},"geometry":{"type":"Polygon","coordinates":[[[94.37123,26.19294],[94.38001,26.20702],[94.38367,26.22873],[94.36979,26.23148],[94.35598,26.24192],[94.33506,26.24023],[94.3482,26.25057],[94.35968,26.27074],[94.35324,26.31602],[94.30049,26.30471],[94.28647,26.29703],[94.22059,26.29563],[94.20546,26.28715],[94.23743,26.25016],[94.1534,26.17866],[94.044,26.06229],[94.0409,26.05345],[94.0417,26.04246],[94.13104,26.03881],[94.18662,26.1005],[94.22815,26.16182],[94.2547,26.19925],[94.29539,26.24424],[94.33548,26.17382],[94.33522,26.17832],[94.34094,26.17728],[94.35135,26.18707],[94.37123,26.19294]]]}},{"type":"Feature","properties":{"ac_name":"AKULUTO","ac_no":31,"ac_category":"GEN","st_name":"NAGALAND"},"geometry":{"type":"Polygon","coordinates":[[[94.48322,26.2924],[94.47883,26.29334],[94.45462,26.24459],[94.45909,26.23603],[94.4441,26.21812],[94.44572,26.2061],[94.40545,26.21158],[94.39573,26.20188],[94.37123,26.19294],[94.35135,26.18707],[94.34094,26.17728],[94.33522,26.17832],[94.33548,26.17382],[94.34726,26.171],[94.34751,26.15538],[94.36069,26.14712],[94.3634,26.13486],[94.38491,26.12547],[94.38687,26.11129],[94.40648,26.10786],[94.42482,26.11782],[94.43852,26.13193],[94.46475,26.14014],[94.48222,26.15101],[94.49235,26.16],[94.50687,26.19674],[94.50811,26.21371],[94.4966,26.21784],[94.50158,26.2264],[94.49777,26.22913],[94.51598,26.23933],[94.50593,26.24473],[94.50599,26.25254],[94.49845,26.25478],[94.4991,26.26813],[94.48623,26.2797],[94.48322,26.2924]]]}},{"type":"Feature","properties":{"ac_name":"SURUHUTO","ac_no":33,"ac_category":"GEN","st_name":"NAGALAND"},"geometry":{"type":"Polygon","coordinates":[[[94.50811,26.21371],[94.50687,26.19674],[94.52428,26.17309],[94.51602,26.15483],[94.51667,26.13559],[94.55424,26.13717],[94.58348,26.12861],[94.63204,26.129],[94.64771,26.12547],[94.6891,26.13653],[94.69833,26.14973],[94.70414,26.17041],[94.70339,26.1736],[94.69661,26.1714],[94.69498,26.18092],[94.68941,26.19813],[94.68093,26.19853],[94.67152,26.21101],[94.66631,26.21259],[94.65644,26.20319],[94.63824,26.21724],[94.62376,26.19982],[94.61242,26.19351],[94.59969,26.19739],[94.58339,26.21894],[94.57202,26.20703],[94.55353,26.20178],[94.53748,26.2074],[94.53114,26.21688],[94.52611,26.21207],[94.50811,26.21371]]]}},{"type":"Feature","properties":{"ac_name":"TYUI","ac_no":37,"ac_category":"GEN","st_name":"NAGALAND"},"geometry":{"type":"Polygon","coordinates":[[[94.33548,26.17382],[94.29539,26.24424],[94.2547,26.19925],[94.22815,26.16182],[94.26463,26.14625],[94.27731,26.12494],[94.27888,26.11286],[94.27255,26.07615],[94.2527,26.04452],[94.25225,26.03183],[94.23893,26.00258],[94.24652,26.00351],[94.25807,26.00509],[94.27586,26.00961],[94.29969,26.0064],[94.31702,26.01837],[94.3234,26.01645],[94.32797,25.99915],[94.33808,25.99799],[94.34547,26.00437],[94.36017,26.0071],[94.36258,26.00913],[94.35598,26.01016],[94.36023,26.02786],[94.37028,26.05283],[94.39055,26.08394],[94.3833,26.08697],[94.38442,26.09541],[94.38093,26.09405],[94.37986,26.10043],[94.38687,26.11129],[94.38491,26.12547],[94.3634,26.13486],[94.36069,26.14712],[94.34751,26.15538],[94.34726,26.171],[94.33548,26.17382]]]}},{"type":"Feature","properties":{"ac_name":"THONOKNYU","ac_no":57,"ac_category":"GEN","st_name":"NAGALAND"},"geometry":{"type":"Polygon","coordinates":[[[95.12636,26.12921],[95.09192,26.12558],[95.04284,26.11256],[95.01981,26.13059],[95.01684,26.13907],[95.03438,26.15815],[95.03779,26.16969],[95.03217,26.18121],[94.99134,26.1537],[94.98088,26.15027],[94.97021,26.1541],[94.96995,26.11857],[94.97145,26.05733],[94.96614,26.03785],[94.96121,26.03114],[94.94753,26.02623],[94.9061,26.02608],[94.88387,25.96738],[94.88315,25.95379],[94.90976,25.91539],[94.92669,25.88071],[94.93919,25.86752],[94.99831,25.86478],[95.0187,25.85836],[95.00885,25.86691],[95.01014,25.87524],[95.01902,25.881],[95.01159,25.89795],[95.02844,25.91397],[95.03099,25.93133],[95.04382,25.92693],[95.0484,25.93518],[95.06361,25.94259],[95.07313,25.94179],[95.09561,25.95583],[95.10308,25.96865],[95.1132,25.97406],[95.11675,25.98503],[95.12577,25.9862],[95.14516,26.01458],[95.15887,26.02482],[95.16399,26.0488],[95.18568,26.0733],[95.1647,26.09254],[95.15057,26.08662],[95.14202,26.09458],[95.11808,26.10058],[95.11559,26.11288],[95.12636,26.12921]]]}},{"type":"Feature","properties":{"ac_name":"ATOIZU","ac_no":32,"ac_category":"GEN","st_name":"NAGALAND"},"geometry":{"type":"Polygon","coordinates":[[[94.50687,26.19674],[94.49235,26.16],[94.48222,26.15101],[94.46475,26.14014],[94.43852,26.13193],[94.42482,26.11782],[94.40648,26.10786],[94.38687,26.11129],[94.37986,26.10043],[94.38093,26.09405],[94.38442,26.09541],[94.3833,26.08697],[94.39055,26.08394],[94.37028,26.05283],[94.36023,26.02786],[94.35598,26.01016],[94.36258,26.00913],[94.36017,26.0071],[94.36181,26.00202],[94.35902,25.9937],[94.40976,26.01642],[94.47958,26.06111],[94.51273,26.09404],[94.5342,26.10457],[94.51667,26.13559],[94.51602,26.15483],[94.52428,26.17309],[94.50687,26.19674]]]}},{"type":"Feature","properties":{"ac_name":"SHAMTORR-CHESSORE","ac_no":58,"ac_category":"GEN","st_name":"NAGALAND"},"geometry":{"type":"Polygon","coordinates":[[[94.70414,26.17041],[94.69833,26.14973],[94.6891,26.13653],[94.69168,26.07516],[94.70063,26.06518],[94.70457,26.04879],[94.69343,26.04384],[94.76484,26.04204],[94.81715,26.03278],[94.9061,26.02608],[94.94753,26.02623],[94.96121,26.03114],[94.96614,26.03785],[94.97145,26.05733],[94.96995,26.11857],[94.94776,26.12732],[94.86324,26.12089],[94.79435,26.09447],[94.77705,26.14282],[94.74686,26.16057],[94.70414,26.17041]]]}},{"type":"Feature","properties":{"ac_name":"AGHUNATO","ac_no":34,"ac_category":"GEN","st_name":"NAGALAND"},"geometry":{"type":"Polygon","coordinates":[[[94.6891,26.13653],[94.64771,26.12547],[94.63204,26.129],[94.62856,26.10838],[94.6077,26.06956],[94.57283,26.02217],[94.56658,26.00368],[94.56698,25.97357],[94.56088,25.90585],[94.57089,25.89244],[94.60847,25.93262],[94.67338,26.02627],[94.69343,26.04384],[94.70457,26.04879],[94.70063,26.06518],[94.69168,26.07516],[94.6891,26.13653]]]}},{"type":"Feature","properties":{"ac_name":"ZUNHEBOTO","ac_no":35,"ac_category":"GEN","st_name":"NAGALAND"},"geometry":{"type":"Polygon","coordinates":[[[94.63204,26.129],[94.58348,26.12861],[94.55424,26.13717],[94.51667,26.13559],[94.5342,26.10457],[94.51273,26.09404],[94.47958,26.06111],[94.49013,26.06458],[94.50844,26.04896],[94.5091,26.03798],[94.5001,26.03894],[94.46565,26.02879],[94.45189,26.03209],[94.45255,26.02835],[94.46288,26.02276],[94.51318,26.02115],[94.52073,26.00851],[94.54712,25.98478],[94.56698,25.97357],[94.56658,26.00368],[94.57283,26.02217],[94.6077,26.06956],[94.62856,26.10838],[94.63204,26.129]]]}},{"type":"Feature","properties":{"ac_name":"WOKHA","ac_no":38,"ac_category":"GEN","st_name":"NAGALAND"},"geometry":{"type":"Polygon","coordinates":[[[94.22815,26.16182],[94.18662,26.1005],[94.13104,26.03881],[94.10808,26.01474],[94.0981,25.98343],[94.10121,25.9885],[94.13949,25.99218],[94.1469,25.98134],[94.16217,25.97308],[94.17641,25.98631],[94.19267,25.98936],[94.21096,26.00853],[94.2146,26.02156],[94.23893,26.00258],[94.25225,26.03183],[94.2527,26.04452],[94.27255,26.07615],[94.27888,26.11286],[94.27731,26.12494],[94.26463,26.14625],[94.22815,26.16182]]]}},{"type":"Feature","properties":{"ac_name":"SATAKHA","ac_no":36,"ac_category":"GEN","st_name":"NAGALAND"},"geometry":{"type":"Polygon","coordinates":[[[94.47958,26.06111],[94.40976,26.01642],[94.35902,25.9937],[94.36058,25.98966],[94.34887,25.97759],[94.33936,25.95394],[94.33259,25.9505],[94.35256,25.93286],[94.34794,25.92238],[94.36742,25.92436],[94.38443,25.91154],[94.41163,25.90297],[94.41614,25.89757],[94.42633,25.89735],[94.44534,25.88058],[94.44636,25.86676],[94.46293,25.84633],[94.4655,25.83032],[94.49067,25.83145],[94.51569,25.81474],[94.51804,25.82488],[94.52945,25.82228],[94.54228,25.81122],[94.53535,25.78425],[94.55335,25.77962],[94.55214,25.7406],[94.55951,25.73198],[94.58413,25.75004],[94.60678,25.77844],[94.62201,25.77059],[94.63663,25.76921],[94.64697,25.77641],[94.65847,25.77761],[94.69577,25.75732],[94.71285,25.75931],[94.69853,25.7885],[94.6849,25.80026],[94.65125,25.81546],[94.61023,25.81783],[94.60283,25.82612],[94.6107,25.83406],[94.61021,25.84402],[94.59587,25.87526],[94.57623,25.88345],[94.57089,25.89244],[94.56088,25.90585],[94.56698,25.97357],[94.54712,25.98478],[94.52073,26.00851],[94.51318,26.02115],[94.46288,26.02276],[94.45255,26.02835],[94.45189,26.03209],[94.46565,26.02879],[94.5001,26.03894],[94.5091,26.03798],[94.50844,26.04896],[94.49013,26.06458],[94.47958,26.06111]]]}},{"type":"Feature","properties":{"ac_name":"SIYUCHONG-SITIMI","ac_no":59,"ac_category":"GEN","st_name":"NAGALAND"},"geometry":{"type":"Polygon","coordinates":[[[94.81715,26.03278],[94.76484,26.04204],[94.69343,26.04384],[94.67338,26.02627],[94.60847,25.93262],[94.57089,25.89244],[94.57623,25.88345],[94.59587,25.87526],[94.61021,25.84402],[94.6107,25.83406],[94.60283,25.82612],[94.61023,25.81783],[94.65125,25.81546],[94.6849,25.80026],[94.69853,25.7885],[94.71285,25.75931],[94.71872,25.72177],[94.72702,25.7252],[94.72041,25.73966],[94.72661,25.74361],[94.72455,25.74692],[94.73057,25.7506],[94.73298,25.75993],[94.74184,25.76536],[94.74013,25.77],[94.74655,25.77154],[94.74588,25.77685],[94.75552,25.7823],[94.7602,25.77835],[94.79016,25.77734],[94.82002,25.76302],[94.85451,25.7242],[94.85978,25.7283],[94.85367,25.78546],[94.86076,25.81118],[94.85796,25.83789],[94.76415,25.88618],[94.75288,25.90198],[94.74881,25.91791],[94.75409,25.9365],[94.76847,25.95593],[94.80702,25.99107],[94.81236,26.0014],[94.811,26.02346],[94.81715,26.03278]]]}},{"type":"Feature","properties":{"ac_name":"PUNGRO-KIPHIRE","ac_no":60,"ac_category":"GEN","st_name":"NAGALAND"},"geometry":{"type":"Polygon","coordinates":[[[94.9061,26.02608],[94.81715,26.03278],[94.811,26.02346],[94.81236,26.0014],[94.80702,25.99107],[94.76847,25.95593],[94.75409,25.9365],[94.74881,25.91791],[94.75288,25.90198],[94.76415,25.88618],[94.85796,25.83789],[94.86076,25.81118],[94.85367,25.78546],[94.85978,25.7283],[94.85451,25.7242],[94.85821,25.69833],[94.84605,25.64999],[94.85382,25.61824],[94.85133,25.61065],[94.86617,25.60863],[94.8814,25.58502],[94.88423,25.59282],[94.90008,25.59691],[94.91483,25.60745],[94.92257,25.64537],[94.93649,25.66799],[94.97023,25.68856],[94.98891,25.70699],[94.99208,25.71994],[95.00337,25.7286],[95.0228,25.73148],[95.04085,25.74233],[95.04867,25.7598],[95.04396,25.7737],[95.04976,25.80092],[95.03293,25.81435],[95.03009,25.83802],[95.0187,25.85836],[94.99831,25.86478],[94.93919,25.86752],[94.92669,25.88071],[94.90976,25.91539],[94.88315,25.95379],[94.88387,25.96738],[94.9061,26.02608]]]}},{"type":"Feature","properties":{"ac_name":"PUGHOBOTO","ac_no":13,"ac_category":"GEN","st_name":"NAGALAND"},"geometry":{"type":"Polygon","coordinates":[[[94.35902,25.9937],[94.36181,26.00202],[94.36017,26.0071],[94.34547,26.00437],[94.33808,25.99799],[94.32797,25.99915],[94.3234,26.01645],[94.31702,26.01837],[94.29969,26.0064],[94.27586,26.00961],[94.25807,26.00509],[94.26626,25.99663],[94.27783,25.95811],[94.28005,25.94239],[94.27307,25.92581],[94.24624,25.88657],[94.23394,25.87604],[94.21551,25.86424],[94.17703,25.85455],[94.20491,25.82522],[94.23032,25.8108],[94.23831,25.79264],[94.26046,25.76561],[94.2755,25.78978],[94.2763,25.79996],[94.2959,25.80888],[94.29232,25.81499],[94.29637,25.81883],[94.30035,25.82673],[94.29746,25.82965],[94.30706,25.83574],[94.30541,25.84036],[94.30932,25.85329],[94.32168,25.86844],[94.31976,25.88167],[94.33829,25.89796],[94.33622,25.91939],[94.34794,25.92238],[94.35256,25.93286],[94.33259,25.9505],[94.33936,25.95394],[94.34887,25.97759],[94.36058,25.98966],[94.35902,25.9937]]]}},{"type":"Feature","properties":{"ac_name":"TSEMINYU","ac_no":12,"ac_category":"GEN","st_name":"NAGALAND"},"geometry":{"type":"Polygon","coordinates":[[[94.25807,26.00509],[94.24652,26.00351],[94.23893,26.00258],[94.2146,26.02156],[94.21096,26.00853],[94.19267,25.98936],[94.17641,25.98631],[94.16217,25.97308],[94.1469,25.98134],[94.13949,25.99218],[94.10121,25.9885],[94.0981,25.98343],[94.08674,25.97542],[94.08642,25.96665],[94.05038,25.95263],[94.03882,25.94052],[94.0132,25.93924],[93.99129,25.92732],[93.99493,25.92546],[93.98939,25.92076],[93.98011,25.92118],[93.97835,25.9277],[93.97898,25.91717],[93.9561,25.90212],[93.98749,25.87329],[94.04159,25.89394],[94.0804,25.90639],[94.10815,25.90257],[94.12571,25.889],[94.13917,25.86659],[94.17703,25.85455],[94.21551,25.86424],[94.23394,25.87604],[94.24624,25.88657],[94.27307,25.92581],[94.28005,25.94239],[94.27783,25.95811],[94.26626,25.99663],[94.25807,26.00509]]]}},{"type":"Feature","properties":{"ac_name":"PHEK","ac_no":19,"ac_category":"GEN","st_name":"NAGALAND"},"geometry":{"type":"Polygon","coordinates":[[[94.34794,25.92238],[94.33622,25.91939],[94.33829,25.89796],[94.31976,25.88167],[94.32168,25.86844],[94.30932,25.85329],[94.30541,25.84036],[94.3246,25.81559],[94.31717,25.75258],[94.32349,25.72092],[94.33613,25.69133],[94.34854,25.70285],[94.37027,25.70787],[94.39232,25.70735],[94.40684,25.70224],[94.42756,25.68186],[94.42654,25.65639],[94.44072,25.64029],[94.45391,25.65815],[94.45948,25.6967],[94.47647,25.73779],[94.47709,25.79428],[94.48597,25.80974],[94.49067,25.83145],[94.4655,25.83032],[94.46293,25.84633],[94.44636,25.86676],[94.44534,25.88058],[94.42633,25.89735],[94.41614,25.89757],[94.41163,25.90297],[94.38443,25.91154],[94.36742,25.92436],[94.34794,25.92238]]]}},{"type":"Feature","properties":{"ac_name":"DIMAPUR-I","ac_no":1,"ac_category":"GEN","st_name":"NAGALAND"},"geometry":{"type":"Polygon","coordinates":[[[93.77796,25.85082],[93.78938,25.86729],[93.78497,25.87024],[93.78508,25.88287],[93.79638,25.89247],[93.79694,25.9035],[93.78893,25.91646],[93.7865,25.94948],[93.77818,25.96058],[93.77727,25.96897],[93.76488,25.96932],[93.76555,25.96283],[93.77067,25.96261],[93.76417,25.95662],[93.76776,25.95122],[93.75822,25.95255],[93.75869,25.94528],[93.75245,25.94608],[93.75047,25.94099],[93.74492,25.94323],[93.75197,25.93396],[93.73909,25.93197],[93.73826,25.92567],[93.73259,25.9233],[93.74169,25.89593],[93.74627,25.89825],[93.75902,25.91513],[93.76781,25.9125],[93.75998,25.87042],[93.76717,25.8542],[93.77796,25.85082]]]}},{"type":"Feature","properties":{"ac_name":"NORTHERN ANGAMI -II","ac_no":11,"ac_category":"GEN","st_name":"NAGALAND"},"geometry":{"type":"Polygon","coordinates":[[[94.17703,25.85455],[94.13917,25.86659],[94.12571,25.889],[94.10815,25.90257],[94.0804,25.90639],[94.04159,25.89394],[93.98749,25.87329],[94.01733,25.84586],[94.00949,25.80035],[94.05204,25.77528],[94.08128,25.73216],[94.08619,25.71341],[94.11771,25.69021],[94.1862,25.69134],[94.19994,25.68807],[94.21416,25.67369],[94.23102,25.69459],[94.22992,25.71377],[94.26046,25.76561],[94.23831,25.79264],[94.23032,25.8108],[94.20491,25.82522],[94.17703,25.85455]]]}},{"type":"Feature","properties":{"ac_name":"DIMAPUR-II","ac_no":2,"ac_category":"GEN","st_name":"NAGALAND"},"geometry":{"type":"Polygon","coordinates":[[[93.74169,25.89593],[93.73259,25.9233],[93.71374,25.91715],[93.70662,25.91906],[93.70126,25.91106],[93.69433,25.91219],[93.68142,25.9046],[93.68357,25.89841],[93.70223,25.8518],[93.71441,25.84438],[93.70744,25.84729],[93.70058,25.8433],[93.70081,25.84973],[93.6869,25.84526],[93.69032,25.84065],[93.68015,25.83787],[93.67838,25.82822],[93.66739,25.82587],[93.66825,25.82205],[93.64603,25.82258],[93.64372,25.81597],[93.63825,25.81587],[93.63892,25.81066],[93.6764,25.80771],[93.71484,25.81843],[93.72158,25.82507],[93.74169,25.89593]]]}},{"type":"Feature","properties":{"ac_name":"GHASPANI-I","ac_no":4,"ac_category":"GEN","st_name":"NAGALAND"},"geometry":{"type":"Polygon","coordinates":[[[93.98749,25.87329],[93.9561,25.90212],[93.93474,25.89495],[93.93376,25.88708],[93.92394,25.88233],[93.91551,25.88293],[93.9095,25.87324],[93.9009,25.87136],[93.8961,25.85711],[93.89054,25.85944],[93.87562,25.84158],[93.85103,25.85719],[93.83746,25.85739],[93.81805,25.8342],[93.81563,25.82317],[93.80686,25.82072],[93.79606,25.80776],[93.78733,25.81561],[93.77796,25.85082],[93.76717,25.8542],[93.75998,25.87042],[93.76781,25.9125],[93.75902,25.91513],[93.74627,25.89825],[93.75658,25.89359],[93.7361,25.82907],[93.73232,25.8039],[93.73982,25.79039],[93.73552,25.77901],[93.72981,25.77318],[93.66803,25.75202],[93.61779,25.68963],[93.63505,25.67329],[93.64635,25.65011],[93.79224,25.66907],[93.78559,25.71476],[93.78836,25.73913],[93.80067,25.76791],[93.82203,25.77855],[93.88277,25.7906],[93.92718,25.84446],[93.95444,25.86271],[93.98749,25.87329]]]}},{"type":"Feature","properties":{"ac_name":"DIMAPUR-III","ac_no":3,"ac_category":"GEN","st_name":"NAGALAND"},"geometry":{"type":"Polygon","coordinates":[[[93.74627,25.89825],[93.74169,25.89593],[93.72158,25.82507],[93.71484,25.81843],[93.6764,25.80771],[93.63892,25.81066],[93.63317,25.81165],[93.63234,25.80276],[93.62452,25.80274],[93.62662,25.78994],[93.61822,25.78395],[93.61729,25.77622],[93.60474,25.77499],[93.60223,25.76516],[93.59881,25.76883],[93.59171,25.76273],[93.58532,25.76611],[93.58209,25.76063],[93.58508,25.75799],[93.5776,25.75482],[93.56741,25.7585],[93.5728,25.75436],[93.56597,25.7548],[93.5615,25.73875],[93.55387,25.73948],[93.5555,25.73448],[93.54975,25.73049],[93.54271,25.73242],[93.54018,25.72402],[93.54757,25.71295],[93.54075,25.69962],[93.53344,25.69978],[93.52758,25.69176],[93.52219,25.69775],[93.51218,25.68535],[93.51765,25.67999],[93.5113,25.67521],[93.5518,25.66898],[93.61383,25.65143],[93.64635,25.65011],[93.63505,25.67329],[93.61779,25.68963],[93.66803,25.75202],[93.72981,25.77318],[93.73552,25.77901],[93.73982,25.79039],[93.73232,25.8039],[93.7361,25.82907],[93.75658,25.89359],[93.74627,25.89825]]]}},{"type":"Feature","properties":{"ac_name":"GHASPANI-II","ac_no":5,"ac_category":"GEN","st_name":"NAGALAND"},"geometry":{"type":"Polygon","coordinates":[[[94.00949,25.80035],[94.01733,25.84586],[93.98749,25.87329],[93.95444,25.86271],[93.92718,25.84446],[93.88277,25.7906],[93.82203,25.77855],[93.80067,25.76791],[93.78836,25.73913],[93.78559,25.71476],[93.79224,25.66907],[93.88333,25.65851],[93.90972,25.66357],[93.94692,25.68116],[93.96443,25.69335],[93.99396,25.75042],[94.00949,25.80035]]]}},{"type":"Feature","properties":{"ac_name":"MELURI","ac_no":20,"ac_category":"GEN","st_name":"NAGALAND"},"geometry":{"type":"Polygon","coordinates":[[[94.49067,25.83145],[94.48597,25.80974],[94.47709,25.79428],[94.47647,25.73779],[94.45948,25.6967],[94.45391,25.65815],[94.44072,25.64029],[94.42497,25.60916],[94.42676,25.58711],[94.44519,25.59159],[94.44519,25.59679],[94.46876,25.61411],[94.4871,25.61423],[94.49174,25.60868],[94.49541,25.61307],[94.50517,25.61356],[94.50686,25.62388],[94.51817,25.62966],[94.52073,25.63883],[94.52928,25.63734],[94.52925,25.64254],[94.54347,25.64998],[94.55626,25.67234],[94.56327,25.67469],[94.56039,25.68251],[94.56373,25.68731],[94.57176,25.6918],[94.58475,25.6846],[94.595,25.68493],[94.58042,25.66876],[94.58644,25.66384],[94.57837,25.66168],[94.58364,25.6563],[94.57602,25.6553],[94.58007,25.65054],[94.57339,25.64775],[94.57592,25.64373],[94.5721,25.64123],[94.57342,25.63745],[94.58913,25.64027],[94.59329,25.63492],[94.58408,25.63485],[94.57577,25.62342],[94.5719,25.60534],[94.56521,25.60316],[94.5662,25.59715],[94.55963,25.59784],[94.55835,25.58309],[94.55088,25.57951],[94.56097,25.57313],[94.5584,25.56582],[94.56429,25.56345],[94.55588,25.55469],[94.56661,25.54801],[94.55777,25.53932],[94.56194,25.53372],[94.55449,25.52852],[94.56005,25.52144],[94.55317,25.51032],[94.55389,25.50262],[94.57677,25.49573],[94.61597,25.46247],[94.64587,25.45693],[94.6557,25.44974],[94.67545,25.44561],[94.68343,25.46616],[94.71019,25.47144],[94.71808,25.46916],[94.74416,25.48124],[94.75174,25.49377],[94.76196,25.48207],[94.78098,25.48041],[94.78895,25.48953],[94.80551,25.49178],[94.81198,25.51155],[94.82484,25.5238],[94.82527,25.54241],[94.8347,25.55296],[94.85358,25.56441],[94.89823,25.56557],[94.8814,25.58502],[94.86617,25.60863],[94.85133,25.61065],[94.85382,25.61824],[94.84605,25.64999],[94.85821,25.69833],[94.85451,25.7242],[94.82002,25.76302],[94.79016,25.77734],[94.7602,25.77835],[94.75552,25.7823],[94.74588,25.77685],[94.74655,25.77154],[94.74013,25.77],[94.74184,25.76536],[94.73298,25.75993],[94.73057,25.7506],[94.72455,25.74692],[94.72661,25.74361],[94.72041,25.73966],[94.72702,25.7252],[94.71872,25.72177],[94.71285,25.75931],[94.69577,25.75732],[94.65847,25.77761],[94.64697,25.77641],[94.63663,25.76921],[94.62201,25.77059],[94.60678,25.77844],[94.58413,25.75004],[94.55951,25.73198],[94.55214,25.7406],[94.55335,25.77962],[94.53535,25.78425],[94.54228,25.81122],[94.52945,25.82228],[94.51804,25.82488],[94.51569,25.81474],[94.49067,25.83145]]]}},{"type":"Feature","properties":{"ac_name":"CHAZOUBA","ac_no":18,"ac_category":"GEN","st_name":"NAGALAND"},"geometry":{"type":"Polygon","coordinates":[[[94.30541,25.84036],[94.30706,25.83574],[94.29746,25.82965],[94.30035,25.82673],[94.29637,25.81883],[94.29232,25.81499],[94.2959,25.80888],[94.2763,25.79996],[94.2755,25.78978],[94.26046,25.76561],[94.22992,25.71377],[94.23102,25.69459],[94.21416,25.67369],[94.22008,25.65685],[94.21574,25.6357],[94.21011,25.63046],[94.20818,25.61847],[94.21436,25.60994],[94.20709,25.59387],[94.32075,25.60357],[94.34178,25.64517],[94.34256,25.66883],[94.33613,25.69133],[94.32349,25.72092],[94.31717,25.75258],[94.3246,25.81559],[94.30541,25.84036]]]}},{"type":"Feature","properties":{"ac_name":"WESTERN ANGAMI","ac_no":8,"ac_category":"GEN","st_name":"NAGALAND"},"geometry":{"type":"Polygon","coordinates":[[[94.08619,25.71341],[94.08128,25.73216],[94.05204,25.77528],[94.00949,25.80035],[93.99396,25.75042],[93.96443,25.69335],[93.94692,25.68116],[93.93491,25.55904],[93.96019,25.55069],[93.97043,25.55584],[93.97493,25.56467],[93.9967,25.56831],[94.00727,25.56723],[94.01072,25.5736],[94.00234,25.58641],[94.01284,25.5926],[94.02173,25.59024],[94.02984,25.57734],[94.03677,25.57901],[94.03818,25.57005],[94.04295,25.57671],[94.04809,25.57559],[94.06729,25.55231],[94.0788,25.55843],[94.0891,25.54768],[94.08637,25.55846],[94.09305,25.59884],[94.07957,25.63849],[94.07291,25.651],[94.07287,25.66742],[94.07938,25.6804],[94.08737,25.68047],[94.08619,25.71341]]]}},{"type":"Feature","properties":{"ac_name":"CHIZAMI","ac_no":17,"ac_category":"GEN","st_name":"NAGALAND"},"geometry":{"type":"Polygon","coordinates":[[[94.44072,25.64029],[94.42654,25.65639],[94.42756,25.68186],[94.40684,25.70224],[94.39232,25.70735],[94.37027,25.70787],[94.34854,25.70285],[94.33613,25.69133],[94.34256,25.66883],[94.34178,25.64517],[94.32075,25.60357],[94.31487,25.58779],[94.30914,25.52182],[94.3009,25.50635],[94.32898,25.50457],[94.36582,25.51743],[94.3853,25.5325],[94.41665,25.53659],[94.42246,25.55333],[94.41906,25.56995],[94.42676,25.58711],[94.42497,25.60916],[94.44072,25.64029]]]}},{"type":"Feature","properties":{"ac_name":"NORTHERN ANGAMI - I","ac_no":10,"ac_category":"GEN","st_name":"NAGALAND"},"geometry":{"type":"Polygon","coordinates":[[[94.21416,25.67369],[94.19994,25.68807],[94.1862,25.69134],[94.11771,25.69021],[94.08619,25.71341],[94.08737,25.68047],[94.11805,25.67552],[94.12086,25.65706],[94.153,25.64737],[94.16554,25.63421],[94.1857,25.644],[94.19368,25.64316],[94.1938,25.64262],[94.21011,25.63046],[94.21574,25.6357],[94.22008,25.65685],[94.21416,25.67369]]]}},{"type":"Feature","properties":{"ac_name":"KOHIMA TOWN","ac_no":9,"ac_category":"GEN","st_name":"NAGALAND"},"geometry":{"type":"Polygon","coordinates":[[[94.12086,25.65706],[94.11805,25.67552],[94.08737,25.68047],[94.07938,25.6804],[94.07287,25.66742],[94.07291,25.651],[94.07957,25.63849],[94.10564,25.62117],[94.11836,25.63542],[94.12086,25.65706]]]}},{"type":"Feature","properties":{"ac_name":"PEREN","ac_no":7,"ac_category":"GEN","st_name":"NAGALAND"},"geometry":{"type":"Polygon","coordinates":[[[93.79224,25.66907],[93.64635,25.65011],[93.68736,25.6025],[93.68687,25.58881],[93.65566,25.56186],[93.65047,25.53324],[93.66074,25.51762],[93.68741,25.49581],[93.68901,25.48291],[93.6803,25.43275],[93.68332,25.37864],[93.6887,25.3601],[93.69681,25.35614],[93.70935,25.35718],[93.71582,25.37184],[93.73589,25.38516],[93.73475,25.3943],[93.7422,25.40404],[93.76797,25.42],[93.77408,25.41965],[93.77268,25.42616],[93.7833,25.43308],[93.78648,25.4461],[93.80501,25.46344],[93.80998,25.48382],[93.80024,25.49684],[93.78749,25.50321],[93.76648,25.49353],[93.76128,25.49581],[93.75796,25.50769],[93.76145,25.51687],[93.76635,25.51817],[93.76493,25.53848],[93.77034,25.53369],[93.77991,25.53367],[93.80477,25.54153],[93.81651,25.5403],[93.82104,25.55317],[93.8276,25.55273],[93.83441,25.5606],[93.86103,25.55324],[93.8887,25.56513],[93.93491,25.55904],[93.94692,25.68116],[93.90972,25.66357],[93.88333,25.65851],[93.79224,25.66907]]]}},{"type":"Feature","properties":{"ac_name":"SOUTHERN ANGAMI-I","ac_no":14,"ac_category":"GEN","st_name":"NAGALAND"},"geometry":{"type":"Polygon","coordinates":[[[94.1938,25.64262],[94.19368,25.64316],[94.1857,25.644],[94.16554,25.63421],[94.153,25.64737],[94.12086,25.65706],[94.11836,25.63542],[94.10564,25.62117],[94.07957,25.63849],[94.09305,25.59884],[94.08637,25.55846],[94.0891,25.54768],[94.09417,25.53728],[94.08465,25.53039],[94.10731,25.52421],[94.12303,25.54554],[94.15611,25.57048],[94.17698,25.61201],[94.19016,25.62162],[94.1938,25.64262]]]}},{"type":"Feature","properties":{"ac_name":"SOUTHERN ANGAMI-II","ac_no":15,"ac_category":"GEN","st_name":"NAGALAND"},"geometry":{"type":"Polygon","coordinates":[[[94.1938,25.64262],[94.19016,25.62162],[94.17698,25.61201],[94.15611,25.57048],[94.12303,25.54554],[94.10731,25.52421],[94.1357,25.51841],[94.14384,25.52265],[94.15625,25.55112],[94.16491,25.54128],[94.1781,25.55061],[94.19206,25.54859],[94.19666,25.55812],[94.19674,25.58175],[94.20709,25.59387],[94.21436,25.60994],[94.20818,25.61847],[94.21011,25.63046],[94.1938,25.64262]]]}},{"type":"Feature","properties":{"ac_name":"TENNING","ac_no":6,"ac_category":"GEN","st_name":"NAGALAND"},"geometry":{"type":"Polygon","coordinates":[[[93.5113,25.67521],[93.49727,25.65598],[93.48732,25.65421],[93.48505,25.64835],[93.48127,25.65125],[93.48252,25.64494],[93.47668,25.64782],[93.46879,25.6444],[93.47202,25.64243],[93.46391,25.64454],[93.45701,25.64083],[93.46106,25.63239],[93.44946,25.63951],[93.44643,25.63461],[93.44415,25.6395],[93.43363,25.6294],[93.42706,25.63225],[93.41993,25.62464],[93.42157,25.61826],[93.41399,25.62096],[93.41086,25.61341],[93.40151,25.61104],[93.39862,25.59589],[93.38555,25.5928],[93.38583,25.58725],[93.37825,25.58274],[93.37986,25.57661],[93.37425,25.57717],[93.37548,25.57324],[93.36264,25.56619],[93.35865,25.55455],[93.35222,25.5599],[93.34267,25.55994],[93.32687,25.5463],[93.33032,25.54229],[93.33638,25.53875],[93.33509,25.53431],[93.3502,25.5322],[93.35685,25.51374],[93.36164,25.51234],[93.3644,25.50369],[93.36919,25.50355],[93.36738,25.49955],[93.37683,25.49757],[93.37729,25.49309],[93.38547,25.49045],[93.38588,25.48355],[93.39138,25.48241],[93.38445,25.46946],[93.39041,25.46037],[93.39737,25.46023],[93.40257,25.45072],[93.41571,25.44512],[93.43733,25.44871],[93.43937,25.44107],[93.45794,25.43144],[93.46232,25.41785],[93.4597,25.40334],[93.47363,25.37924],[93.46494,25.36048],[93.45168,25.35407],[93.44846,25.34068],[93.45663,25.3353],[93.4534,25.32162],[93.47056,25.30507],[93.47196,25.27133],[93.48119,25.26994],[93.48977,25.27483],[93.50624,25.26933],[93.50154,25.24215],[93.52101,25.24738],[93.53513,25.24364],[93.5438,25.2479],[93.55598,25.24597],[93.56912,25.22627],[93.58413,25.22178],[93.59139,25.20806],[93.58791,25.20109],[93.59333,25.20352],[93.59542,25.1986],[93.59839,25.20178],[93.60518,25.19901],[93.63722,25.26366],[93.64598,25.26636],[93.64489,25.27602],[93.66052,25.29881],[93.65817,25.30396],[93.66763,25.31084],[93.6647,25.32574],[93.68159,25.32893],[93.6887,25.3601],[93.68332,25.37864],[93.6803,25.43275],[93.68901,25.48291],[93.68741,25.49581],[93.66074,25.51762],[93.65047,25.53324],[93.65566,25.56186],[93.68687,25.58881],[93.68736,25.6025],[93.64635,25.65011],[93.61383,25.65143],[93.5518,25.66898],[93.5113,25.67521]]]}},{"type":"Feature","properties":{"ac_name":"PFUTSERO","ac_no":16,"ac_category":"GEN","st_name":"NAGALAND"},"geometry":{"type":"Polygon","coordinates":[[[94.32075,25.60357],[94.20709,25.59387],[94.19674,25.58175],[94.19666,25.55812],[94.19206,25.54859],[94.1866,25.52402],[94.20053,25.51508],[94.20859,25.50381],[94.20842,25.49604],[94.21861,25.49159],[94.24976,25.49431],[94.2552,25.50064],[94.27404,25.49947],[94.28463,25.50792],[94.3009,25.50635],[94.30914,25.52182],[94.31487,25.58779],[94.32075,25.60357]]]}}]}