{"type":"FeatureCollection","features":[{"type":"Feature","properties":{"ac_name":"YANAM","ac_no":30,"ac_category":"GEN","st_name":"PUDUCHERRY"},"geometry":{"type":"Polygon","coordinates":[[[82.2675,16.6947],[82.239,16.7163],[82.2038,16.7177],[82.1934,16.7216],[82.195,16.7302],[82.1864,16.73],[82.1863,16.7371],[82.2056,16.7346],[82.2119,16.7511],[82.2199,16.7503],[82.2207,16.7575],[82.226,16.7586],[82.2281,16.7607],[82.232,16.7548],[82.2244,16.753],[82.2175,16.7328],[82.2435,16.7223],[82.2581,16.7204],[82.2704,16.7219],[82.276,16.7274],[82.2897,16.7267],[82.3055,16.7483],[82.3138,16.7294],[82.3091,16.7168],[82.2945,16.7045],[82.2675,16.6947]]]}},{"type":"Feature","properties":{"ac_name":"MANNADIPET","ac_no":1,"ac_category":"GEN","st_name":"PUDUCHERRY"},"geometry":{"type":"GeometryCollection","geometries":[{"type":"Polygon","coordinates":[[[79.6279,12.0318,0],[79.6514,12.0223,0],[79.6423,11.9993,0],[79.636,11.996,0],[79.64,11.9927,0],[79.6364,11.9778,0],[79.6483,11.9673,0],[79.6473,11.9534,0],[79.6422,11.9539,0],[79.6427,11.9421,0],[79.6479,11.9446,0],[79.6458,11.9413,0],[79.6285,11.9452,0],[79.6287,11.9571,0],[79.6275,11.9681,0],[79.6185,11.9705,0],[79.6245,11.976,0],[79.6244,11.9818,0],[79.6171,11.9896,0],[79.6236,11.9893,0],[79.6262,12.0004,0],[79.6189,12.0013,0],[79.6211,12.0103,0],[79.621,12.0143,0],[79.6292,12.0187,0],[79.6279,12.0318,0]]]},{"type":"Polygon","coordinates":[[[79.695,12.0356,0],[79.7048,12.032,0],[79.7028,12.0111,0],[79.7196,11.9922,0],[79.6854,11.9916,0],[79.6808,11.9833,0],[79.6738,11.9951,0],[79.6625,11.9895,0],[79.6569,11.9916,0],[79.6614,12.0123,0],[79.6722,12.0097,0],[79.6765,12.0216,0],[79.6842,12.0217,0],[79.6928,12.0353,0],[79.695,12.0356,0]]]}]}},{"type":"Feature","properties":{"ac_name":"OUSSUDU","ac_no":3,"ac_category":"SC","st_name":"PUDUCHERRY"},"geometry":{"type":"GeometryCollection","geometries":[{"type":"Polygon","coordinates":[[[79.7697,11.944,0],[79.7705,11.9358,0],[79.7649,11.9333,0],[79.7695,11.929,0],[79.7612,11.9285,0],[79.7599,11.9436,0],[79.7697,11.944,0]]]},{"type":"Polygon","coordinates":[[[79.7562,12.0041,0],[79.7624,12.0027,0],[79.7604,11.9892,0],[79.7481,11.9847,0],[79.7428,11.9778,0],[79.7264,11.9857,0],[79.7235,11.9775,0],[79.7245,11.9713,0],[79.7445,11.9649,0],[79.7491,11.9295,0],[79.7441,11.9299,0],[79.745,11.9209,0],[79.7375,11.9171,0],[79.7346,11.9118,0],[79.7175,11.929,0],[79.7208,11.9449,0],[79.7096,11.9498,0],[79.708,11.9441,0],[79.7012,11.9512,0],[79.7001,11.9628,0],[79.7034,11.9671,0],[79.715,11.9676,0],[79.716,11.971,0],[79.7093,11.9757,0],[79.7124,11.9865,0],[79.7158,11.9848,0],[79.7206,11.9927,0],[79.7334,11.9933,0],[79.7476,12.0078,0],[79.7562,12.0041,0]]]}]}},{"type":"Feature","properties":{"ac_name":"KALAPET","ac_no":12,"ac_category":"GEN","st_name":"PUDUCHERRY"},"geometry":{"type":"GeometryCollection","geometries":[{"type":"Polygon","coordinates":[[[79.8216,11.9696,0],[79.8284,11.9587,0],[79.8239,11.9576,0],[79.8163,11.9689,0],[79.8164,11.9586,0],[79.8053,11.9636,0],[79.8125,11.9779,0],[79.8184,11.9779,0],[79.8216,11.9696,0]]]},{"type":"Polygon","coordinates":[[[79.7943,12.0258,0],[79.8053,12.0245,0],[79.7983,12.017,0],[79.7883,12.0192,0],[79.7893,12.0277,0],[79.7943,12.0258,0]]]},{"type":"Polygon","coordinates":[[[79.8576,12.0078,0],[79.8571,12.0068,0],[79.8405,12.0133,0],[79.8488,12.0492,0],[79.8498,12.0518,0],[79.8738,12.0426,0],[79.8576,12.0078,0]]]}]}},{"type":"Feature","properties":{"ac_name":"LAWSPET","ac_no":11,"ac_category":"GEN","st_name":"PUDUCHERRY"},"geometry":{"type":"Polygon","coordinates":[[[79.8053,11.9636],[79.8164,11.9586],[79.8163,11.9689],[79.8239,11.9576],[79.8162,11.9492],[79.8152,11.9562],[79.8102,11.9562],[79.8055,11.9529],[79.8073,11.9463],[79.8054,11.9492],[79.8032,11.9532],[79.8053,11.9636]]]}},{"type":"Feature","properties":{"ac_name":"INDIRA NAGAR","ac_no":8,"ac_category":"GEN","st_name":"PUDUCHERRY"},"geometry":{"type":"Polygon","coordinates":[[[79.8032,11.9532],[79.8054,11.9492],[79.798,11.9391],[79.7974,11.9394],[79.795,11.9469],[79.7891,11.9501],[79.7847,11.9548],[79.7852,11.9365],[79.7705,11.9358],[79.7697,11.944],[79.7847,11.9599],[79.8032,11.9532]]]}},{"type":"Feature","properties":{"ac_name":"KAMARAJ NAGAR","ac_no":10,"ac_category":"GEN","st_name":"PUDUCHERRY"},"geometry":{"type":"Polygon","coordinates":[[[79.8284,11.9587],[79.8299,11.9577],[79.8247,11.9395],[79.8207,11.9347],[79.8177,11.9344],[79.8079,11.9386],[79.8172,11.9429],[79.8162,11.9492],[79.8239,11.9576],[79.8284,11.9587]]]}},{"type":"Feature","properties":{"ac_name":"MUTHIALPET","ac_no":13,"ac_category":"GEN","st_name":"PUDUCHERRY"},"geometry":{"type":"Polygon","coordinates":[[[79.8299,11.9577],[79.8389,11.9561],[79.8384,11.9475],[79.8343,11.949],[79.8328,11.9418],[79.8247,11.9395],[79.8299,11.9577]]]}},{"type":"Feature","properties":{"ac_name":"THATTANCHAVADY","ac_no":9,"ac_category":"GEN","st_name":"PUDUCHERRY"},"geometry":{"type":"Polygon","coordinates":[[[79.8102,11.9562],[79.8152,11.9562],[79.8162,11.9492],[79.8172,11.9429],[79.8079,11.9386],[79.8076,11.9359],[79.806,11.9367],[79.7979,11.9358],[79.798,11.9391],[79.8054,11.9492],[79.8073,11.9463],[79.8055,11.9529],[79.8102,11.9562]]]}},{"type":"Feature","properties":{"ac_name":"THIRUBHUVANAI","ac_no":2,"ac_category":"SC","st_name":"PUDUCHERRY"},"geometry":{"type":"GeometryCollection","geometries":[{"type":"Polygon","coordinates":[[[79.6586,11.9446,0],[79.6607,11.9371,0],[79.6703,11.9355,0],[79.6689,11.9184,0],[79.656,11.9129,0],[79.6559,11.9079,0],[79.6411,11.9077,0],[79.6406,11.9022,0],[79.6298,11.9016,0],[79.6259,11.9059,0],[79.6283,11.9196,0],[79.6184,11.9261,0],[79.6179,11.9361,0],[79.6189,11.9432,0],[79.6285,11.9452,0],[79.6458,11.9413,0],[79.6479,11.9446,0],[79.652,11.9436,0],[79.653,11.9482,0],[79.6586,11.9446,0]]]},{"type":"Polygon","coordinates":[[[79.6965,11.9626,0],[79.7001,11.9628,0],[79.7012,11.9512,0],[79.708,11.9441,0],[79.7111,11.9331,0],[79.6972,11.9418,0],[79.6916,11.9514,0],[79.6965,11.9626,0]]]},{"type":"Polygon","coordinates":[[[79.6865,11.9732,0],[79.6846,11.9534,0],[79.6733,11.9479,0],[79.6547,11.9535,0],[79.6538,11.9606,0],[79.66,11.9584,0],[79.6622,11.9691,0],[79.6767,11.9681,0],[79.6847,11.9731,0],[79.6865,11.9732,0]]]}]}},{"type":"Feature","properties":{"ac_name":"RAJ BHAVAN","ac_no":14,"ac_category":"GEN","st_name":"PUDUCHERRY"},"geometry":{"type":"Polygon","coordinates":[[[79.8384,11.9475],[79.835,11.9271],[79.8271,11.9283],[79.8288,11.9339],[79.8207,11.9347],[79.8247,11.9395],[79.8328,11.9418],[79.8343,11.949],[79.8384,11.9475]]]}},{"type":"Feature","properties":{"ac_name":"OZHUKARAI","ac_no":6,"ac_category":"GEN","st_name":"PUDUCHERRY"},"geometry":{"type":"Polygon","coordinates":[[[79.7974,11.9394],[79.798,11.9391],[79.7979,11.9358],[79.8066,11.928],[79.8023,11.9226],[79.7901,11.9186],[79.7885,11.9272],[79.7807,11.932],[79.7765,11.9258],[79.7699,11.9254],[79.7749,11.9293],[79.7695,11.929],[79.7649,11.9333],[79.7705,11.9358],[79.7852,11.9365],[79.7943,11.9335],[79.7974,11.9394]]]}},{"type":"Feature","properties":{"ac_name":"NELLITHOPE","ac_no":17,"ac_category":"GEN","st_name":"PUDUCHERRY"},"geometry":{"type":"GeometryCollection","geometries":[{"type":"Polygon","coordinates":[[[79.8101,11.9302,0],[79.8165,11.9253,0],[79.8163,11.9252,0],[79.8109,11.9242,0],[79.8101,11.9302,0]]]},{"type":"Polygon","coordinates":[[[79.811,11.9306,0],[79.8101,11.9304,0],[79.8052,11.931,0],[79.8076,11.9359,0],[79.8079,11.9386,0],[79.8177,11.9344,0],[79.811,11.9306,0]]]}]}},{"type":"Feature","properties":{"ac_name":"KADIRGAMAM","ac_no":7,"ac_category":"GEN","st_name":"PUDUCHERRY"},"geometry":{"type":"GeometryCollection","geometries":[{"type":"Polygon","coordinates":[[[79.806,11.9367,0],[79.8076,11.9359,0],[79.8052,11.931,0],[79.8101,11.9304,0],[79.8101,11.9302,0],[79.8109,11.9242,0],[79.8023,11.9226,0],[79.8066,11.928,0],[79.7979,11.9358,0],[79.806,11.9367,0]]]},{"type":"Polygon","coordinates":[[[79.7891,11.9501,0],[79.795,11.9469,0],[79.7974,11.9394,0],[79.7943,11.9335,0],[79.7852,11.9365,0],[79.7847,11.9548,0],[79.7891,11.9501,0]]]}]}},{"type":"Feature","properties":{"ac_name":"ORLEAMPETH","ac_no":16,"ac_category":"GEN","st_name":"PUDUCHERRY"},"geometry":{"type":"Polygon","coordinates":[[[79.8207,11.9347],[79.8288,11.9339],[79.8271,11.9283],[79.8242,11.9287],[79.8165,11.9253],[79.8101,11.9302],[79.8101,11.9304],[79.811,11.9306],[79.8177,11.9344],[79.8207,11.9347]]]}},{"type":"Feature","properties":{"ac_name":"VILLIANUR","ac_no":5,"ac_category":"GEN","st_name":"PUDUCHERRY"},"geometry":{"type":"Polygon","coordinates":[[[79.7695,11.929],[79.7749,11.9293],[79.7699,11.9254],[79.7765,11.9258],[79.7807,11.932],[79.7885,11.9272],[79.7901,11.9186],[79.7901,11.9152],[79.7903,11.8972],[79.7814,11.9028],[79.7715,11.9027],[79.7632,11.903],[79.7614,11.9137],[79.7375,11.9171],[79.745,11.9209],[79.7441,11.9299],[79.7491,11.9295],[79.7502,11.92],[79.7562,11.9204],[79.755,11.9261],[79.7612,11.9285],[79.7695,11.929]]]}},{"type":"Feature","properties":{"ac_name":"OUPALAM","ac_no":15,"ac_category":"GEN","st_name":"PUDUCHERRY"},"geometry":{"type":"Polygon","coordinates":[[[79.8242,11.9287],[79.8271,11.9283],[79.835,11.9271],[79.8318,11.9168],[79.8133,11.92],[79.8163,11.9252],[79.8165,11.9253],[79.8242,11.9287]]]}},{"type":"Feature","properties":{"ac_name":"MUDALIARPET","ac_no":18,"ac_category":"GEN","st_name":"PUDUCHERRY"},"geometry":{"type":"Polygon","coordinates":[[[79.8163,11.9252],[79.8133,11.92],[79.8071,11.9079],[79.7978,11.9088],[79.7981,11.9153],[79.7901,11.9152],[79.7901,11.9186],[79.8023,11.9226],[79.8109,11.9242],[79.8163,11.9252]]]}},{"type":"Feature","properties":{"ac_name":"ARIANKUPPAM","ac_no":19,"ac_category":"GEN","st_name":"PUDUCHERRY"},"geometry":{"type":"Polygon","coordinates":[[[79.8318,11.9168],[79.8248,11.89],[79.7965,11.8949],[79.7964,11.8999],[79.7903,11.8972],[79.7901,11.9152],[79.7981,11.9153],[79.7978,11.9088],[79.8071,11.9079],[79.8133,11.92],[79.8318,11.9168]]]}},{"type":"Feature","properties":{"ac_name":"MANGALAM","ac_no":4,"ac_category":"GEN","st_name":"PUDUCHERRY"},"geometry":{"type":"GeometryCollection","geometries":[{"type":"Polygon","coordinates":[[[79.6998,11.8738,0],[79.6991,11.8613,0],[79.696,11.8604,0],[79.6994,11.8743,0],[79.6998,11.8738,0]]]},{"type":"Polygon","coordinates":[[[79.7045,11.9191,0],[79.7186,11.919,0],[79.7179,11.9134,0],[79.7066,11.9135,0],[79.709,11.9033,0],[79.7053,11.8939,0],[79.7111,11.8908,0],[79.7168,11.8928,0],[79.7241,11.8886,0],[79.7228,11.8918,0],[79.7305,11.8917,0],[79.7313,11.9032,0],[79.7406,11.9055,0],[79.7346,11.9118,0],[79.7375,11.9171,0],[79.7614,11.9137,0],[79.7632,11.903,0],[79.7715,11.9027,0],[79.7727,11.8758,0],[79.77,11.8746,0],[79.7574,11.8761,0],[79.757,11.8682,0],[79.7507,11.8741,0],[79.7518,11.888,0],[79.743,11.8886,0],[79.7177,11.8814,0],[79.7094,11.8837,0],[79.7074,11.8891,0],[79.6848,11.886,0],[79.685,11.881,0],[79.674,11.8807,0],[79.6738,11.8916,0],[79.6868,11.8889,0],[79.6871,11.8945,0],[79.6954,11.8948,0],[79.6962,11.9192,0],[79.7045,11.9191,0]]]}]}},{"type":"Feature","properties":{"ac_name":"MANAVELY","ac_no":20,"ac_category":"GEN","st_name":"PUDUCHERRY"},"geometry":{"type":"Polygon","coordinates":[[[79.8248,11.89],[79.8077,11.8364],[79.8077,11.8468],[79.8006,11.8553],[79.7817,11.8558],[79.7758,11.8385],[79.7661,11.8406],[79.7621,11.8484],[79.7708,11.8614],[79.77,11.8746],[79.7727,11.8758],[79.7796,11.878],[79.7784,11.8632],[79.7851,11.863],[79.7965,11.8949],[79.8248,11.89]]]}},{"type":"Feature","properties":{"ac_name":"NETTAPAKKAM","ac_no":22,"ac_category":"SC","st_name":"PUDUCHERRY"},"geometry":{"type":"GeometryCollection","geometries":[{"type":"Polygon","coordinates":[[[79.6797,11.8145,0],[79.6842,11.8127,0],[79.6903,11.8054,0],[79.6817,11.797,0],[79.6748,11.8067,0],[79.676,11.8143,0],[79.6797,11.8145,0]]]},{"type":"Polygon","coordinates":[[[79.6537,11.8428,0],[79.6617,11.8393,0],[79.6594,11.8295,0],[79.6713,11.8236,0],[79.6712,11.8149,0],[79.6463,11.8163,0],[79.641,11.8241,0],[79.6473,11.8442,0],[79.6537,11.8428,0]]]},{"type":"Polygon","coordinates":[[[79.6307,11.8812,0],[79.6345,11.881,0],[79.6348,11.8888,0],[79.6411,11.8866,0],[79.6405,11.8806,0],[79.6484,11.8803,0],[79.6485,11.8705,0],[79.6627,11.8672,0],[79.6578,11.8526,0],[79.6471,11.85,0],[79.6269,11.8543,0],[79.6285,11.8698,0],[79.6191,11.8701,0],[79.6194,11.8627,0],[79.6122,11.8626,0],[79.602,11.8578,0],[79.6024,11.8622,0],[79.5993,11.8829,0],[79.6082,11.8769,0],[79.6212,11.8906,0],[79.627,11.889,0],[79.6307,11.8812,0]]]}]}},{"type":"Feature","properties":{"ac_name":"EMBALAM","ac_no":21,"ac_category":"SC","st_name":"PUDUCHERRY"},"geometry":{"type":"GeometryCollection","geometries":[{"type":"Polygon","coordinates":[[[79.7377,11.8429,0],[79.7644,11.8338,0],[79.7677,11.8227,0],[79.773,11.8227,0],[79.7802,11.8319,0],[79.7957,11.8285,0],[79.7975,11.8246,0],[79.8006,11.8307,0],[79.7936,11.8324,0],[79.7982,11.8387,0],[79.807,11.8335,0],[79.8004,11.8099,0],[79.7575,11.8127,0],[79.7442,11.8139,0],[79.7408,11.8349,0],[79.7295,11.837,0],[79.7381,11.8369,0],[79.7377,11.8429,0]]]},{"type":"Polygon","coordinates":[[[79.743,11.8886,0],[79.7518,11.888,0],[79.7507,11.8741,0],[79.757,11.8682,0],[79.7518,11.8484,0],[79.7431,11.8485,0],[79.7419,11.8629,0],[79.7338,11.8656,0],[79.7211,11.8625,0],[79.7196,11.853,0],[79.7082,11.8691,0],[79.7094,11.8837,0],[79.7177,11.8814,0],[79.743,11.8886,0]]]}]}},{"type":"Feature","properties":{"ac_name":"MAHE","ac_no":29,"ac_category":"GEN","st_name":"PUDUCHERRY"},"geometry":{"type":"GeometryCollection","geometries":[{"type":"Polygon","coordinates":[[[75.542,11.6987,0],[75.5366,11.6939,0],[75.5306,11.704,0],[75.5359,11.7099,0],[75.5443,11.7046,0],[75.542,11.6987,0]]]},{"type":"Polygon","coordinates":[[[75.5382,11.7627,0],[75.5462,11.7563,0],[75.5433,11.7344,0],[75.5558,11.7277,0],[75.5555,11.7217,0],[75.5479,11.7154,0],[75.5378,11.716,0],[75.5366,11.7194,0],[75.5325,11.7158,0],[75.5375,11.7122,0],[75.5312,11.7084,0],[75.5266,11.7261,0],[75.5319,11.7345,0],[75.5403,11.7347,0],[75.5416,11.7388,0],[75.5406,11.7486,0],[75.5313,11.7586,0],[75.5382,11.7627,0]]]}]}},{"type":"Feature","properties":{"ac_name":"BAHOUR","ac_no":23,"ac_category":"GEN","st_name":"PUDUCHERRY"},"geometry":{"type":"GeometryCollection","geometries":[{"type":"Polygon","coordinates":[[[79.7003,11.8217,0],[79.7026,11.8135,0],[79.692,11.8142,0],[79.6926,11.8225,0],[79.7003,11.8217,0]]]},{"type":"Polygon","coordinates":[[[79.7575,11.8127,0],[79.8004,11.8099,0],[79.7958,11.7855,0],[79.7844,11.7874,0],[79.7804,11.7812,0],[79.7719,11.7822,0],[79.7706,11.7896,0],[79.7658,11.7919,0],[79.755,11.7753,0],[79.7198,11.7849,0],[79.7124,11.7915,0],[79.7139,11.7963,0],[79.7228,11.7965,0],[79.7245,11.8104,0],[79.7357,11.8093,0],[79.7295,11.837,0],[79.7408,11.8349,0],[79.7442,11.8139,0],[79.7575,11.8127,0]]]}]}},{"type":"Feature","properties":{"ac_name":"NEDUNGADU","ac_no":24,"ac_category":"SC","st_name":"PUDUCHERRY"},"geometry":{"type":"Polygon","coordinates":[[[79.7481,10.9964],[79.7467,11.0026],[79.7557,11.0038],[79.7666,10.9974],[79.786,10.9974],[79.789,10.992],[79.7863,10.9897],[79.7977,10.9826],[79.804,10.9871],[79.8042,10.9977],[79.8131,10.9992],[79.8152,11.0038],[79.8206,10.9982],[79.8402,11.0021],[79.8394,10.9959],[79.8512,10.9943],[79.8544,10.9833],[79.8543,10.9646],[79.8105,10.9627],[79.8114,10.9508],[79.8053,10.9501],[79.8073,10.9461],[79.7852,10.9519],[79.783,10.9654],[79.7627,10.9621],[79.7594,10.9722],[79.7547,10.9719],[79.7528,10.9769],[79.7585,10.9835],[79.7528,10.9829],[79.7525,10.9881],[79.7473,10.9884],[79.7481,10.9964]]]}},{"type":"Feature","properties":{"ac_name":"KARAIKAL NORTH","ac_no":26,"ac_category":"GEN","st_name":"PUDUCHERRY"},"geometry":{"type":"Polygon","coordinates":[[[79.8543,10.9646],[79.8526,10.9234],[79.8302,10.9255],[79.8118,10.937],[79.8073,10.9461],[79.8053,10.9501],[79.8114,10.9508],[79.8105,10.9627],[79.8543,10.9646]]]}},{"type":"Feature","properties":{"ac_name":"THIRUNALLAR","ac_no":25,"ac_category":"GEN","st_name":"PUDUCHERRY"},"geometry":{"type":"GeometryCollection","geometries":[{"type":"Polygon","coordinates":[[[79.7397,10.9202,0],[79.7388,10.9201,0],[79.7394,10.9214,0],[79.7397,10.9202,0]]]},{"type":"Polygon","coordinates":[[[79.7223,10.9374,0],[79.7216,10.935,0],[79.7203,10.9372,0],[79.7223,10.9374,0]]]},{"type":"Polygon","coordinates":[[[79.7309,10.9705,0],[79.7391,10.9646,0],[79.7462,10.9651,0],[79.745,10.9566,0],[79.7627,10.9621,0],[79.783,10.9654,0],[79.7852,10.9519,0],[79.8073,10.9461,0],[79.8118,10.937,0],[79.8069,10.9375,0],[79.8101,10.9326,0],[79.8046,10.9293,0],[79.8075,10.9268,0],[79.8037,10.9121,0],[79.8066,10.9108,0],[79.7952,10.9027,0],[79.7892,10.9085,0],[79.7773,10.909,0],[79.7769,10.9055,0],[79.7756,10.9091,0],[79.7646,10.9104,0],[79.7638,10.9109,0],[79.7615,10.9128,0],[79.7589,10.9167,0],[79.7449,10.9146,0],[79.7429,10.9243,0],[79.7248,10.929,0],[79.7291,10.9364,0],[79.723,10.935,0],[79.7271,10.9378,0],[79.724,10.9419,0],[79.7373,10.9525,0],[79.7345,10.9575,0],[79.7324,10.9512,0],[79.7198,10.9522,0],[79.7192,10.9685,0],[79.7309,10.9705,0]]]}]}},{"type":"Feature","properties":{"ac_name":"KARAIKAL SOUTH","ac_no":27,"ac_category":"GEN","st_name":"PUDUCHERRY"},"geometry":{"type":"Polygon","coordinates":[[[79.8526,10.9234],[79.8532,10.9152],[79.8463,10.9149],[79.8425,10.9082],[79.8343,10.9081],[79.8303,10.9021],[79.808,10.9015],[79.8043,10.8969],[79.8066,10.9108],[79.8037,10.9121],[79.8075,10.9268],[79.8046,10.9293],[79.8101,10.9326],[79.8069,10.9375],[79.8118,10.937],[79.8302,10.9255],[79.8526,10.9234]]]}},{"type":"Feature","properties":{"ac_name":"NERAVY T.R. PATTINAM","ac_no":28,"ac_category":"GEN","st_name":"PUDUCHERRY"},"geometry":{"type":"GeometryCollection","geometries":[{"type":"Polygon","coordinates":[[[79.8095,10.8781,0],[79.8069,10.8777,0],[79.8074,10.8807,0],[79.8095,10.8781,0]]]},{"type":"Polygon","coordinates":[[[79.7627,10.9091,0],[79.7621,10.9016,0],[79.7678,10.9018,0],[79.764,10.9074,0],[79.7646,10.9104,0],[79.7756,10.9091,0],[79.7769,10.9055,0],[79.7769,10.8966,0],[79.7562,10.8918,0],[79.7635,10.8999,0],[79.7613,10.9018,0],[79.7569,10.8965,0],[79.7615,10.9128,0],[79.7638,10.9109,0],[79.7627,10.9091,0]],[[79.7581,10.8999,0],[79.7585,10.8999,0],[79.7586,10.9006,0],[79.7581,10.9006,0],[79.7581,10.8999,0]],[[79.7671,10.9013,0],[79.7665,10.8987,0],[79.7703,10.9015,0],[79.7689,10.901,0],[79.7671,10.9013,0]],[[79.7706,10.9009,0],[79.7713,10.9,0],[79.7712,10.901,0],[79.7706,10.9009,0]],[[79.7708,10.8988,0],[79.7714,10.8986,0],[79.7716,10.8991,0],[79.771,10.8993,0],[79.7708,10.8988,0]],[[79.7703,10.9028,0],[79.7697,10.9026,0],[79.7704,10.9023,0],[79.7703,10.9028,0]],[[79.7692,10.9035,0],[79.7692,10.9038,0],[79.7686,10.9037,0],[79.7692,10.9035,0]]]},{"type":"Polygon","coordinates":[[[79.8527,10.9105,0],[79.8527,10.8334,0],[79.8507,10.8279,0],[79.8413,10.828,0],[79.831,10.8274,0],[79.828,10.8497,0],[79.821,10.8456,0],[79.8079,10.8557,0],[79.8074,10.8655,0],[79.8116,10.8597,0],[79.8248,10.8649,0],[79.8223,10.8743,0],[79.811,10.8756,0],[79.8112,10.8804,0],[79.8287,10.8835,0],[79.8043,10.8911,0],[79.7946,10.8876,0],[79.7903,10.8949,0],[79.7899,10.8904,0],[79.7836,10.8885,0],[79.7825,10.8954,0],[79.7938,10.8988,0],[79.7913,10.9049,0],[79.7952,10.9027,0],[79.8066,10.9108,0],[79.8043,10.8969,0],[79.808,10.9015,0],[79.8303,10.9021,0],[79.8343,10.9081,0],[79.8425,10.9082,0],[79.8463,10.9149,0],[79.8532,10.9152,0],[79.8527,10.9105,0]]]}]}}]}