{"type":"FeatureCollection","features":[{"type":"Feature","geometry":{"type":"Polygon","coordinates":[[[88.4898,27.2305],[88.4999,27.2359],[88.5006,27.2364],[88.5008,27.236],[88.5027,27.2356],[88.5067,27.2342],[88.5149,27.228],[88.5228,27.2301],[88.528,27.2387],[88.5449,27.2329],[88.5589,27.2402],[88.5476,27.2528],[88.5617,27.2529],[88.5625,27.2531],[88.5617,27.2529],[88.5652,27.2385],[88.5534,27.2282],[88.5418,27.2269],[88.5398,27.211],[88.5501,27.2],[88.5592,27.1985],[88.5638,27.1882],[88.5408,27.1837],[88.529,27.1778],[88.5208,27.1782],[88.499,27.1851],[88.4865,27.2054],[88.4898,27.2305]]]},"properties":{"ac_no":18,"ac_name":"WEST PENDAM","ac_category":"SC","st_name":"SIKKIM"}},{"type":"Feature","geometry":{"type":"Polygon","coordinates":[[[88.6344,27.2408],[88.6518,27.2453],[88.6598,27.2309],[88.6746,27.2236],[88.695,27.2296],[88.7057,27.2402],[88.7216,27.2356],[88.7235,27.2262],[88.7352,27.2259],[88.7379,27.2329],[88.731,27.2369],[88.7363,27.2492],[88.7322,27.2631],[88.7393,27.273],[88.7367,27.2844],[88.7501,27.287],[88.7621,27.2945],[88.7652,27.304],[88.7809,27.3155],[88.7924,27.3278],[88.8192,27.3514],[88.8144,27.3691],[88.817,27.3802],[88.8335,27.3865],[88.8383,27.3788],[88.8565,27.3868],[88.8647,27.3798],[88.8672,27.3682],[88.8792,27.3644],[88.8899,27.3364],[88.9119,27.331],[88.9224,27.3263],[88.9142,27.318],[88.9095,27.3059],[88.9105,27.2931],[88.9073,27.2835],[88.8992,27.275],[88.8833,27.269],[88.8724,27.2588],[88.8638,27.2622],[88.8431,27.2613],[88.8352,27.2631],[88.8011,27.2476],[88.8007,27.2207],[88.7896,27.2019],[88.7892,27.1899],[88.7847,27.182],[88.766,27.1785],[88.7584,27.172],[88.7607,27.1581],[88.7517,27.1482],[88.7325,27.1374],[88.7178,27.144],[88.7118,27.1651],[88.702,27.1741],[88.6844,27.1802],[88.6735,27.1766],[88.6596,27.1622],[88.6508,27.1643],[88.6562,27.1923],[88.6404,27.1978],[88.6336,27.2069],[88.6288,27.2193],[88.636,27.2254],[88.6387,27.2337],[88.6344,27.2408]]]},"properties":{"ac_no":20,"ac_name":"CHUJACHEN","ac_category":"GEN","st_name":"SIKKIM"}},{"type":"Feature","geometry":{"type":"Polygon","coordinates":[[[88.6344,27.2408],[88.6144,27.2398],[88.6083,27.2431],[88.6003,27.2362],[88.5796,27.237],[88.5703,27.2418],[88.5652,27.2385],[88.5617,27.2529],[88.5642,27.2535],[88.5729,27.2484],[88.5841,27.2484],[88.5997,27.2529],[88.6073,27.2639],[88.6186,27.2723],[88.6307,27.2643],[88.6279,27.2507],[88.6414,27.2508],[88.649,27.2666],[88.6366,27.2768],[88.6491,27.2813],[88.6589,27.2884],[88.6626,27.3046],[88.6526,27.3073],[88.6434,27.3093],[88.6332,27.3109],[88.6324,27.312],[88.6316,27.3133],[88.6318,27.3156],[88.6349,27.3183],[88.6379,27.3213],[88.6409,27.3233],[88.6451,27.3299],[88.6506,27.3228],[88.654,27.3201],[88.655,27.3151],[88.6987,27.331],[88.7046,27.3348],[88.7007,27.3444],[88.7205,27.3502],[88.7196,27.3784],[88.7539,27.3811],[88.7771,27.3869],[88.7857,27.3916],[88.8192,27.3993],[88.8254,27.3906],[88.8335,27.3865],[88.817,27.3802],[88.8144,27.3691],[88.8192,27.3514],[88.7924,27.3278],[88.7809,27.3155],[88.7652,27.304],[88.7621,27.2945],[88.7501,27.287],[88.7367,27.2844],[88.7393,27.273],[88.7322,27.2631],[88.7363,27.2492],[88.731,27.2369],[88.7379,27.2329],[88.7352,27.2259],[88.7235,27.2262],[88.7216,27.2356],[88.7057,27.2402],[88.695,27.2296],[88.6746,27.2236],[88.6598,27.2309],[88.6518,27.2453],[88.6344,27.2408]]]},"properties":{"ac_no":21,"ac_name":"GNATHANG-MACHONG","ac_category":"ST","st_name":"SIKKIM"}},{"type":"Feature","geometry":{"type":"Polygon","coordinates":[[[88.1464,27.6832],[88.1437,27.7044],[88.1521,27.736],[88.1725,27.7498],[88.1759,27.7625],[88.1904,27.7886],[88.1883,27.7974],[88.1815,27.803],[88.178,27.8134],[88.1689,27.821],[88.1892,27.8347],[88.1942,27.8426],[88.1939,27.8508],[88.1703,27.8665],[88.1255,27.8736],[88.1302,27.8819],[88.1263,27.8951],[88.1139,27.9122],[88.1168,27.9258],[88.1289,27.9383],[88.1239,27.9509],[88.1331,27.9616],[88.1391,27.9635],[88.1537,27.9578],[88.1736,27.9447],[88.1887,27.9437],[88.1948,27.9462],[88.2035,27.9666],[88.2231,27.9645],[88.2328,27.9659],[88.2352,27.9541],[88.2439,27.9485],[88.2588,27.9563],[88.272,27.9584],[88.2804,27.9678],[88.3048,27.97],[88.3162,27.9797],[88.3291,27.9825],[88.3378,27.988],[88.351,27.9899],[88.3638,27.9881],[88.3888,27.9778],[88.402,27.9836],[88.4123,27.997],[88.4265,28.0081],[88.4509,28.015],[88.4616,28.0198],[88.4717,28.0368],[88.4819,28.045],[88.5011,28.0489],[88.5167,28.044],[88.5224,28.0386],[88.5333,28.0366],[88.541,28.0405],[88.5429,28.0505],[88.5523,28.0654],[88.5545,28.0848],[88.5669,28.089],[88.5748,28.0856],[88.596,28.0969],[88.6165,28.1037],[88.6122,28.1099],[88.6075,28.1276],[88.6212,28.131],[88.6328,28.1206],[88.6377,28.1044],[88.6453,28.0991],[88.6668,28.0741],[88.6858,28.079],[88.7143,28.0757],[88.7403,28.076],[88.7511,28.0733],[88.7823,28.0508],[88.7866,28.0431],[88.7994,28.0307],[88.8291,28.0152],[88.8409,27.991],[88.8398,27.9652],[88.8441,27.9564],[88.8364,27.9474],[88.8362,27.932],[88.8589,27.9253],[88.8702,27.9024],[88.8802,27.8952],[88.8808,27.8701],[88.8856,27.8591],[88.8821,27.8554],[88.881,27.839],[88.873,27.8274],[88.8557,27.8181],[88.8568,27.7989],[88.8523,27.7783],[88.8546,27.7593],[88.8614,27.7489],[88.8624,27.739],[88.8543,27.7302],[88.85,27.7175],[88.8389,27.7112],[88.8455,27.7003],[88.8442,27.6889],[88.8466,27.6689],[88.8322,27.6503],[88.8223,27.6428],[88.8099,27.6419],[88.8064,27.6322],[88.8082,27.6191],[88.8055,27.6033],[88.7873,27.5856],[88.7856,27.5763],[88.7671,27.565],[88.7751,27.5376],[88.7886,27.5286],[88.787,27.5208],[88.7831,27.5194],[88.7624,27.5238],[88.7401,27.549],[88.7209,27.5527],[88.704,27.5449],[88.6951,27.5347],[88.6716,27.5347],[88.6636,27.5499],[88.6574,27.5556],[88.6453,27.5489],[88.6295,27.5437],[88.6173,27.5348],[88.6082,27.5316],[88.609,27.5235],[88.6,27.5167],[88.5766,27.5128],[88.5658,27.5073],[88.55,27.5071],[88.5562,27.4959],[88.5546,27.482],[88.5397,27.4819],[88.5289,27.4988],[88.5202,27.5029],[88.5211,27.5111],[88.5305,27.5278],[88.5534,27.5333],[88.5653,27.5303],[88.5777,27.5325],[88.5883,27.5403],[88.6068,27.5449],[88.6157,27.5496],[88.65,27.5591],[88.6343,27.5763],[88.6357,27.5835],[88.6262,27.5963],[88.6277,27.6092],[88.6168,27.6174],[88.6079,27.638],[88.602,27.6442],[88.5974,27.6585],[88.5738,27.6547],[88.5562,27.6344],[88.5472,27.646],[88.5357,27.6475],[88.526,27.6567],[88.5144,27.6629],[88.5155,27.6705],[88.5091,27.6871],[88.4947,27.708],[88.4898,27.7198],[88.4892,27.7306],[88.4732,27.7321],[88.4657,27.739],[88.4506,27.7474],[88.4343,27.7477],[88.4273,27.7423],[88.4162,27.7271],[88.4069,27.7207],[88.3952,27.719],[88.3627,27.7204],[88.3535,27.723],[88.3358,27.7222],[88.3066,27.7168],[88.2879,27.7166],[88.2756,27.7142],[88.2526,27.7032],[88.2445,27.6926],[88.2239,27.6848],[88.2152,27.6741],[88.1916,27.6734],[88.1683,27.6849],[88.1464,27.6832]]]},"properties":{"ac_no":31,"ac_name":"LACHEN MANGAN","ac_category":"ST","st_name":"SIKKIM"}},{"type":"Feature","geometry":{"type":"Polygon","coordinates":[[[88.3416,27.2318],[88.3365,27.2321],[88.3356,27.231],[88.3348,27.23],[88.3328,27.2298],[88.3265,27.2315],[88.3252,27.2304],[88.3237,27.2297],[88.3224,27.2297],[88.3206,27.229],[88.3169,27.2296],[88.3143,27.2265],[88.315,27.2233],[88.3028,27.2261],[88.2983,27.237],[88.3006,27.2462],[88.3007,27.2566],[88.299,27.261],[88.2844,27.2732],[88.279,27.2757],[88.276,27.2783],[88.2734,27.2817],[88.2741,27.2864],[88.2753,27.2883],[88.2856,27.295],[88.2909,27.2972],[88.2936,27.2978],[88.3015,27.2996],[88.3044,27.3028],[88.306,27.3057],[88.3056,27.3158],[88.3037,27.3188],[88.3002,27.3214],[88.2951,27.3234],[88.2917,27.3269],[88.293,27.331],[88.2953,27.3342],[88.3177,27.3494],[88.3229,27.365],[88.3255,27.3688],[88.3442,27.3741],[88.3532,27.3784],[88.3523,27.3844],[88.3532,27.39],[88.3525,27.3994],[88.3499,27.403],[88.3481,27.4068],[88.3429,27.4046],[88.3366,27.4026],[88.3072,27.4118],[88.2963,27.4116],[88.2925,27.4098],[88.2895,27.4079],[88.2866,27.4054],[88.2786,27.4009],[88.2668,27.4103],[88.2638,27.4438],[88.2588,27.4596],[88.2552,27.5035],[88.2472,27.5254],[88.2597,27.5296],[88.2707,27.5242],[88.2768,27.5194],[88.2886,27.5198],[88.3139,27.5272],[88.3196,27.5315],[88.3381,27.5362],[88.3439,27.5338],[88.3559,27.5173],[88.3594,27.5104],[88.3704,27.4976],[88.3935,27.4791],[88.4004,27.4757],[88.4036,27.4585],[88.4109,27.4466],[88.4091,27.4394],[88.4094,27.4299],[88.4116,27.4236],[88.4105,27.4221],[88.4085,27.4193],[88.4065,27.4159],[88.4043,27.4127],[88.4024,27.41],[88.4032,27.4024],[88.3997,27.3991],[88.398,27.3962],[88.3977,27.3926],[88.3969,27.3886],[88.3995,27.3796],[88.405,27.3764],[88.4066,27.374],[88.4085,27.3726],[88.4083,27.3701],[88.4094,27.3655],[88.4099,27.3612],[88.4088,27.3594],[88.4072,27.3582],[88.4059,27.3561],[88.4058,27.3533],[88.404,27.3487],[88.3972,27.3377],[88.3953,27.3374],[88.3925,27.3351],[88.3914,27.3339],[88.389,27.3345],[88.3862,27.3367],[88.3842,27.3368],[88.3767,27.334],[88.3724,27.3339],[88.3689,27.333],[88.365,27.3301],[88.3617,27.3274],[88.355,27.3244],[88.3547,27.316],[88.3538,27.3137],[88.353,27.3107],[88.3527,27.3089],[88.3475,27.296],[88.3475,27.2931],[88.346,27.2919],[88.3442,27.2908],[88.3394,27.2891],[88.3381,27.2876],[88.337,27.2857],[88.3349,27.2834],[88.3339,27.2817],[88.3359,27.2809],[88.3372,27.2801],[88.3374,27.2786],[88.3374,27.2761],[88.3372,27.2745],[88.3366,27.2732],[88.335,27.2716],[88.3369,27.2715],[88.346,27.2672],[88.3478,27.2564],[88.3615,27.2559],[88.3644,27.2533],[88.3637,27.252],[88.3625,27.2502],[88.3579,27.2473],[88.3559,27.2453],[88.3537,27.2438],[88.3516,27.2424],[88.3485,27.2396],[88.3459,27.2381],[88.3452,27.2364],[88.3451,27.2349],[88.3426,27.2324],[88.3416,27.2318]]]},"properties":{"ac_no":9,"ac_name":"BARFUNG","ac_category":"ST","st_name":"SIKKIM"}},{"type":"Feature","geometry":{"type":"Polygon","coordinates":[[[88.787,27.5208],[88.7832,27.4965],[88.7856,27.4924],[88.7815,27.4678],[88.7522,27.4593],[88.7416,27.4691],[88.7261,27.4781],[88.6989,27.4861],[88.6821,27.4942],[88.6501,27.4955],[88.6334,27.4903],[88.6193,27.4815],[88.6142,27.4733],[88.5833,27.4639],[88.5717,27.4508],[88.5676,27.4462],[88.5675,27.4461],[88.5675,27.446],[88.5622,27.4429],[88.5621,27.4429],[88.5574,27.4326],[88.5406,27.4205],[88.5296,27.42],[88.5101,27.4246],[88.5089,27.4191],[88.5182,27.3971],[88.4963,27.3825],[88.481,27.3784],[88.4654,27.3856],[88.4487,27.3886],[88.4384,27.3936],[88.4116,27.4236],[88.4094,27.4299],[88.4091,27.4394],[88.4109,27.4466],[88.4036,27.4585],[88.4004,27.4757],[88.3935,27.4791],[88.3704,27.4976],[88.3594,27.5104],[88.3559,27.5173],[88.3439,27.5338],[88.3381,27.5362],[88.3196,27.5315],[88.3139,27.5272],[88.2886,27.5198],[88.2768,27.5194],[88.2707,27.5242],[88.2597,27.5296],[88.2472,27.5254],[88.2406,27.5204],[88.2255,27.523],[88.2183,27.5319],[88.2156,27.5522],[88.2162,27.5804],[88.1889,27.5795],[88.1475,27.5902],[88.1193,27.5944],[88.1058,27.6123],[88.1081,27.6144],[88.114,27.6386],[88.1234,27.6536],[88.1325,27.6577],[88.1428,27.6691],[88.1464,27.6832],[88.1683,27.6849],[88.1916,27.6734],[88.2152,27.6741],[88.2239,27.6848],[88.2445,27.6926],[88.2526,27.7032],[88.2756,27.7142],[88.2879,27.7166],[88.3066,27.7168],[88.3358,27.7222],[88.3535,27.723],[88.3627,27.7204],[88.3952,27.719],[88.4069,27.7207],[88.4162,27.7271],[88.4273,27.7423],[88.4343,27.7477],[88.4506,27.7474],[88.4657,27.739],[88.4732,27.7321],[88.4892,27.7306],[88.4898,27.7198],[88.4947,27.708],[88.5091,27.6871],[88.5155,27.6705],[88.5144,27.6629],[88.526,27.6567],[88.5357,27.6475],[88.5472,27.646],[88.5562,27.6344],[88.5738,27.6547],[88.5974,27.6585],[88.602,27.6442],[88.6079,27.638],[88.6168,27.6174],[88.6277,27.6092],[88.6262,27.5963],[88.6357,27.5835],[88.6343,27.5763],[88.65,27.5591],[88.6157,27.5496],[88.6068,27.5449],[88.5883,27.5403],[88.5777,27.5325],[88.5653,27.5303],[88.5534,27.5333],[88.5305,27.5278],[88.5211,27.5111],[88.5202,27.5029],[88.5289,27.4988],[88.5397,27.4819],[88.5546,27.482],[88.5562,27.4959],[88.55,27.5071],[88.5658,27.5073],[88.5766,27.5128],[88.6,27.5167],[88.609,27.5235],[88.6082,27.5316],[88.6173,27.5348],[88.6295,27.5437],[88.6453,27.5489],[88.6574,27.5556],[88.6636,27.5499],[88.6716,27.5347],[88.6951,27.5347],[88.704,27.5449],[88.7209,27.5527],[88.7401,27.549],[88.7624,27.5238],[88.7831,27.5194],[88.787,27.5208]]]},"properties":{"ac_no":30,"ac_name":"DJONGU","ac_category":"ST","st_name":"SIKKIM"}},{"type":"Feature","geometry":{"type":"Polygon","coordinates":[[[88.3537,27.2438],[88.3559,27.2453],[88.3579,27.2473],[88.3625,27.2502],[88.3637,27.252],[88.3644,27.2533],[88.3615,27.2559],[88.3478,27.2564],[88.346,27.2672],[88.3369,27.2715],[88.335,27.2716],[88.3366,27.2732],[88.3372,27.2745],[88.3374,27.2761],[88.3374,27.2786],[88.3372,27.2801],[88.3359,27.2809],[88.3339,27.2817],[88.3349,27.2834],[88.337,27.2857],[88.3381,27.2876],[88.3394,27.2891],[88.3442,27.2908],[88.346,27.2919],[88.3475,27.2931],[88.3475,27.296],[88.3527,27.3089],[88.353,27.3107],[88.3538,27.3137],[88.3547,27.316],[88.355,27.3244],[88.3617,27.3274],[88.365,27.3301],[88.3689,27.333],[88.3724,27.3339],[88.3767,27.334],[88.3842,27.3368],[88.3862,27.3367],[88.389,27.3345],[88.3914,27.3339],[88.3925,27.3351],[88.3953,27.3374],[88.3972,27.3377],[88.3976,27.3391],[88.4007,27.3444],[88.404,27.3487],[88.4059,27.3561],[88.4072,27.3582],[88.4088,27.3594],[88.4109,27.3595],[88.4177,27.3559],[88.4265,27.3551],[88.4246,27.3466],[88.4422,27.3403],[88.4456,27.3407],[88.4457,27.3408],[88.4494,27.3424],[88.4521,27.3443],[88.4768,27.3527],[88.4833,27.3425],[88.4778,27.3288],[88.4495,27.3154],[88.4433,27.296],[88.4377,27.2812],[88.4367,27.274],[88.4218,27.2715],[88.3959,27.2734],[88.3737,27.2685],[88.3679,27.2713],[88.3557,27.2684],[88.3647,27.2583],[88.3789,27.254],[88.3794,27.2489],[88.366,27.2431],[88.3552,27.2432],[88.3537,27.2438]]]},"properties":{"ac_no":15,"ac_name":"RANGANG-YANGANG","ac_category":"GEN","st_name":"SIKKIM"}},{"type":"Feature","geometry":{"type":"Polygon","coordinates":[[[88.3426,27.2324],[88.3451,27.2349],[88.3452,27.2364],[88.3459,27.2381],[88.3485,27.2396],[88.3537,27.2438],[88.3552,27.2432],[88.366,27.2431],[88.3794,27.2489],[88.3789,27.254],[88.3647,27.2583],[88.3557,27.2684],[88.3679,27.2713],[88.3737,27.2685],[88.3959,27.2734],[88.4218,27.2715],[88.4367,27.274],[88.4421,27.2613],[88.4598,27.2506],[88.476,27.2467],[88.4859,27.2395],[88.4898,27.2305],[88.4865,27.2054],[88.4669,27.2038],[88.4595,27.2125],[88.4503,27.2084],[88.4253,27.2123],[88.4023,27.1982],[88.397,27.1886],[88.3854,27.1804],[88.3692,27.1864],[88.3827,27.1896],[88.3932,27.2037],[88.3948,27.2246],[88.383,27.234],[88.3643,27.2296],[88.357,27.2354],[88.3426,27.2324]]]},"properties":{"ac_no":14,"ac_name":"TEMI-NAMPHING","ac_category":"GEN","st_name":"SIKKIM"}},{"type":"Feature","geometry":{"type":"Polygon","coordinates":[[[88.6508,27.1643],[88.6388,27.1677],[88.619,27.1879],[88.5915,27.1945],[88.5638,27.1882],[88.5592,27.1985],[88.5501,27.2],[88.5398,27.211],[88.5418,27.2269],[88.5534,27.2282],[88.5652,27.2385],[88.5703,27.2418],[88.5796,27.237],[88.6003,27.2362],[88.6083,27.2431],[88.6144,27.2398],[88.6344,27.2408],[88.6387,27.2337],[88.636,27.2254],[88.6288,27.2193],[88.6336,27.2069],[88.6404,27.1978],[88.6562,27.1923],[88.6508,27.1643]]]},"properties":{"ac_no":19,"ac_name":"RHENOCK","ac_category":"GEN","st_name":"SIKKIM"}},{"type":"Feature","geometry":{"type":"Polygon","coordinates":[[[88.6472,27.3322],[88.644,27.329],[88.6409,27.3233],[88.6379,27.3213],[88.6349,27.3183],[88.6318,27.3156],[88.6316,27.3133],[88.6324,27.312],[88.6332,27.3109],[88.6434,27.3093],[88.6477,27.3082],[88.6526,27.3073],[88.6508,27.3052],[88.6039,27.2924],[88.6002,27.2926],[88.5984,27.2954],[88.6016,27.2967],[88.6028,27.2986],[88.6028,27.2993],[88.6013,27.3003],[88.5999,27.3017],[88.5984,27.3029],[88.598,27.3054],[88.5976,27.3082],[88.5975,27.3091],[88.5992,27.3108],[88.6023,27.3154],[88.6043,27.3201],[88.6032,27.3233],[88.6036,27.324],[88.6044,27.3254],[88.6074,27.326],[88.61,27.327],[88.6112,27.3282],[88.612,27.3324],[88.6111,27.3345],[88.6104,27.3354],[88.6116,27.3356],[88.6143,27.3355],[88.6161,27.3354],[88.6178,27.3353],[88.6178,27.3364],[88.6184,27.3379],[88.6185,27.3395],[88.6206,27.3427],[88.6219,27.343],[88.6256,27.3429],[88.6288,27.3445],[88.6305,27.3472],[88.6351,27.3505],[88.656,27.3505],[88.6585,27.3453],[88.6612,27.3443],[88.6616,27.34],[88.6614,27.3372],[88.6592,27.3349],[88.655,27.3338],[88.6472,27.3322]]]},"properties":{"ac_no":23,"ac_name":"SHYARI","ac_category":"ST","st_name":"SIKKIM"}},{"type":"Feature","geometry":{"type":"Polygon","coordinates":[[[88.5851,27.3076],[88.5975,27.3091],[88.5976,27.3082],[88.598,27.3054],[88.5984,27.3029],[88.6013,27.3003],[88.6028,27.2993],[88.6028,27.2986],[88.6016,27.2967],[88.5984,27.2954],[88.6039,27.2924],[88.6508,27.3052],[88.6517,27.3064],[88.6526,27.3073],[88.6626,27.3046],[88.6589,27.2884],[88.6491,27.2813],[88.6366,27.2768],[88.649,27.2666],[88.6414,27.2508],[88.6279,27.2507],[88.6307,27.2643],[88.6186,27.2723],[88.6073,27.2639],[88.5997,27.2529],[88.5841,27.2484],[88.5729,27.2484],[88.5642,27.2535],[88.5625,27.2531],[88.5617,27.2529],[88.5476,27.2528],[88.5589,27.2402],[88.5449,27.2329],[88.528,27.2387],[88.5228,27.2301],[88.5149,27.228],[88.5067,27.2342],[88.5027,27.2356],[88.5008,27.236],[88.5006,27.2364],[88.5017,27.237],[88.5184,27.2442],[88.5213,27.2456],[88.5214,27.2456],[88.5228,27.2477],[88.5278,27.2506],[88.5307,27.2525],[88.5308,27.2525],[88.5349,27.2527],[88.5553,27.2663],[88.5643,27.265],[88.5644,27.265],[88.5678,27.2653],[88.5679,27.2653],[88.5704,27.2659],[88.5773,27.2714],[88.5854,27.2696],[88.5921,27.279],[88.5928,27.2894],[88.5856,27.3002],[88.5851,27.3076]]]},"properties":{"ac_no":22,"ac_name":"NAMCHEYBUNG","ac_category":"GEN","st_name":"SIKKIM"}},{"type":"Feature","geometry":{"type":"Polygon","coordinates":[[[88.593,27.3306],[88.5984,27.3282],[88.6023,27.3246],[88.6043,27.3201],[88.5975,27.3091],[88.5851,27.3076],[88.5838,27.3166],[88.5921,27.3306],[88.593,27.3306],[88.5984,27.3282],[88.6023,27.3246],[88.6043,27.3201],[88.5975,27.3091],[88.593,27.3306]]]},"properties":{"ac_no":25,"ac_name":"UPPER TADONG","ac_category":"GEN","st_name":"SIKKIM"}},{"type":"Feature","geometry":{"type":"Polygon","coordinates":[[[88.5921,27.3306],[88.5789,27.3319],[88.5712,27.3496],[88.5705,27.3638],[88.5982,27.3761],[88.6092,27.3679],[88.6185,27.3746],[88.6244,27.3731],[88.626,27.3545],[88.621,27.354],[88.6005,27.3505],[88.6069,27.3377],[88.601,27.338],[88.5921,27.3306]]]},"properties":{"ac_no":28,"ac_name":"UPPER BURTUK","ac_category":"GEN","st_name":"SIKKIM"}},{"type":"Feature","geometry":{"type":"Polygon","coordinates":[[[88.4898,27.2305],[88.4859,27.2395],[88.476,27.2467],[88.4598,27.2506],[88.4421,27.2613],[88.4367,27.274],[88.4377,27.2812],[88.4427,27.2944],[88.4446,27.2945],[88.4486,27.2952],[88.4516,27.2962],[88.4639,27.3126],[88.4895,27.3277],[88.4999,27.316],[88.4995,27.3109],[88.4721,27.3029],[88.4812,27.2854],[88.4764,27.2805],[88.4804,27.2665],[88.4849,27.2644],[88.4862,27.2658],[88.4887,27.2684],[88.4887,27.2685],[88.4903,27.2707],[88.4904,27.2707],[88.4913,27.2726],[88.5009,27.2754],[88.504,27.2671],[88.5049,27.2662],[88.5064,27.2658],[88.5075,27.2646],[88.5084,27.2627],[88.5098,27.2618],[88.5099,27.2618],[88.5278,27.2506],[88.5228,27.2477],[88.5214,27.2456],[88.5213,27.2456],[88.5184,27.2442],[88.5017,27.237],[88.4999,27.2359],[88.4898,27.2305]]]},"properties":{"ac_no":17,"ac_name":"KHAMDONG-SINGTAM","ac_category":"GEN","st_name":"SIKKIM"}},{"type":"Feature","geometry":{"type":"Polygon","coordinates":[[[88.621,27.354],[88.6219,27.343],[88.6206,27.3427],[88.6185,27.3395],[88.6184,27.3379],[88.6178,27.3364],[88.6178,27.3353],[88.6116,27.3356],[88.6104,27.3354],[88.6093,27.3367],[88.6069,27.3377],[88.6005,27.3505],[88.621,27.354]]]},"properties":{"ac_no":27,"ac_name":"GANGTOK","ac_category":"ST","st_name":"SIKKIM"}},{"type":"Feature","geometry":{"type":"Polygon","coordinates":[[[88.6104,27.3354],[88.6111,27.3345],[88.612,27.3324],[88.6112,27.3282],[88.61,27.327],[88.6074,27.326],[88.6042,27.3253],[88.6036,27.324],[88.6032,27.3233],[88.6023,27.3246],[88.5984,27.3282],[88.593,27.3306],[88.5921,27.3306],[88.601,27.338],[88.6069,27.3377],[88.6093,27.3367],[88.6111,27.3345],[88.612,27.3324],[88.6112,27.3282],[88.61,27.327],[88.6074,27.326],[88.6042,27.3253],[88.6036,27.324],[88.6104,27.3354]]]},"properties":{"ac_no":26,"ac_name":"ARITHANG","ac_category":"GEN","st_name":"SIKKIM"}},{"type":"Feature","geometry":{"type":"Polygon","coordinates":[[[88.5621,27.4429],[88.5622,27.4429],[88.5675,27.446],[88.5675,27.4461],[88.5676,27.4462],[88.5717,27.4508],[88.5833,27.4639],[88.6142,27.4733],[88.6193,27.4815],[88.6334,27.4903],[88.6501,27.4955],[88.6821,27.4942],[88.6989,27.4861],[88.7261,27.4781],[88.7416,27.4691],[88.7522,27.4593],[88.7815,27.4678],[88.7834,27.4556],[88.7947,27.447],[88.794,27.4366],[88.8032,27.4271],[88.8093,27.4052],[88.8192,27.3993],[88.7857,27.3916],[88.7771,27.3869],[88.7539,27.3811],[88.7196,27.3784],[88.7205,27.3502],[88.7007,27.3444],[88.7046,27.3348],[88.6987,27.331],[88.655,27.3151],[88.654,27.3201],[88.6506,27.3228],[88.6451,27.3299],[88.6472,27.3322],[88.655,27.3338],[88.6592,27.3349],[88.6614,27.3372],[88.6616,27.34],[88.6612,27.3443],[88.6585,27.3453],[88.656,27.3505],[88.6351,27.3505],[88.6288,27.3445],[88.6256,27.3429],[88.6219,27.343],[88.621,27.354],[88.626,27.3545],[88.6244,27.3731],[88.6185,27.3746],[88.6092,27.3679],[88.5982,27.3761],[88.5705,27.3638],[88.5712,27.3496],[88.566,27.3466],[88.5517,27.3472],[88.544,27.3438],[88.53,27.355],[88.5427,27.3564],[88.5489,27.3688],[88.5427,27.3749],[88.5432,27.3934],[88.5182,27.3971],[88.5089,27.4191],[88.5101,27.4246],[88.5296,27.42],[88.5406,27.4205],[88.5574,27.4326],[88.5621,27.4429]]]},"properties":{"ac_no":29,"ac_name":"KABI LUNGCHUK","ac_category":"ST","st_name":"SIKKIM"}},{"type":"Feature","geometry":{"type":"Polygon","coordinates":[[[88.4995,27.3109],[88.4999,27.316],[88.4895,27.3277],[88.4639,27.3126],[88.4516,27.2962],[88.4486,27.2952],[88.4446,27.2945],[88.4427,27.2944],[88.4433,27.296],[88.4495,27.3154],[88.4778,27.3288],[88.4833,27.3425],[88.4768,27.3527],[88.4521,27.3443],[88.4494,27.3424],[88.4457,27.3408],[88.4456,27.3407],[88.4422,27.3403],[88.4246,27.3466],[88.4265,27.3551],[88.4177,27.3559],[88.4109,27.3595],[88.4088,27.3594],[88.4099,27.3612],[88.4094,27.3655],[88.4083,27.3701],[88.4085,27.3726],[88.4066,27.374],[88.405,27.3764],[88.3995,27.3796],[88.3969,27.3886],[88.3977,27.3926],[88.398,27.3962],[88.3997,27.3991],[88.4032,27.4024],[88.4024,27.41],[88.4043,27.4127],[88.4065,27.4159],[88.4085,27.4193],[88.4105,27.4221],[88.4116,27.4236],[88.4384,27.3936],[88.4487,27.3886],[88.4654,27.3856],[88.481,27.3784],[88.4963,27.3825],[88.5182,27.3971],[88.5432,27.3934],[88.5427,27.3749],[88.5489,27.3688],[88.5427,27.3564],[88.53,27.355],[88.544,27.3438],[88.5283,27.338],[88.5317,27.3271],[88.5258,27.319],[88.507,27.3076],[88.4995,27.3109]]]},"properties":{"ac_no":16,"ac_name":"TUMEN-LINGI","ac_category":"ST","st_name":"SIKKIM"}},{"type":"Feature","geometry":{"type":"Polygon","coordinates":[[[88.4995,27.3109],[88.507,27.3076],[88.5258,27.319],[88.5317,27.3271],[88.5283,27.338],[88.544,27.3438],[88.5517,27.3472],[88.566,27.3466],[88.5712,27.3496],[88.5789,27.3319],[88.5921,27.3306],[88.5838,27.3166],[88.5851,27.3076],[88.5856,27.3002],[88.5928,27.2894],[88.5921,27.279],[88.5854,27.2696],[88.5773,27.2714],[88.5704,27.2659],[88.5679,27.2653],[88.5678,27.2653],[88.5644,27.265],[88.5643,27.265],[88.5553,27.2663],[88.5349,27.2527],[88.5308,27.2525],[88.5307,27.2525],[88.5278,27.2506],[88.5099,27.2618],[88.5098,27.2618],[88.5084,27.2627],[88.5075,27.2646],[88.5064,27.2658],[88.5049,27.2662],[88.504,27.2671],[88.5009,27.2754],[88.4913,27.2726],[88.4904,27.2707],[88.4903,27.2707],[88.4887,27.2685],[88.4887,27.2684],[88.4862,27.2658],[88.4849,27.2644],[88.4804,27.2665],[88.4764,27.2805],[88.4812,27.2854],[88.4721,27.3029],[88.4995,27.3109]]]},"properties":{"ac_no":24,"ac_name":"MARTAM-RUMTEK","ac_category":"ST","st_name":"SIKKIM"}},{"type":"Feature","geometry":{"type":"Polygon","coordinates":[[[88.2936,27.2978],[88.2909,27.2972],[88.2856,27.295],[88.2753,27.2883],[88.2755,27.2894],[88.2705,27.2933],[88.2497,27.2963],[88.2508,27.2907],[88.2368,27.2715],[88.2264,27.2699],[88.2241,27.27],[88.224,27.27],[88.2217,27.2711],[88.1977,27.2685],[88.1941,27.2834],[88.1888,27.2921],[88.1605,27.2772],[88.1469,27.2774],[88.1185,27.2828],[88.1056,27.2793],[88.0977,27.3002],[88.0899,27.2952],[88.0777,27.2994],[88.0673,27.3086],[88.0668,27.3162],[88.0538,27.3289],[88.0572,27.3384],[88.0535,27.3537],[88.0395,27.3642],[88.0366,27.3728],[88.0495,27.3663],[88.0691,27.369],[88.0927,27.3588],[88.1055,27.36],[88.1167,27.3497],[88.1398,27.3368],[88.1428,27.33],[88.1607,27.3149],[88.1727,27.3119],[88.1983,27.3172],[88.2124,27.3173],[88.219,27.3244],[88.2248,27.3421],[88.2366,27.3332],[88.254,27.3324],[88.2693,27.3249],[88.2754,27.3193],[88.279,27.3054],[88.2936,27.2978]]]},"properties":{"ac_no":2,"ac_name":"YANGTHANG","ac_category":"GEN","st_name":"SIKKIM"}},{"type":"Feature","geometry":{"type":"Polygon","coordinates":[[[88.0366,27.3728],[88.0363,27.3832],[88.041,27.4074],[88.0461,27.415],[88.0628,27.4262],[88.0608,27.4512],[88.0426,27.4723],[88.0393,27.4938],[88.052,27.5118],[88.0549,27.5229],[88.0619,27.5345],[88.0553,27.5378],[88.059,27.5496],[88.0754,27.5621],[88.0716,27.5798],[88.0778,27.5904],[88.0995,27.6044],[88.1058,27.6123],[88.1193,27.5944],[88.1475,27.5902],[88.1889,27.5795],[88.2162,27.5804],[88.2156,27.5522],[88.2183,27.5319],[88.2255,27.523],[88.2406,27.5204],[88.2472,27.5254],[88.2552,27.5035],[88.2588,27.4596],[88.2638,27.4438],[88.2668,27.4103],[88.2786,27.4009],[88.2866,27.4054],[88.2895,27.4079],[88.2925,27.4098],[88.2963,27.4116],[88.3072,27.4118],[88.3366,27.4026],[88.3429,27.4046],[88.3481,27.4068],[88.3499,27.403],[88.3525,27.3994],[88.3532,27.39],[88.3523,27.3844],[88.3532,27.3784],[88.3442,27.3741],[88.3255,27.3688],[88.3229,27.365],[88.3177,27.3494],[88.2953,27.3342],[88.293,27.331],[88.2917,27.3269],[88.2951,27.3234],[88.3002,27.3214],[88.3056,27.3158],[88.306,27.3057],[88.3044,27.3028],[88.3015,27.2996],[88.2936,27.2978],[88.279,27.3054],[88.2754,27.3193],[88.2693,27.3249],[88.254,27.3324],[88.2366,27.3332],[88.2248,27.3421],[88.219,27.3244],[88.2124,27.3173],[88.1983,27.3172],[88.1727,27.3119],[88.1607,27.3149],[88.1428,27.33],[88.1398,27.3368],[88.1167,27.3497],[88.1055,27.36],[88.0927,27.3588],[88.0691,27.369],[88.0495,27.3663],[88.0366,27.3728]]]},"properties":{"ac_no":1,"ac_name":"YUKSOM-TASHIDING","ac_category":"ST","st_name":"SIKKIM"}},{"type":"Feature","geometry":{"type":"Polygon","coordinates":[[[88.2753,27.2883],[88.2741,27.2864],[88.2734,27.2817],[88.276,27.2783],[88.279,27.2757],[88.2844,27.2732],[88.2916,27.2664],[88.299,27.261],[88.3007,27.2566],[88.3006,27.2462],[88.2983,27.237],[88.2802,27.2407],[88.2662,27.2382],[88.2497,27.2514],[88.2461,27.2464],[88.2286,27.2386],[88.214,27.2379],[88.1814,27.2195],[88.1725,27.2082],[88.1561,27.2089],[88.1542,27.2097],[88.1569,27.2121],[88.1671,27.2373],[88.1691,27.2474],[88.1909,27.256],[88.1977,27.2685],[88.2217,27.2711],[88.224,27.27],[88.2241,27.27],[88.2264,27.2699],[88.2368,27.2715],[88.2508,27.2907],[88.2497,27.2963],[88.2705,27.2933],[88.2755,27.2894],[88.2753,27.2883]]]},"properties":{"ac_no":4,"ac_name":"GYALSHING-BARNYAK","ac_category":"GEN","st_name":"SIKKIM"}},{"type":"Feature","geometry":{"type":"Polygon","coordinates":[[[88.4036,27.1556],[88.4091,27.1714],[88.397,27.1886],[88.4023,27.1982],[88.4253,27.2123],[88.4503,27.2084],[88.4595,27.2125],[88.4669,27.2038],[88.4865,27.2054],[88.499,27.1851],[88.5208,27.1782],[88.5298,27.1658],[88.532,27.1543],[88.5217,27.1503],[88.4956,27.1254],[88.4867,27.1268],[88.4691,27.1173],[88.4662,27.1113],[88.4611,27.1246],[88.4477,27.1219],[88.4429,27.1224],[88.4428,27.1224],[88.4386,27.1222],[88.4397,27.1323],[88.4297,27.1374],[88.4241,27.1488],[88.4117,27.1551],[88.4036,27.1556]]]},"properties":{"ac_no":13,"ac_name":"NAMTHANG-RATEYPANI","ac_category":"GEN","st_name":"SIKKIM"}},{"type":"Feature","geometry":{"type":"Polygon","coordinates":[[[88.3073,27.1817],[88.3238,27.1876],[88.3295,27.1946],[88.3181,27.2206],[88.315,27.2233],[88.3169,27.2296],[88.3206,27.229],[88.3224,27.2297],[88.3237,27.2297],[88.3265,27.2315],[88.3328,27.2298],[88.3365,27.2321],[88.3385,27.232],[88.3405,27.2312],[88.3426,27.2324],[88.357,27.2354],[88.3643,27.2296],[88.383,27.234],[88.3948,27.2246],[88.3932,27.2037],[88.3827,27.1896],[88.3692,27.1864],[88.3649,27.192],[88.3397,27.1827],[88.3267,27.1742],[88.3356,27.1657],[88.3449,27.1616],[88.3404,27.1453],[88.3393,27.1296],[88.3345,27.1146],[88.321,27.113],[88.3205,27.1166],[88.3154,27.1319],[88.3043,27.1342],[88.3035,27.1405],[88.2874,27.1484],[88.2856,27.1542],[88.296,27.1737],[88.3073,27.1817]]]},"properties":{"ac_no":10,"ac_name":"POKLOK-KAMRANG","ac_category":"GEN","st_name":"SIKKIM"}},{"type":"Feature","geometry":{"type":"Polygon","coordinates":[[[88.3205,27.1166],[88.321,27.113],[88.3345,27.1146],[88.3393,27.1296],[88.3404,27.1453],[88.351,27.1411],[88.3533,27.1285],[88.3609,27.1203],[88.3721,27.1374],[88.3812,27.1365],[88.3953,27.141],[88.4017,27.1337],[88.4086,27.1393],[88.4025,27.1464],[88.4036,27.1556],[88.4117,27.1551],[88.4241,27.1488],[88.4297,27.1374],[88.4397,27.1323],[88.4386,27.1222],[88.4428,27.1224],[88.4429,27.1224],[88.4477,27.1219],[88.4611,27.1246],[88.4662,27.1113],[88.4602,27.0958],[88.4463,27.0854],[88.4319,27.0816],[88.411,27.0907],[88.3875,27.0984],[88.3639,27.0984],[88.3479,27.1033],[88.3408,27.1107],[88.3238,27.1049],[88.3201,27.1073],[88.3205,27.1166]]]},"properties":{"ac_no":12,"ac_name":"MELLI","ac_category":"GEN","st_name":"SIKKIM"}},{"type":"Feature","geometry":{"type":"Polygon","coordinates":[[[88.3404,27.1453],[88.3449,27.1616],[88.3356,27.1657],[88.3267,27.1742],[88.3397,27.1827],[88.3649,27.192],[88.3692,27.1864],[88.3854,27.1804],[88.397,27.1886],[88.4091,27.1714],[88.4036,27.1556],[88.4025,27.1464],[88.4086,27.1393],[88.4017,27.1337],[88.3953,27.141],[88.3812,27.1365],[88.3721,27.1374],[88.3609,27.1203],[88.3533,27.1285],[88.351,27.1411],[88.3404,27.1453]]]},"properties":{"ac_no":11,"ac_name":"NAMCHI-SINGHITHANG","ac_category":"GEN","st_name":"SIKKIM"}},{"type":"Feature","geometry":{"type":"Polygon","coordinates":[[[88.3205,27.1166],[88.3045,27.1286],[88.2949,27.1248],[88.2774,27.1312],[88.2515,27.1254],[88.2401,27.1204],[88.2269,27.1214],[88.2176,27.1303],[88.2398,27.132],[88.2492,27.1385],[88.2578,27.1503],[88.2651,27.1693],[88.2723,27.1729],[88.2699,27.1937],[88.2916,27.1874],[88.3029,27.1941],[88.3073,27.1817],[88.296,27.1737],[88.2856,27.1542],[88.2874,27.1484],[88.3035,27.1405],[88.3043,27.1342],[88.3154,27.1319],[88.3205,27.1166]]]},"properties":{"ac_no":8,"ac_name":"SALGHARI-ZOOM","ac_category":"SC","st_name":"SIKKIM"}},{"type":"Feature","geometry":{"type":"Polygon","coordinates":[[[88.2983,27.237],[88.3028,27.2261],[88.3055,27.2248],[88.315,27.2233],[88.3181,27.2206],[88.3295,27.1946],[88.3238,27.1876],[88.3073,27.1817],[88.3029,27.1941],[88.2916,27.1874],[88.2699,27.1937],[88.2723,27.1729],[88.2651,27.1693],[88.248,27.1695],[88.2444,27.1762],[88.2394,27.2068],[88.2262,27.2023],[88.2124,27.2029],[88.1956,27.1997],[88.18,27.201],[88.1725,27.2082],[88.1814,27.2195],[88.214,27.2379],[88.2286,27.2386],[88.2461,27.2464],[88.2497,27.2514],[88.2662,27.2382],[88.2802,27.2407],[88.2983,27.237]]]},"properties":{"ac_no":5,"ac_name":"RINCHENPONG","ac_category":"ST","st_name":"SIKKIM"}},{"type":"Feature","geometry":{"type":"Polygon","coordinates":[[[88.1977,27.2685],[88.1909,27.256],[88.1691,27.2474],[88.1671,27.2373],[88.1569,27.2121],[88.1542,27.2097],[88.153,27.2102],[88.1482,27.2126],[88.1264,27.2095],[88.1098,27.2035],[88.1098,27.211],[88.0984,27.2185],[88.0952,27.2309],[88.0899,27.2319],[88.0735,27.2205],[88.0643,27.2434],[88.04,27.2492],[88.0255,27.2481],[88.0248,27.2691],[88.0274,27.2809],[88.0344,27.29],[88.041,27.3122],[88.0538,27.3289],[88.0668,27.3162],[88.0673,27.3086],[88.0777,27.2994],[88.0899,27.2952],[88.0977,27.3002],[88.1056,27.2793],[88.1185,27.2828],[88.1469,27.2774],[88.1605,27.2772],[88.1888,27.2921],[88.1941,27.2834],[88.1977,27.2685]]]},"properties":{"ac_no":3,"ac_name":"MANEYBUNG-DENTAM","ac_category":"GEN","st_name":"SIKKIM"}},{"type":"Feature","geometry":{"type":"Polygon","coordinates":[[[88.153,27.2102],[88.1561,27.2089],[88.1725,27.2082],[88.18,27.201],[88.1956,27.1997],[88.2124,27.2029],[88.2262,27.2023],[88.2394,27.2068],[88.2444,27.1762],[88.248,27.1695],[88.2651,27.1693],[88.2578,27.1503],[88.2492,27.1385],[88.2398,27.132],[88.2176,27.1303],[88.1956,27.1362],[88.179,27.1347],[88.1607,27.1469],[88.1557,27.1572],[88.1581,27.1699],[88.1767,27.178],[88.1743,27.1864],[88.1544,27.1925],[88.1513,27.1935],[88.1512,27.1935],[88.1505,27.1938],[88.1505,27.1939],[88.1498,27.1942],[88.1404,27.2004],[88.1393,27.1995],[88.138,27.1974],[88.1336,27.1955],[88.1321,27.1953],[88.132,27.1953],[88.13,27.1954],[88.1098,27.2035],[88.1264,27.2095],[88.1482,27.2126],[88.153,27.2102]]]},"properties":{"ac_no":7,"ac_name":"SORENG-CHAKUNG","ac_category":"GEN","st_name":"SIKKIM"}},{"type":"Feature","geometry":{"type":"Polygon","coordinates":[[[88.1098,27.2035],[88.13,27.1954],[88.132,27.1953],[88.1321,27.1953],[88.1336,27.1955],[88.138,27.1974],[88.1393,27.1995],[88.1404,27.2004],[88.1498,27.1942],[88.1505,27.1939],[88.1505,27.1938],[88.1512,27.1935],[88.1513,27.1935],[88.1544,27.1925],[88.1743,27.1864],[88.1767,27.178],[88.1581,27.1699],[88.1557,27.1572],[88.1607,27.1469],[88.179,27.1347],[88.1584,27.1144],[88.1523,27.1117],[88.1366,27.1169],[88.0959,27.1355],[88.0858,27.1415],[88.083,27.1489],[88.0833,27.165],[88.0731,27.1744],[88.0675,27.1903],[88.0754,27.1988],[88.0582,27.2139],[88.0329,27.221],[88.0091,27.2169],[88.0098,27.2218],[88.0255,27.2481],[88.04,27.2492],[88.0643,27.2434],[88.0735,27.2205],[88.0899,27.2319],[88.0952,27.2309],[88.0984,27.2185],[88.1098,27.211],[88.1098,27.2035]]]},"properties":{"ac_no":6,"ac_name":"DARAMDIN","ac_category":"ST","st_name":"SIKKIM"}}]}