{"type":"FeatureCollection","features":[{"type":"Feature","properties":{"ac_name":"KADAMTALA - KURTI","ac_no":54,"ac_category":"GEN","st_name":"TRIPURA"},"geometry":{"type":"Polygon","coordinates":[[[92.16013,24.45456],[92.16719,24.44983],[92.17673,24.44684],[92.17693,24.4349],[92.20327,24.42666],[92.20116,24.41204],[92.20854,24.40918],[92.21901,24.41501],[92.23,24.40959],[92.23758,24.42086],[92.24975,24.41284],[92.25647,24.41886],[92.25955,24.43938],[92.23623,24.44617],[92.22812,24.4593],[92.22735,24.47895],[92.23648,24.48882],[92.23032,24.50237],[92.22462,24.49928],[92.21799,24.50196],[92.17763,24.52521],[92.16734,24.52815],[92.15572,24.52531],[92.15117,24.50389],[92.16013,24.45456]]]}},{"type":"Feature","properties":{"ac_name":"BAGBASSA","ac_no":55,"ac_category":"GEN","st_name":"TRIPURA"},"geometry":{"type":"Polygon","coordinates":[[[92.16719,24.44983],[92.16013,24.45456],[92.16939,24.42683],[92.16871,24.42223],[92.16384,24.42207],[92.16094,24.41786],[92.17419,24.41127],[92.18027,24.39949],[92.17187,24.36826],[92.16156,24.35357],[92.1782,24.34919],[92.17478,24.33777],[92.18461,24.32617],[92.19508,24.31857],[92.20372,24.32448],[92.21525,24.324],[92.23873,24.31215],[92.268,24.36789],[92.26808,24.37827],[92.27281,24.37899],[92.2686,24.38318],[92.27401,24.3881],[92.27062,24.39701],[92.26413,24.39904],[92.26383,24.41093],[92.25647,24.41886],[92.24975,24.41284],[92.23758,24.42086],[92.23,24.40959],[92.21901,24.41501],[92.20854,24.40918],[92.20116,24.41204],[92.20327,24.42666],[92.17693,24.4349],[92.17673,24.44684],[92.16719,24.44983]]]}},{"type":"Feature","properties":{"ac_name":"DHARMANAGAR","ac_no":56,"ac_category":"GEN","st_name":"TRIPURA"},"geometry":{"type":"Polygon","coordinates":[[[92.09154,24.37508],[92.09918,24.36484],[92.12871,24.37439],[92.13929,24.37032],[92.14168,24.36173],[92.16156,24.35357],[92.17187,24.36826],[92.18027,24.39949],[92.17419,24.41127],[92.16094,24.41786],[92.16384,24.42207],[92.13941,24.42536],[92.12249,24.39639],[92.12108,24.38284],[92.10146,24.38159],[92.09154,24.37508]]]}},{"type":"Feature","properties":{"ac_name":"KAILASAHAR","ac_no":53,"ac_category":"GEN","st_name":"TRIPURA"},"geometry":{"type":"Polygon","coordinates":[[[91.99326,24.32874],[91.99245,24.31238],[92.00917,24.29887],[92.01256,24.32221],[92.02027,24.32383],[92.03778,24.31638],[92.04023,24.33008],[92.05258,24.32944],[92.05086,24.30345],[92.04236,24.28364],[92.04838,24.23968],[92.04465,24.22321],[92.06723,24.2251],[92.06165,24.24194],[92.06974,24.26956],[92.07521,24.26803],[92.07936,24.29834],[92.07086,24.30884],[92.08733,24.37502],[92.03356,24.37794],[92.02179,24.38629],[92.00719,24.38531],[92.00281,24.39369],[91.99561,24.3942],[91.98818,24.38342],[91.97662,24.38706],[91.97152,24.38342],[91.97254,24.37765],[92.00185,24.33869],[92.00178,24.33382],[91.99326,24.32874]]]}},{"type":"Feature","properties":{"ac_name":"JUBARAJNAGAR","ac_no":57,"ac_category":"GEN","st_name":"TRIPURA"},"geometry":{"type":"Polygon","coordinates":[[[92.08733,24.37502],[92.07086,24.30884],[92.07936,24.29834],[92.07521,24.26803],[92.08765,24.2616],[92.09425,24.26545],[92.10091,24.25867],[92.10383,24.2665],[92.11267,24.268],[92.12995,24.28297],[92.13909,24.28553],[92.13764,24.29507],[92.15513,24.29165],[92.15096,24.28044],[92.16157,24.27778],[92.16811,24.28408],[92.16689,24.30705],[92.18461,24.32617],[92.17478,24.33777],[92.1782,24.34919],[92.16156,24.35357],[92.14168,24.36173],[92.13929,24.37032],[92.12871,24.37439],[92.09918,24.36484],[92.09154,24.37508],[92.08733,24.37502]]]}},{"type":"Feature","properties":{"ac_name":"CHANDIPUR","ac_no":52,"ac_category":"GEN","st_name":"TRIPURA"},"geometry":{"type":"Polygon","coordinates":[[[91.99326,24.32874],[91.97842,24.33424],[91.95926,24.35861],[91.92488,24.33974],[91.9244,24.32231],[91.9401,24.28393],[91.94095,24.25837],[91.92883,24.22868],[91.91512,24.16593],[91.92341,24.16622],[91.92819,24.18653],[91.94159,24.20236],[91.96037,24.21036],[91.97675,24.20062],[91.9832,24.20773],[91.99427,24.2074],[91.99639,24.22071],[92.01163,24.23658],[92.00836,24.26937],[92.0116,24.27301],[92.0221,24.24976],[92.0167,24.24072],[92.02524,24.24121],[92.02599,24.23795],[92.01854,24.23206],[92.01529,24.23696],[92.01153,24.23062],[92.03069,24.22758],[92.02557,24.2223],[92.03266,24.21171],[92.02911,24.21038],[92.02993,24.20577],[92.0438,24.20689],[92.0437,24.21341],[92.03627,24.21654],[92.03665,24.22163],[92.04465,24.22321],[92.04838,24.23968],[92.04236,24.28364],[92.05086,24.30345],[92.05258,24.32944],[92.04023,24.33008],[92.03778,24.31638],[92.02027,24.32383],[92.01256,24.32221],[92.00917,24.29887],[91.99245,24.31238],[91.99326,24.32874]]]}},{"type":"Feature","properties":{"ac_name":"PANISAGAR","ac_no":58,"ac_category":"GEN","st_name":"TRIPURA"},"geometry":{"type":"Polygon","coordinates":[[[92.21525,24.324],[92.20372,24.32448],[92.19508,24.31857],[92.18461,24.32617],[92.16689,24.30705],[92.16811,24.28408],[92.16157,24.27778],[92.15096,24.28044],[92.15513,24.29165],[92.13764,24.29507],[92.13909,24.28553],[92.12995,24.28297],[92.11267,24.268],[92.10383,24.2665],[92.10091,24.25867],[92.10512,24.25778],[92.1009,24.24757],[92.10584,24.23675],[92.11437,24.23689],[92.12577,24.22936],[92.13148,24.21818],[92.13365,24.22476],[92.14031,24.22121],[92.15122,24.19233],[92.15687,24.19646],[92.17109,24.18438],[92.18203,24.18697],[92.18465,24.17631],[92.19722,24.17901],[92.22045,24.14189],[92.22356,24.12929],[92.22609,24.13925],[92.2309,24.1348],[92.24357,24.13505],[92.2475,24.14626],[92.25645,24.14731],[92.26789,24.12591],[92.26495,24.11366],[92.27358,24.08263],[92.27455,24.04981],[92.30411,24.05742],[92.30337,24.07087],[92.30786,24.07628],[92.31668,24.07191],[92.32325,24.06805],[92.32192,24.07452],[92.32724,24.07653],[92.32139,24.07663],[92.32685,24.08259],[92.32567,24.09501],[92.32961,24.09853],[92.32636,24.10076],[92.33139,24.1069],[92.32741,24.11039],[92.33215,24.11404],[92.32652,24.11656],[92.32533,24.12327],[92.33093,24.12802],[92.32577,24.13008],[92.3272,24.14009],[92.33357,24.13922],[92.32991,24.14455],[92.3353,24.1429],[92.33654,24.14799],[92.32705,24.16627],[92.33186,24.18274],[92.32551,24.18664],[92.33006,24.18957],[92.31917,24.20235],[92.32424,24.20635],[92.31571,24.21378],[92.30985,24.21262],[92.31413,24.224],[92.30014,24.22161],[92.30239,24.22701],[92.29555,24.22769],[92.29923,24.23356],[92.29516,24.23491],[92.29268,24.24735],[92.29962,24.25247],[92.20972,24.24831],[92.23873,24.31215],[92.21525,24.324]]]}},{"type":"Feature","properties":{"ac_name":"PENCHARTHAL","ac_no":59,"ac_category":"ST","st_name":"TRIPURA"},"geometry":{"type":"Polygon","coordinates":[[[92.10091,24.25867],[92.09425,24.26545],[92.08765,24.2616],[92.07521,24.26803],[92.06974,24.26956],[92.06165,24.24194],[92.06723,24.2251],[92.07904,24.2044],[92.08228,24.20086],[92.08591,24.20398],[92.08171,24.19488],[92.08738,24.18597],[92.08541,24.17056],[92.09102,24.15825],[92.09513,24.12145],[92.10376,24.12459],[92.106,24.14129],[92.11602,24.14395],[92.12776,24.12962],[92.13157,24.1331],[92.13407,24.12769],[92.14797,24.1255],[92.13883,24.11852],[92.15268,24.11685],[92.16274,24.10824],[92.1586,24.08148],[92.13783,24.04717],[92.14116,24.03991],[92.13389,24.03264],[92.14537,24.02353],[92.1525,24.00541],[92.16083,24.00431],[92.1675,24.01159],[92.17708,24.00721],[92.19604,24.01447],[92.19208,24.03446],[92.19802,24.05206],[92.19276,24.05826],[92.19705,24.0599],[92.19386,24.06405],[92.19795,24.0735],[92.20226,24.07531],[92.20837,24.06408],[92.21567,24.05141],[92.21036,24.03631],[92.21457,24.02559],[92.22965,24.01982],[92.23618,24.02456],[92.24442,24.01929],[92.23839,24.01102],[92.23958,23.97817],[92.23082,23.97372],[92.22971,23.9681],[92.2373,23.96735],[92.25503,23.9421],[92.23724,23.86563],[92.24008,23.86048],[92.2586,23.86297],[92.25483,23.82178],[92.26029,23.81308],[92.27132,23.81805],[92.2857,23.81549],[92.27337,23.8447],[92.28947,23.86872],[92.29386,23.87035],[92.30888,23.86066],[92.32513,23.86924],[92.3253,23.87417],[92.31751,23.87554],[92.31546,23.88107],[92.32079,23.883],[92.31659,23.88534],[92.32157,23.88901],[92.32203,23.90218],[92.33113,23.90662],[92.33111,23.9207],[92.31254,23.93153],[92.31144,23.95813],[92.31348,23.96796],[92.32345,23.97296],[92.3229,23.97794],[92.32976,23.98341],[92.33109,23.99818],[92.32417,24.01283],[92.3173,24.01733],[92.31839,24.02203],[92.32147,24.01712],[92.32386,24.01962],[92.31811,24.0232],[92.31948,24.03387],[92.31477,24.03392],[92.31814,24.04133],[92.31454,24.04919],[92.32018,24.05064],[92.31847,24.05752],[92.32256,24.05856],[92.31518,24.06649],[92.31668,24.07191],[92.30786,24.07628],[92.30337,24.07087],[92.30411,24.05742],[92.27455,24.04981],[92.27358,24.08263],[92.26495,24.11366],[92.26789,24.12591],[92.25645,24.14731],[92.2475,24.14626],[92.24357,24.13505],[92.2309,24.1348],[92.22609,24.13925],[92.22356,24.12929],[92.22045,24.14189],[92.19722,24.17901],[92.18465,24.17631],[92.18203,24.18697],[92.17109,24.18438],[92.15687,24.19646],[92.15122,24.19233],[92.14031,24.22121],[92.13365,24.22476],[92.13148,24.21818],[92.12577,24.22936],[92.11437,24.23689],[92.10584,24.23675],[92.1009,24.24757],[92.10512,24.25778],[92.10091,24.25867]]]}},{"type":"Feature","properties":{"ac_name":"FATIKROY","ac_no":51,"ac_category":"SC","st_name":"TRIPURA"},"geometry":{"type":"Polygon","coordinates":[[[92.0167,24.24072],[92.0221,24.24976],[92.0116,24.27301],[92.00836,24.26937],[92.01163,24.23658],[91.99639,24.22071],[91.99427,24.2074],[91.9832,24.20773],[91.97675,24.20062],[91.96037,24.21036],[91.94159,24.20236],[91.92819,24.18653],[91.92341,24.16622],[91.91512,24.16593],[91.91009,24.14108],[91.91851,24.13],[91.96545,24.07251],[91.98633,24.07883],[91.97368,24.09523],[91.98535,24.0967],[91.98124,24.10063],[91.98759,24.10309],[91.98587,24.10882],[91.99043,24.11068],[91.98691,24.11347],[91.99939,24.11716],[91.99605,24.13305],[92.00202,24.13275],[92.0122,24.145],[92.02096,24.14702],[92.02392,24.15773],[92.01722,24.15972],[92.01493,24.19225],[92.01027,24.19359],[92.02911,24.21038],[92.03266,24.21171],[92.02557,24.2223],[92.03069,24.22758],[92.01153,24.23062],[92.01529,24.23696],[92.01854,24.23206],[92.02599,24.23795],[92.02524,24.24121],[92.0167,24.24072]]]}},{"type":"Feature","properties":{"ac_name":"PABIACHHARA","ac_no":50,"ac_category":"SC","st_name":"TRIPURA"},"geometry":{"type":"Polygon","coordinates":[[[92.04465,24.22321],[92.03665,24.22163],[92.03627,24.21654],[92.0437,24.21341],[92.0438,24.20689],[92.02993,24.20577],[92.02911,24.21038],[92.01027,24.19359],[92.01493,24.19225],[92.01722,24.15972],[92.02392,24.15773],[92.02096,24.14702],[92.0122,24.145],[92.00202,24.13275],[91.99605,24.13305],[91.99939,24.11716],[91.98691,24.11347],[91.99043,24.11068],[91.98587,24.10882],[91.98759,24.10309],[91.98124,24.10063],[91.98535,24.0967],[91.97368,24.09523],[91.98633,24.07883],[92.00877,24.08963],[92.05032,24.09977],[92.06758,24.09805],[92.07182,24.09515],[92.07392,24.07733],[92.07263,24.04298],[92.07901,24.03733],[92.07259,24.02738],[92.08025,24.01845],[92.09143,24.01916],[92.09798,24.00983],[92.09636,24.00139],[92.09203,23.99099],[92.10802,23.98923],[92.11752,23.99282],[92.12093,24.00178],[92.1525,24.00541],[92.14537,24.02353],[92.13389,24.03264],[92.14116,24.03991],[92.13783,24.04717],[92.1586,24.08148],[92.16274,24.10824],[92.15268,24.11685],[92.13883,24.11852],[92.14797,24.1255],[92.13407,24.12769],[92.13157,24.1331],[92.12776,24.12962],[92.11602,24.14395],[92.106,24.14129],[92.10376,24.12459],[92.09513,24.12145],[92.09102,24.15825],[92.08541,24.17056],[92.08738,24.18597],[92.08171,24.19488],[92.08591,24.20398],[92.08228,24.20086],[92.07904,24.2044],[92.06723,24.2251],[92.04465,24.22321]]]}},{"type":"Feature","properties":{"ac_name":"KAMALPUR","ac_no":45,"ac_category":"GEN","st_name":"TRIPURA"},"geometry":{"type":"Polygon","coordinates":[[[91.75836,24.142],[91.7505,24.07776],[91.7774,24.07159],[91.78009,24.08234],[91.80303,24.08158],[91.79891,24.09048],[91.80808,24.08802],[91.82862,24.09325],[91.82608,24.10065],[91.83365,24.11529],[91.82684,24.11774],[91.82366,24.14191],[91.81481,24.15652],[91.80877,24.15498],[91.80293,24.17037],[91.821,24.19147],[91.82316,24.19979],[91.82955,24.19898],[91.84084,24.22242],[91.8283,24.21413],[91.81934,24.21516],[91.8116,24.22341],[91.79506,24.22232],[91.74673,24.2455],[91.76479,24.14962],[91.76317,24.14221],[91.75836,24.142]]]}},{"type":"Feature","properties":{"ac_name":"SURMA","ac_no":46,"ac_category":"SC","st_name":"TRIPURA"},"geometry":{"type":"Polygon","coordinates":[[[91.84084,24.22242],[91.82955,24.19898],[91.82316,24.19979],[91.821,24.19147],[91.80293,24.17037],[91.80877,24.15498],[91.81481,24.15652],[91.82366,24.14191],[91.82684,24.11774],[91.83365,24.11529],[91.82608,24.10065],[91.82862,24.09325],[91.80808,24.08802],[91.79891,24.09048],[91.80303,24.08158],[91.78009,24.08234],[91.7774,24.07159],[91.7505,24.07776],[91.75782,24.02729],[91.75498,23.98709],[91.75808,23.97863],[91.77762,23.98171],[91.78882,23.97868],[91.80041,23.98748],[91.81566,23.97904],[91.81771,23.9835],[91.83767,23.98769],[91.83539,24.00607],[91.84509,24.01654],[91.8471,24.03007],[91.83649,24.04746],[91.84058,24.06674],[91.86514,24.05789],[91.87829,24.06447],[91.88721,24.05377],[91.895,24.06204],[91.89844,24.05352],[91.90681,24.05407],[91.90112,24.08864],[91.90863,24.09125],[91.90641,24.09667],[91.91851,24.13],[91.91009,24.14108],[91.8926,24.1362],[91.88687,24.14131],[91.87957,24.15933],[91.8474,24.1997],[91.85168,24.22113],[91.84496,24.22587],[91.84084,24.22242]]]}},{"type":"Feature","properties":{"ac_name":"ASHARAMBARI","ac_no":26,"ac_category":"ST","st_name":"TRIPURA"},"geometry":{"type":"Polygon","coordinates":[[[91.63236,24.10162],[91.65177,24.09408],[91.64767,24.08704],[91.63502,24.08907],[91.63002,24.07593],[91.63971,24.06898],[91.64345,24.05955],[91.65786,24.05693],[91.66357,24.04951],[91.65618,24.03488],[91.64653,24.03002],[91.65523,24.02699],[91.65184,24.02086],[91.66137,24.01278],[91.65665,24.00421],[91.67878,23.99443],[91.67935,23.97063],[91.69205,23.95109],[91.68731,23.937],[91.70191,23.92177],[91.70893,23.92365],[91.72722,23.90934],[91.74693,23.91917],[91.76331,23.93312],[91.75997,23.94006],[91.76563,23.94004],[91.76503,23.95333],[91.75697,23.96156],[91.76127,23.97387],[91.75808,23.97863],[91.75498,23.98709],[91.75782,24.02729],[91.7505,24.07776],[91.75836,24.142],[91.71259,24.15524],[91.70692,24.16315],[91.6959,24.16299],[91.68035,24.19882],[91.66831,24.21436],[91.67259,24.23281],[91.66834,24.23377],[91.65142,24.22011],[91.66084,24.18974],[91.6465,24.17484],[91.6438,24.15459],[91.63748,24.14597],[91.64128,24.11511],[91.63236,24.10162]]]}},{"type":"Feature","properties":{"ac_name":"KARAMCHHARA","ac_no":48,"ac_category":"ST","st_name":"TRIPURA"},"geometry":{"type":"Polygon","coordinates":[[[92.06758,24.09805],[92.05032,24.09977],[92.00877,24.08963],[91.98633,24.07883],[91.96545,24.07251],[91.91851,24.13],[91.90641,24.09667],[91.90863,24.09125],[91.90112,24.08864],[91.90681,24.05407],[91.904,24.03463],[91.9133,24.00471],[91.90891,23.98925],[91.91167,23.97142],[91.93741,23.91282],[91.98395,23.92975],[91.99855,23.91927],[92.02361,23.92184],[92.0072,23.93626],[92.00906,23.95863],[91.99948,23.96672],[92.00561,23.97834],[92.00064,24.00315],[92.02754,23.99279],[92.09636,24.00139],[92.09798,24.00983],[92.09143,24.01916],[92.08025,24.01845],[92.07259,24.02738],[92.07901,24.03733],[92.07263,24.04298],[92.07392,24.07733],[92.07182,24.09515],[92.06758,24.09805]]]}},{"type":"Feature","properties":{"ac_name":"KANCHANPUR","ac_no":60,"ac_category":"ST","st_name":"TRIPURA"},"geometry":{"type":"Polygon","coordinates":[[[92.20837,24.06408],[92.20226,24.07531],[92.19795,24.0735],[92.19386,24.06405],[92.19705,24.0599],[92.19276,24.05826],[92.19802,24.05206],[92.19208,24.03446],[92.19604,24.01447],[92.17708,24.00721],[92.1675,24.01159],[92.16083,24.00431],[92.1525,24.00541],[92.12093,24.00178],[92.11752,23.99282],[92.10802,23.98923],[92.09203,23.99099],[92.0931,23.96903],[92.10193,23.96244],[92.09206,23.9339],[92.11167,23.92547],[92.12831,23.93047],[92.15693,23.85386],[92.15721,23.79589],[92.16207,23.76778],[92.15906,23.76167],[92.16411,23.75409],[92.17339,23.75248],[92.16815,23.73851],[92.17413,23.73854],[92.17828,23.70883],[92.20535,23.70558],[92.21374,23.6917],[92.20876,23.66197],[92.21713,23.65242],[92.22945,23.66077],[92.23539,23.67108],[92.23455,23.68445],[92.24363,23.69676],[92.24367,23.71509],[92.25099,23.7228],[92.26636,23.72408],[92.26697,23.73592],[92.2685,23.76843],[92.26029,23.81308],[92.25483,23.82178],[92.2586,23.86297],[92.24008,23.86048],[92.23724,23.86563],[92.25503,23.9421],[92.2373,23.96735],[92.22971,23.9681],[92.23082,23.97372],[92.23958,23.97817],[92.23839,24.01102],[92.24442,24.01929],[92.23618,24.02456],[92.22965,24.01982],[92.21457,24.02559],[92.21036,24.03631],[92.21567,24.05141],[92.20837,24.06408]]]}},{"type":"Feature","properties":{"ac_name":"KHOWAI","ac_no":25,"ac_category":"GEN","st_name":"TRIPURA"},"geometry":{"type":"Polygon","coordinates":[[[91.58494,24.07706],[91.55192,24.03577],[91.56205,24.0233],[91.58998,24.03255],[91.60526,24.02068],[91.61458,24.0193],[91.62831,24.03114],[91.64653,24.03002],[91.65618,24.03488],[91.66357,24.04951],[91.65786,24.05693],[91.64345,24.05955],[91.63971,24.06898],[91.63002,24.07593],[91.63502,24.08907],[91.64767,24.08704],[91.65177,24.09408],[91.63236,24.10162],[91.62188,24.09592],[91.59994,24.09612],[91.60253,24.08133],[91.58494,24.07706]]]}},{"type":"Feature","properties":{"ac_name":"SIMNA","ac_no":1,"ac_category":"ST","st_name":"TRIPURA"},"geometry":{"type":"Polygon","coordinates":[[[91.4798,24.09814],[91.47722,24.09861],[91.47314,24.10187],[91.45455,24.09667],[91.44936,24.10162],[91.44248,24.09743],[91.4405,24.10256],[91.43033,24.10047],[91.42829,24.10845],[91.40154,24.11151],[91.37449,24.10796],[91.37696,24.08009],[91.39657,24.04981],[91.38642,24.02008],[91.3948,24.0197],[91.39914,24.00567],[91.43186,23.99086],[91.42685,23.95994],[91.44071,23.94891],[91.40284,23.94658],[91.41163,23.93686],[91.433,23.93148],[91.42714,23.93057],[91.41949,23.90825],[91.43903,23.8946],[91.44667,23.90452],[91.44201,23.91918],[91.44688,23.93277],[91.47091,23.92467],[91.47969,23.92599],[91.49406,23.91439],[91.51041,23.92251],[91.51832,23.93708],[91.52642,23.93951],[91.51912,23.94812],[91.51815,23.96253],[91.50621,23.97736],[91.50852,23.98709],[91.49452,24.00333],[91.48652,24.0422],[91.48854,24.05499],[91.47269,24.07399],[91.47991,24.07926],[91.4798,24.09814]]]}},{"type":"Feature","properties":{"ac_name":"RAMCHANDRAGHAT","ac_no":24,"ac_category":"ST","st_name":"TRIPURA"},"geometry":{"type":"Polygon","coordinates":[[[91.4798,24.09814],[91.47991,24.07926],[91.47269,24.07399],[91.48854,24.05499],[91.48652,24.0422],[91.49452,24.00333],[91.50852,23.98709],[91.50621,23.97736],[91.51815,23.96253],[91.51912,23.94812],[91.52642,23.93951],[91.52609,23.93443],[91.53595,23.9297],[91.58429,23.93452],[91.60098,23.94724],[91.60204,23.96628],[91.60768,23.97115],[91.61207,23.99375],[91.61727,23.99446],[91.61458,24.0193],[91.60526,24.02068],[91.58998,24.03255],[91.56205,24.0233],[91.55192,24.03577],[91.58494,24.07706],[91.57549,24.08086],[91.55045,24.07651],[91.49852,24.08677],[91.49359,24.09702],[91.47722,24.09861],[91.4798,24.09814]]]}},{"type":"Feature","properties":{"ac_name":"AMBASSA","ac_no":47,"ac_category":"ST","st_name":"TRIPURA"},"geometry":{"type":"Polygon","coordinates":[[[91.90681,24.05407],[91.89844,24.05352],[91.895,24.06204],[91.88721,24.05377],[91.87829,24.06447],[91.86514,24.05789],[91.84058,24.06674],[91.83649,24.04746],[91.8471,24.03007],[91.84509,24.01654],[91.83539,24.00607],[91.83767,23.98769],[91.81771,23.9835],[91.81566,23.97904],[91.80041,23.98748],[91.78882,23.97868],[91.77762,23.98171],[91.75808,23.97863],[91.76127,23.97387],[91.75697,23.96156],[91.76503,23.95333],[91.76563,23.94004],[91.76864,23.93398],[91.76435,23.93053],[91.76502,23.91649],[91.77447,23.91195],[91.77596,23.88956],[91.78313,23.88333],[91.77926,23.82386],[91.79868,23.82239],[91.80231,23.81746],[91.8066,23.82104],[91.83104,23.8188],[91.83777,23.8281],[91.86019,23.83035],[91.86826,23.8357],[91.87625,23.8261],[91.88467,23.82478],[91.89591,23.83205],[91.92578,23.83924],[91.95083,23.83173],[91.95771,23.83473],[91.95794,23.84195],[91.96527,23.83718],[91.96988,23.86074],[91.95951,23.88413],[91.96125,23.89116],[91.93741,23.91282],[91.91167,23.97142],[91.90891,23.98925],[91.9133,24.00471],[91.904,24.03463],[91.90681,24.05407]]]}},{"type":"Feature","properties":{"ac_name":"KALYANPUR-PRAMODENAGAR","ac_no":27,"ac_category":"GEN","st_name":"TRIPURA"},"geometry":{"type":"Polygon","coordinates":[[[91.64653,24.03002],[91.62831,24.03114],[91.61458,24.0193],[91.61727,23.99446],[91.61207,23.99375],[91.60768,23.97115],[91.60204,23.96628],[91.60098,23.94724],[91.58429,23.93452],[91.53595,23.9297],[91.53151,23.92731],[91.52762,23.90976],[91.54517,23.90562],[91.5539,23.91229],[91.55795,23.89982],[91.55432,23.88102],[91.58286,23.87774],[91.59187,23.88541],[91.63142,23.89099],[91.64314,23.88808],[91.66023,23.89446],[91.69262,23.90638],[91.70191,23.92177],[91.68731,23.937],[91.69205,23.95109],[91.67935,23.97063],[91.67878,23.99443],[91.65665,24.00421],[91.66137,24.01278],[91.65184,24.02086],[91.65523,24.02699],[91.64653,24.03002]]]}},{"type":"Feature","properties":{"ac_name":"CHHAWMANU","ac_no":49,"ac_category":"ST","st_name":"TRIPURA"},"geometry":{"type":"Polygon","coordinates":[[[92.09636,24.00139],[92.02754,23.99279],[92.00064,24.00315],[92.00561,23.97834],[91.99948,23.96672],[92.00906,23.95863],[92.0072,23.93626],[92.02361,23.92184],[91.99855,23.91927],[91.98395,23.92975],[91.93741,23.91282],[91.96125,23.89116],[91.95951,23.88413],[91.96988,23.86074],[91.96527,23.83718],[91.96129,23.83042],[91.96444,23.80869],[91.98066,23.74226],[91.97691,23.73331],[92.00935,23.66381],[92.03903,23.64841],[92.07413,23.64621],[92.082,23.66042],[92.08302,23.67452],[92.10369,23.67721],[92.13366,23.70804],[92.14308,23.72912],[92.16815,23.73851],[92.17339,23.75248],[92.16411,23.75409],[92.15906,23.76167],[92.16207,23.76778],[92.15721,23.79589],[92.15693,23.85386],[92.12831,23.93047],[92.11167,23.92547],[92.09206,23.9339],[92.10193,23.96244],[92.0931,23.96903],[92.09203,23.99099],[92.09636,24.00139]]]}},{"type":"Feature","properties":{"ac_name":"MOHANPUR","ac_no":2,"ac_category":"GEN","st_name":"TRIPURA"},"geometry":{"type":"Polygon","coordinates":[[[91.38642,24.02008],[91.37336,24.00291],[91.38242,23.97662],[91.36992,23.97868],[91.36031,23.98591],[91.33783,23.98246],[91.32523,23.99363],[91.30434,23.99018],[91.29991,23.97605],[91.30405,23.96127],[91.33831,23.95628],[91.34177,23.96566],[91.34682,23.95939],[91.36469,23.95807],[91.36378,23.95083],[91.35224,23.93932],[91.3587,23.93318],[91.35956,23.925],[91.35479,23.91992],[91.33933,23.92001],[91.33388,23.89513],[91.35723,23.8803],[91.37042,23.88685],[91.38447,23.90484],[91.41949,23.90825],[91.42714,23.93057],[91.433,23.93148],[91.41163,23.93686],[91.40284,23.94658],[91.44071,23.94891],[91.42685,23.95994],[91.43186,23.99086],[91.39914,24.00567],[91.3948,24.0197],[91.38642,24.02008]]]}},{"type":"Feature","properties":{"ac_name":"BAMUTIA","ac_no":3,"ac_category":"SC","st_name":"TRIPURA"},"geometry":{"type":"Polygon","coordinates":[[[91.2428,23.92047],[91.24498,23.90768],[91.25319,23.91347],[91.26035,23.90452],[91.2591,23.89359],[91.2745,23.89174],[91.28249,23.88418],[91.30843,23.89455],[91.3036,23.88099],[91.31278,23.8779],[91.33388,23.89513],[91.33933,23.92001],[91.35479,23.91992],[91.35956,23.925],[91.3587,23.93318],[91.35224,23.93932],[91.36378,23.95083],[91.36469,23.95807],[91.34682,23.95939],[91.34177,23.96566],[91.33831,23.95628],[91.30405,23.96127],[91.29991,23.97605],[91.29443,23.97059],[91.28774,23.97107],[91.28676,23.98045],[91.28154,23.98077],[91.26245,23.94763],[91.27367,23.92904],[91.26594,23.9259],[91.23899,23.92899],[91.2353,23.92552],[91.2428,23.92047]]]}},{"type":"Feature","properties":{"ac_name":"KRISHNAPUR","ac_no":29,"ac_category":"ST","st_name":"TRIPURA"},"geometry":{"type":"Polygon","coordinates":[[[91.76502,23.91649],[91.76435,23.93053],[91.76864,23.93398],[91.76563,23.94004],[91.75997,23.94006],[91.76331,23.93312],[91.74693,23.91917],[91.72722,23.90934],[91.70893,23.92365],[91.70191,23.92177],[91.69262,23.90638],[91.66023,23.89446],[91.67027,23.88967],[91.66193,23.88313],[91.65556,23.86668],[91.65991,23.85453],[91.65297,23.84297],[91.64314,23.83894],[91.6456,23.82694],[91.6374,23.82175],[91.64056,23.81381],[91.63053,23.80499],[91.61778,23.80473],[91.61101,23.79037],[91.59681,23.78225],[91.59558,23.7695],[91.60048,23.76382],[91.64692,23.76876],[91.64906,23.76432],[91.67314,23.76463],[91.69301,23.75779],[91.71732,23.76899],[91.7242,23.74862],[91.73754,23.74087],[91.74376,23.7292],[91.7429,23.71389],[91.73112,23.70827],[91.72987,23.70136],[91.74132,23.69268],[91.74799,23.67361],[91.75721,23.68286],[91.77146,23.68527],[91.77573,23.69146],[91.76982,23.7193],[91.78398,23.74284],[91.77682,23.75034],[91.77095,23.78143],[91.77518,23.79136],[91.77227,23.80007],[91.77937,23.8075],[91.76356,23.82372],[91.77929,23.81993],[91.77926,23.82386],[91.78313,23.88333],[91.77596,23.88956],[91.77447,23.91195],[91.76502,23.91649]]]}},{"type":"Feature","properties":{"ac_name":"MANDAIBAZAR","ac_no":11,"ac_category":"ST","st_name":"TRIPURA"},"geometry":{"type":"Polygon","coordinates":[[[91.52642,23.93951],[91.51832,23.93708],[91.51041,23.92251],[91.49406,23.91439],[91.47969,23.92599],[91.47091,23.92467],[91.44688,23.93277],[91.44201,23.91918],[91.44667,23.90452],[91.43903,23.8946],[91.41949,23.90825],[91.38447,23.90484],[91.37042,23.88685],[91.35723,23.8803],[91.3395,23.86546],[91.33697,23.8581],[91.36243,23.85489],[91.36109,23.84431],[91.37064,23.83654],[91.37672,23.84206],[91.40218,23.84818],[91.40802,23.84421],[91.44532,23.8481],[91.46967,23.84417],[91.48986,23.84654],[91.4858,23.82957],[91.47086,23.81684],[91.41227,23.82468],[91.40537,23.81867],[91.41008,23.8081],[91.43218,23.80159],[91.47512,23.80108],[91.48165,23.80568],[91.49353,23.80263],[91.5169,23.81453],[91.53688,23.81753],[91.54904,23.81591],[91.56475,23.80549],[91.56527,23.81941],[91.55947,23.82522],[91.56278,23.83275],[91.559,23.83684],[91.56435,23.86973],[91.55432,23.88102],[91.55795,23.89982],[91.5539,23.91229],[91.54517,23.90562],[91.52762,23.90976],[91.53151,23.92731],[91.53595,23.9297],[91.52609,23.93443],[91.52642,23.93951]]]}},{"type":"Feature","properties":{"ac_name":"TELIAMURA","ac_no":28,"ac_category":"GEN","st_name":"TRIPURA"},"geometry":{"type":"Polygon","coordinates":[[[91.66023,23.89446],[91.64314,23.88808],[91.63142,23.89099],[91.59187,23.88541],[91.58286,23.87774],[91.55432,23.88102],[91.56435,23.86973],[91.559,23.83684],[91.56278,23.83275],[91.55947,23.82522],[91.56527,23.81941],[91.56475,23.80549],[91.57231,23.76251],[91.57681,23.75977],[91.58189,23.76364],[91.58474,23.75935],[91.59551,23.75879],[91.60048,23.76382],[91.59558,23.7695],[91.59681,23.78225],[91.61101,23.79037],[91.61778,23.80473],[91.63053,23.80499],[91.64056,23.81381],[91.6374,23.82175],[91.6456,23.82694],[91.64314,23.83894],[91.65297,23.84297],[91.65991,23.85453],[91.65556,23.86668],[91.66193,23.88313],[91.67027,23.88967],[91.66023,23.89446]]]}},{"type":"Feature","properties":{"ac_name":"BARJALA","ac_no":4,"ac_category":"SC","st_name":"TRIPURA"},"geometry":{"type":"Polygon","coordinates":[[[91.3036,23.88099],[91.30843,23.89455],[91.28249,23.88418],[91.2745,23.89174],[91.2591,23.89359],[91.26035,23.90452],[91.25319,23.91347],[91.24498,23.90768],[91.22842,23.89525],[91.22945,23.88093],[91.23665,23.87586],[91.24741,23.84869],[91.25483,23.85899],[91.26447,23.85466],[91.27973,23.85708],[91.28557,23.87792],[91.29861,23.8769],[91.2996,23.86905],[91.3036,23.88099]]]}},{"type":"Feature","properties":{"ac_name":"KHAYERPUR","ac_no":5,"ac_category":"GEN","st_name":"TRIPURA"},"geometry":{"type":"Polygon","coordinates":[[[91.35723,23.8803],[91.33388,23.89513],[91.31278,23.8779],[91.3036,23.88099],[91.2996,23.86905],[91.29633,23.8524],[91.30527,23.84744],[91.30452,23.83819],[91.31667,23.83909],[91.32838,23.82126],[91.3307,23.81714],[91.33926,23.81389],[91.34059,23.80818],[91.33691,23.80298],[91.33787,23.78224],[91.35172,23.787],[91.35754,23.77969],[91.36888,23.77547],[91.37638,23.78128],[91.38474,23.77486],[91.38174,23.76963],[91.38533,23.76865],[91.3972,23.76343],[91.40369,23.76615],[91.39881,23.7841],[91.41429,23.79644],[91.41008,23.8081],[91.40537,23.81867],[91.41227,23.82468],[91.39351,23.83304],[91.39348,23.83859],[91.40802,23.84421],[91.40218,23.84818],[91.37672,23.84206],[91.37064,23.83654],[91.36109,23.84431],[91.36243,23.85489],[91.33697,23.8581],[91.3395,23.86546],[91.35723,23.8803]]]}},{"type":"Feature","properties":{"ac_name":"RAIMA VALLEY","ac_no":44,"ac_category":"ST","st_name":"TRIPURA"},"geometry":{"type":"Polygon","coordinates":[[[91.77926,23.82386],[91.77929,23.81993],[91.76356,23.82372],[91.77937,23.8075],[91.77227,23.80007],[91.77518,23.79136],[91.77095,23.78143],[91.77682,23.75034],[91.78398,23.74284],[91.76982,23.7193],[91.77573,23.69146],[91.78013,23.68879],[91.77466,23.65603],[91.7979,23.53848],[91.80164,23.52499],[91.85889,23.43698],[91.86364,23.4083],[91.88951,23.43427],[91.90895,23.44006],[91.9394,23.43642],[91.943,23.43969],[91.94013,23.46216],[91.9437,23.4714],[91.97565,23.48293],[91.96794,23.5126],[91.95632,23.52501],[91.96398,23.53896],[91.9536,23.5716],[91.95664,23.60575],[91.94515,23.62747],[91.9464,23.64698],[91.93818,23.66139],[91.9359,23.68188],[91.94183,23.69221],[91.95856,23.6987],[91.95043,23.71411],[91.95572,23.73175],[91.96786,23.73542],[91.97691,23.73331],[91.98066,23.74226],[91.96444,23.80869],[91.96129,23.83042],[91.96527,23.83718],[91.95794,23.84195],[91.95771,23.83473],[91.95083,23.83173],[91.92578,23.83924],[91.89591,23.83205],[91.88467,23.82478],[91.87625,23.8261],[91.86826,23.8357],[91.86019,23.83035],[91.83777,23.8281],[91.83104,23.8188],[91.8066,23.82104],[91.80231,23.81746],[91.79868,23.82239],[91.77926,23.82386]]]}},{"type":"Feature","properties":{"ac_name":"AGARTALA","ac_no":6,"ac_category":"GEN","st_name":"TRIPURA"},"geometry":{"type":"Polygon","coordinates":[[[91.2996,23.86905],[91.29861,23.8769],[91.28557,23.87792],[91.27973,23.85708],[91.28421,23.84737],[91.28775,23.84847],[91.29633,23.8524],[91.2996,23.86905]]]}},{"type":"Feature","properties":{"ac_name":"MAJLISHPUR","ac_no":10,"ac_category":"GEN","st_name":"TRIPURA"},"geometry":{"type":"Polygon","coordinates":[[[91.40802,23.84421],[91.39348,23.83859],[91.39351,23.83304],[91.41227,23.82468],[91.47086,23.81684],[91.4858,23.82957],[91.48986,23.84654],[91.46967,23.84417],[91.44532,23.8481],[91.40802,23.84421]]]}},{"type":"Feature","properties":{"ac_name":"RAMNAGAR","ac_no":7,"ac_category":"GEN","st_name":"TRIPURA"},"geometry":{"type":"Polygon","coordinates":[[[91.27973,23.85708],[91.26447,23.85466],[91.25483,23.85899],[91.24741,23.84869],[91.24957,23.83584],[91.26221,23.83824],[91.26674,23.8503],[91.27523,23.84399],[91.28421,23.84737],[91.27973,23.85708]]]}},{"type":"Feature","properties":{"ac_name":"BANAMALIPUR","ac_no":9,"ac_category":"GEN","st_name":"TRIPURA"},"geometry":{"type":"Polygon","coordinates":[[[91.29633,23.8524],[91.28775,23.84847],[91.28488,23.83686],[91.27522,23.83539],[91.27484,23.82719],[91.29478,23.8255],[91.30452,23.83819],[91.30527,23.84744],[91.29633,23.8524]]]}},{"type":"Feature","properties":{"ac_name":"TOWN BORDOWALI","ac_no":8,"ac_category":"GEN","st_name":"TRIPURA"},"geometry":{"type":"Polygon","coordinates":[[[91.28775,23.84847],[91.28421,23.84737],[91.27523,23.84399],[91.26674,23.8503],[91.26221,23.83824],[91.24957,23.83584],[91.24355,23.824],[91.25646,23.81834],[91.26773,23.82368],[91.27484,23.82719],[91.27522,23.83539],[91.28488,23.83686],[91.28775,23.84847]]]}},{"type":"Feature","properties":{"ac_name":"PRATAPGARH","ac_no":13,"ac_category":"SC","st_name":"TRIPURA"},"geometry":{"type":"Polygon","coordinates":[[[91.31667,23.83909],[91.30452,23.83819],[91.29478,23.8255],[91.27484,23.82719],[91.26773,23.82368],[91.27235,23.81838],[91.27841,23.81082],[91.29989,23.8126],[91.30729,23.81986],[91.32374,23.81676],[91.32838,23.82126],[91.31667,23.83909]]]}},{"type":"Feature","properties":{"ac_name":"TAKARJALA","ac_no":12,"ac_category":"ST","st_name":"TRIPURA"},"geometry":{"type":"Polygon","coordinates":[[[91.56475,23.80549],[91.54904,23.81591],[91.53688,23.81753],[91.5169,23.81453],[91.49353,23.80263],[91.48165,23.80568],[91.47512,23.80108],[91.43218,23.80159],[91.41008,23.8081],[91.41429,23.79644],[91.39881,23.7841],[91.40369,23.76615],[91.3972,23.76343],[91.38533,23.76865],[91.38422,23.74353],[91.3762,23.73766],[91.38021,23.72963],[91.37513,23.72538],[91.37931,23.72122],[91.39068,23.72287],[91.39733,23.71403],[91.39221,23.69941],[91.39484,23.67675],[91.38962,23.67254],[91.39096,23.66713],[91.40019,23.66284],[91.40042,23.64604],[91.41561,23.63271],[91.43552,23.63589],[91.44344,23.62919],[91.45379,23.63814],[91.45941,23.65552],[91.50313,23.68736],[91.50758,23.70482],[91.52619,23.70136],[91.52527,23.70547],[91.53862,23.71148],[91.53727,23.72679],[91.55859,23.72788],[91.56758,23.73585],[91.56829,23.73602],[91.5764,23.75252],[91.57231,23.76251],[91.56475,23.80549]]]}},{"type":"Feature","properties":{"ac_name":"SURYAMANINAGAR","ac_no":18,"ac_category":"GEN","st_name":"TRIPURA"},"geometry":{"type":"Polygon","coordinates":[[[91.3307,23.81714],[91.32838,23.82126],[91.32374,23.81676],[91.30729,23.81986],[91.29989,23.8126],[91.27841,23.81082],[91.28803,23.79013],[91.28405,23.7872],[91.26804,23.78588],[91.26427,23.79163],[91.2476,23.79205],[91.23158,23.79844],[91.2262,23.7906],[91.23055,23.7728],[91.23919,23.77181],[91.24558,23.75853],[91.25556,23.75391],[91.26298,23.75697],[91.26959,23.7488],[91.29208,23.7559],[91.31167,23.76476],[91.31918,23.76315],[91.31366,23.77577],[91.31646,23.78367],[91.32199,23.77893],[91.33787,23.78224],[91.33691,23.80298],[91.34059,23.80818],[91.33926,23.81389],[91.3307,23.81714]]]}},{"type":"Feature","properties":{"ac_name":"BADHARGHAT","ac_no":14,"ac_category":"SC","st_name":"TRIPURA"},"geometry":{"type":"Polygon","coordinates":[[[91.27235,23.81838],[91.26773,23.82368],[91.25646,23.81834],[91.24355,23.824],[91.23342,23.80999],[91.23158,23.79844],[91.2476,23.79205],[91.26427,23.79163],[91.26804,23.78588],[91.28405,23.7872],[91.28803,23.79013],[91.27841,23.81082],[91.27235,23.81838]]]}},{"type":"Feature","properties":{"ac_name":"AMPINAGAR","ac_no":41,"ac_category":"ST","st_name":"TRIPURA"},"geometry":{"type":"Polygon","coordinates":[[[91.60048,23.76382],[91.59551,23.75879],[91.58474,23.75935],[91.58616,23.74335],[91.59765,23.73652],[91.60794,23.7086],[91.61274,23.58969],[91.62098,23.58988],[91.63189,23.59902],[91.64084,23.59759],[91.65629,23.61907],[91.66937,23.62647],[91.67696,23.61082],[91.67509,23.59145],[91.69917,23.57975],[91.70339,23.56672],[91.7032,23.56243],[91.68486,23.55046],[91.70516,23.53436],[91.71264,23.53909],[91.72465,23.53525],[91.73353,23.53744],[91.74742,23.51335],[91.76348,23.45558],[91.76333,23.43186],[91.77069,23.4053],[91.76643,23.38227],[91.77366,23.33933],[91.77909,23.33541],[91.81017,23.34172],[91.82166,23.3491],[91.83201,23.36676],[91.82058,23.43934],[91.81081,23.46247],[91.79675,23.47595],[91.79234,23.49591],[91.78394,23.50473],[91.7711,23.53961],[91.78463,23.53359],[91.79177,23.53115],[91.7979,23.53848],[91.77466,23.65603],[91.78013,23.68879],[91.77573,23.69146],[91.77146,23.68527],[91.75721,23.68286],[91.74799,23.67361],[91.74132,23.69268],[91.72987,23.70136],[91.73112,23.70827],[91.7429,23.71389],[91.74376,23.7292],[91.73754,23.74087],[91.7242,23.74862],[91.71732,23.76899],[91.69301,23.75779],[91.67314,23.76463],[91.64906,23.76432],[91.64692,23.76876],[91.60048,23.76382]]]}},{"type":"Feature","properties":{"ac_name":"GOLAGHATI","ac_no":17,"ac_category":"ST","st_name":"TRIPURA"},"geometry":{"type":"Polygon","coordinates":[[[91.35754,23.77969],[91.35172,23.787],[91.33787,23.78224],[91.32199,23.77893],[91.31646,23.78367],[91.31366,23.77577],[91.31918,23.76315],[91.31167,23.76476],[91.29208,23.7559],[91.29145,23.74603],[91.28571,23.74406],[91.28198,23.73073],[91.2779,23.73112],[91.2812,23.71011],[91.2998,23.70777],[91.30273,23.69349],[91.31641,23.68408],[91.31942,23.67419],[91.3254,23.63975],[91.33195,23.6297],[91.34464,23.6262],[91.35197,23.62978],[91.35547,23.63885],[91.36226,23.62671],[91.36982,23.62333],[91.37188,23.60348],[91.38148,23.59447],[91.37264,23.59132],[91.39419,23.58113],[91.42686,23.60341],[91.43394,23.61334],[91.43106,23.61832],[91.44344,23.62919],[91.43552,23.63589],[91.41561,23.63271],[91.40042,23.64604],[91.40019,23.66284],[91.39096,23.66713],[91.38962,23.67254],[91.39484,23.67675],[91.39221,23.69941],[91.39733,23.71403],[91.39068,23.72287],[91.37931,23.72122],[91.37513,23.72538],[91.38021,23.72963],[91.3762,23.73766],[91.38422,23.74353],[91.38533,23.76865],[91.38174,23.76963],[91.38474,23.77486],[91.37638,23.78128],[91.36888,23.77547],[91.35754,23.77969]]]}},{"type":"Feature","properties":{"ac_name":"AMARPUR","ac_no":42,"ac_category":"GEN","st_name":"TRIPURA"},"geometry":{"type":"Polygon","coordinates":[[[91.57231,23.76251],[91.5764,23.75252],[91.56829,23.73602],[91.58025,23.70842],[91.57853,23.70125],[91.58818,23.67246],[91.59349,23.66721],[91.60022,23.63351],[91.60006,23.6286],[91.59499,23.62813],[91.5983,23.61739],[91.59762,23.60876],[91.60324,23.60285],[91.59957,23.59498],[91.60521,23.58245],[91.59934,23.57154],[91.60737,23.55064],[91.58987,23.55391],[91.58971,23.53322],[91.60072,23.51694],[91.59872,23.50284],[91.61058,23.49768],[91.61319,23.48919],[91.62219,23.48733],[91.61796,23.4722],[91.62557,23.45928],[91.6288,23.43582],[91.62577,23.42482],[91.6173,23.41632],[91.62482,23.38446],[91.62846,23.38201],[91.64228,23.39011],[91.666,23.38767],[91.68264,23.3583],[91.70316,23.35077],[91.70703,23.34877],[91.70329,23.36843],[91.68964,23.39772],[91.68398,23.39708],[91.67398,23.41059],[91.65131,23.41996],[91.65062,23.43555],[91.63889,23.45332],[91.64661,23.47265],[91.63289,23.49361],[91.63274,23.50948],[91.62699,23.51522],[91.65103,23.5324],[91.65167,23.52128],[91.69042,23.51589],[91.69756,23.51054],[91.70036,23.49327],[91.69656,23.48746],[91.68002,23.48665],[91.66509,23.49179],[91.65759,23.48808],[91.66527,23.47017],[91.66503,23.45704],[91.67567,23.45059],[91.68895,23.45987],[91.70342,23.45771],[91.72974,23.46494],[91.73046,23.5007],[91.73567,23.50839],[91.74742,23.51335],[91.73353,23.53744],[91.72465,23.53525],[91.71264,23.53909],[91.70516,23.53436],[91.68486,23.55046],[91.7032,23.56243],[91.70339,23.56672],[91.69917,23.57975],[91.67509,23.59145],[91.67696,23.61082],[91.66937,23.62647],[91.65629,23.61907],[91.64084,23.59759],[91.63189,23.59902],[91.62098,23.58988],[91.61274,23.58969],[91.60794,23.7086],[91.59765,23.73652],[91.58616,23.74335],[91.58474,23.75935],[91.58189,23.76364],[91.57681,23.75977],[91.57231,23.76251]]]}},{"type":"Feature","properties":{"ac_name":"KAMALASAGAR","ac_no":15,"ac_category":"GEN","st_name":"TRIPURA"},"geometry":{"type":"Polygon","coordinates":[[[91.23055,23.7728],[91.21863,23.73584],[91.20987,23.74863],[91.16659,23.7492],[91.1559,23.73609],[91.14864,23.71118],[91.15355,23.68865],[91.19491,23.69174],[91.2029,23.68514],[91.20781,23.68622],[91.20294,23.68095],[91.20189,23.66258],[91.20865,23.66529],[91.21312,23.67404],[91.21096,23.6852],[91.21711,23.69512],[91.22163,23.69251],[91.23209,23.70231],[91.23951,23.69427],[91.25291,23.69044],[91.25377,23.69451],[91.27399,23.70221],[91.27502,23.70932],[91.2812,23.71011],[91.2779,23.73112],[91.28198,23.73073],[91.28571,23.74406],[91.29145,23.74603],[91.29208,23.7559],[91.26959,23.7488],[91.26298,23.75697],[91.25556,23.75391],[91.24558,23.75853],[91.23919,23.77181],[91.23055,23.7728]]]}},{"type":"Feature","properties":{"ac_name":"BAGMA","ac_no":30,"ac_category":"ST","st_name":"TRIPURA"},"geometry":{"type":"Polygon","coordinates":[[[91.56758,23.73585],[91.55859,23.72788],[91.53727,23.72679],[91.53862,23.71148],[91.52527,23.70547],[91.52619,23.70136],[91.50758,23.70482],[91.50313,23.68736],[91.45941,23.65552],[91.45379,23.63814],[91.44344,23.62919],[91.43106,23.61832],[91.43394,23.61334],[91.42686,23.60341],[91.39419,23.58113],[91.39571,23.56236],[91.42011,23.5693],[91.42622,23.56712],[91.43245,23.5726],[91.439,23.56846],[91.44892,23.56939],[91.4559,23.57828],[91.47661,23.58355],[91.50526,23.56741],[91.51415,23.56826],[91.53478,23.56683],[91.53929,23.55913],[91.54735,23.55908],[91.55692,23.5511],[91.56479,23.55221],[91.56636,23.58934],[91.56102,23.59551],[91.56618,23.60877],[91.5983,23.61739],[91.59499,23.62813],[91.60006,23.6286],[91.60022,23.63351],[91.59349,23.66721],[91.58818,23.67246],[91.57853,23.70125],[91.58025,23.70842],[91.56829,23.73602],[91.56758,23.73585]]]}},{"type":"Feature","properties":{"ac_name":"BISHALGARH","ac_no":16,"ac_category":"GEN","st_name":"TRIPURA"},"geometry":{"type":"Polygon","coordinates":[[[91.2812,23.71011],[91.27502,23.70932],[91.27399,23.70221],[91.25377,23.69451],[91.25291,23.69044],[91.23951,23.69427],[91.23209,23.70231],[91.22163,23.69251],[91.21711,23.69512],[91.21096,23.6852],[91.21312,23.67404],[91.20865,23.66529],[91.21495,23.66668],[91.21783,23.63232],[91.22803,23.62988],[91.23622,23.63559],[91.23956,23.64801],[91.25777,23.64142],[91.27658,23.6616],[91.27633,23.6691],[91.28488,23.6654],[91.29669,23.67718],[91.30303,23.67339],[91.31035,23.68316],[91.31641,23.68408],[91.30273,23.69349],[91.2998,23.70777],[91.2812,23.71011]]]}},{"type":"Feature","properties":{"ac_name":"CHARILAM","ac_no":19,"ac_category":"ST","st_name":"TRIPURA"},"geometry":{"type":"Polygon","coordinates":[[[91.31942,23.67419],[91.31641,23.68408],[91.31035,23.68316],[91.30303,23.67339],[91.29669,23.67718],[91.28488,23.6654],[91.27633,23.6691],[91.27658,23.6616],[91.25777,23.64142],[91.23956,23.64801],[91.23622,23.63559],[91.22803,23.62988],[91.22656,23.62306],[91.21898,23.61824],[91.21793,23.60415],[91.22775,23.60161],[91.23742,23.5873],[91.24554,23.59337],[91.25426,23.58467],[91.25991,23.58463],[91.26058,23.57684],[91.27868,23.57251],[91.29103,23.57148],[91.29626,23.58636],[91.32037,23.58705],[91.32525,23.582],[91.33514,23.58376],[91.3409,23.57918],[91.35678,23.59092],[91.37264,23.59132],[91.38148,23.59447],[91.37188,23.60348],[91.36982,23.62333],[91.36226,23.62671],[91.35547,23.63885],[91.35197,23.62978],[91.34464,23.6262],[91.33195,23.6297],[91.3254,23.63975],[91.31942,23.67419]]]}},{"type":"Feature","properties":{"ac_name":"BOXANAGAR","ac_no":20,"ac_category":"GEN","st_name":"TRIPURA"},"geometry":{"type":"Polygon","coordinates":[[[91.20865,23.66529],[91.20189,23.66258],[91.20407,23.65024],[91.19323,23.64588],[91.19239,23.65444],[91.18251,23.65954],[91.18207,23.65645],[91.1703,23.65727],[91.15613,23.67052],[91.16124,23.65437],[91.15778,23.6243],[91.16254,23.59528],[91.17753,23.59256],[91.17501,23.58566],[91.18699,23.57782],[91.19489,23.56277],[91.19425,23.54746],[91.20165,23.5502],[91.20689,23.54545],[91.21259,23.5505],[91.2007,23.51989],[91.20747,23.5122],[91.22342,23.5143],[91.21765,23.4997],[91.22535,23.49778],[91.23537,23.50202],[91.23567,23.48891],[91.24667,23.48973],[91.24769,23.49366],[91.25998,23.48588],[91.26978,23.49297],[91.26896,23.51983],[91.27772,23.52604],[91.27874,23.54006],[91.2837,23.5532],[91.27868,23.57251],[91.26058,23.57684],[91.25991,23.58463],[91.25426,23.58467],[91.24554,23.59337],[91.23742,23.5873],[91.22775,23.60161],[91.21793,23.60415],[91.21898,23.61824],[91.22656,23.62306],[91.22803,23.62988],[91.21783,23.63232],[91.21495,23.66668],[91.20865,23.66529]]]}},{"type":"Feature","properties":{"ac_name":"MATARBARI","ac_no":32,"ac_category":"GEN","st_name":"TRIPURA"},"geometry":{"type":"Polygon","coordinates":[[[91.5983,23.61739],[91.56618,23.60877],[91.56102,23.59551],[91.56636,23.58934],[91.56479,23.55221],[91.55692,23.5511],[91.54735,23.55908],[91.53929,23.55913],[91.53478,23.56683],[91.51415,23.56826],[91.50626,23.54256],[91.48935,23.54395],[91.47347,23.52373],[91.46843,23.52613],[91.46432,23.5189],[91.449,23.52346],[91.44439,23.5186],[91.45019,23.50533],[91.44692,23.49686],[91.46238,23.48723],[91.45819,23.48349],[91.46108,23.47475],[91.45658,23.46672],[91.46131,23.4499],[91.45711,23.43889],[91.46518,23.42545],[91.48179,23.43049],[91.50773,23.42474],[91.5171,23.43565],[91.52737,23.4327],[91.53465,23.43662],[91.54154,23.43181],[91.56191,23.43731],[91.56805,23.42526],[91.57005,23.4429],[91.5575,23.47357],[91.57094,23.47869],[91.57535,23.46792],[91.58846,23.46476],[91.58727,23.44482],[91.60037,23.4495],[91.60615,23.45968],[91.62557,23.45928],[91.61796,23.4722],[91.62219,23.48733],[91.61319,23.48919],[91.61058,23.49768],[91.59872,23.50284],[91.60072,23.51694],[91.58971,23.53322],[91.58987,23.55391],[91.60737,23.55064],[91.59934,23.57154],[91.60521,23.58245],[91.59957,23.59498],[91.60324,23.60285],[91.59762,23.60876],[91.5983,23.61739]]]}},{"type":"Feature","properties":{"ac_name":"NALCHAR","ac_no":21,"ac_category":"SC","st_name":"TRIPURA"},"geometry":{"type":"Polygon","coordinates":[[[91.39419,23.58113],[91.37264,23.59132],[91.35678,23.59092],[91.3409,23.57918],[91.33514,23.58376],[91.32525,23.582],[91.32037,23.58705],[91.29626,23.58636],[91.29103,23.57148],[91.27868,23.57251],[91.2837,23.5532],[91.27874,23.54006],[91.27952,23.53916],[91.29091,23.52854],[91.30471,23.49714],[91.31534,23.49462],[91.31976,23.48601],[91.32324,23.49032],[91.3307,23.489],[91.33238,23.49683],[91.34846,23.49657],[91.34988,23.50536],[91.35924,23.51003],[91.35894,23.52182],[91.37882,23.51904],[91.3973,23.52272],[91.39146,23.5538],[91.39571,23.56236],[91.39419,23.58113]]]}},{"type":"Feature","properties":{"ac_name":"RADHAKISHOREPUR","ac_no":31,"ac_category":"GEN","st_name":"TRIPURA"},"geometry":{"type":"Polygon","coordinates":[[[91.51415,23.56826],[91.50526,23.56741],[91.47661,23.58355],[91.4559,23.57828],[91.44892,23.56939],[91.43931,23.54806],[91.44972,23.54619],[91.449,23.52346],[91.46432,23.5189],[91.46843,23.52613],[91.47347,23.52373],[91.48935,23.54395],[91.50626,23.54256],[91.51415,23.56826]]]}},{"type":"Feature","properties":{"ac_name":"KAKRABAN-SALGARAH","ac_no":33,"ac_category":"SC","st_name":"TRIPURA"},"geometry":{"type":"Polygon","coordinates":[[[91.44892,23.56939],[91.439,23.56846],[91.43245,23.5726],[91.42622,23.56712],[91.42011,23.5693],[91.39571,23.56236],[91.39146,23.5538],[91.3973,23.52272],[91.37882,23.51904],[91.37459,23.50911],[91.38033,23.49791],[91.37899,23.48176],[91.38755,23.47677],[91.37906,23.46685],[91.37347,23.44325],[91.38353,23.42255],[91.4111,23.42298],[91.41333,23.43709],[91.42187,23.43274],[91.43318,23.43036],[91.44566,23.41123],[91.46001,23.41346],[91.46535,23.41542],[91.46069,23.42281],[91.46518,23.42545],[91.45711,23.43889],[91.46131,23.4499],[91.45658,23.46672],[91.46108,23.47475],[91.45819,23.48349],[91.46238,23.48723],[91.44692,23.49686],[91.45019,23.50533],[91.44439,23.5186],[91.449,23.52346],[91.44972,23.54619],[91.43931,23.54806],[91.44892,23.56939]]]}},{"type":"Feature","properties":{"ac_name":"KARBOOK","ac_no":43,"ac_category":"ST","st_name":"TRIPURA"},"geometry":{"type":"GeometryCollection","geometries":[{"type":"Polygon","coordinates":[[[91.65167,23.52128,0],[91.69042,23.51589,0],[91.69756,23.51054,0],[91.70036,23.49327,0],[91.69656,23.48746,0],[91.68002,23.48665,0],[91.66509,23.49179,0],[91.65759,23.48808,0],[91.66527,23.47017,0],[91.66503,23.45704,0],[91.67567,23.45059,0],[91.68895,23.45987,0],[91.70342,23.45771,0],[91.72974,23.46494,0],[91.73046,23.5007,0],[91.73567,23.50839,0],[91.74742,23.51335,0],[91.76348,23.45558,0],[91.76333,23.43186,0],[91.77069,23.4053,0],[91.76643,23.38227,0],[91.77366,23.33933,0],[91.77909,23.33541,0],[91.81017,23.34172,0],[91.79927,23.31889,0],[91.78547,23.30725,0],[91.77473,23.27711,0],[91.77549,23.25192,0],[91.78853,23.23204,0],[91.7901,23.20161,0],[91.80235,23.18064,0],[91.81595,23.10394,0],[91.81822,23.10007,0],[91.83099,23.10114,0],[91.83229,23.09654,0],[91.81345,23.08289,0],[91.81728,23.07902,0],[91.80787,23.07021,0],[91.79304,23.06931,0],[91.78461,23.07468,0],[91.77595,23.07066,0],[91.77424,23.06469,0],[91.78268,23.0436,0],[91.77766,23.03419,0],[91.77097,23.04175,0],[91.76898,23.05294,0],[91.75203,23.04881,0],[91.74975,23.05151,0],[91.74065,23.07577,0],[91.73489,23.07777,0],[91.74245,23.09033,0],[91.735,23.0956,0],[91.73286,23.1174,0],[91.73649,23.12408,0],[91.73263,23.13509,0],[91.73708,23.14475,0],[91.7321,23.15394,0],[91.73602,23.15786,0],[91.72833,23.16386,0],[91.72868,23.17432,0],[91.72243,23.17822,0],[91.72373,23.18981,0],[91.73082,23.1991,0],[91.72519,23.21125,0],[91.72607,23.23761,0],[91.7205,23.24331,0],[91.71946,23.25718,0],[91.72304,23.2744,0],[91.73022,23.28105,0],[91.70938,23.30394,0],[91.71132,23.32794,0],[91.70316,23.35077,0],[91.70703,23.34877,0],[91.70329,23.36843,0],[91.68964,23.39772,0],[91.68398,23.39708,0],[91.67398,23.41059,0],[91.65131,23.41996,0],[91.65062,23.43555,0],[91.63889,23.45332,0],[91.64661,23.47265,0],[91.63289,23.49361,0],[91.63274,23.50948,0],[91.62699,23.51522,0],[91.65103,23.5324,0],[91.65167,23.52128,0]]]},{"type":"Polygon","coordinates":[[[91.78463,23.53359,0],[91.79177,23.53115,0],[91.7979,23.53848,0],[91.80164,23.52499,0],[91.85889,23.43698,0],[91.86364,23.4083,0],[91.84956,23.40606,0],[91.83983,23.39806,0],[91.83832,23.3742,0],[91.83201,23.36676,0],[91.82058,23.43934,0],[91.81081,23.46247,0],[91.79675,23.47595,0],[91.79234,23.49591,0],[91.78394,23.50473,0],[91.7711,23.53961,0],[91.78463,23.53359,0]]]}]}},{"type":"Feature","properties":{"ac_name":"SONAMURA","ac_no":22,"ac_category":"GEN","st_name":"TRIPURA"},"geometry":{"type":"Polygon","coordinates":[[[91.27952,23.53916],[91.27874,23.54006],[91.27772,23.52604],[91.26896,23.51983],[91.26978,23.49297],[91.25998,23.48588],[91.24769,23.49366],[91.24667,23.48973],[91.25643,23.44909],[91.26951,23.43359],[91.27113,23.42152],[91.27653,23.42769],[91.31947,23.42532],[91.31785,23.43905],[91.32567,23.45174],[91.32674,23.46436],[91.34678,23.46873],[91.35829,23.46513],[91.35943,23.47267],[91.36517,23.4734],[91.34846,23.49657],[91.33238,23.49683],[91.3307,23.489],[91.32324,23.49032],[91.31976,23.48601],[91.31534,23.49462],[91.30471,23.49714],[91.29091,23.52854],[91.27952,23.53916]]]}},{"type":"Feature","properties":{"ac_name":"DHANPUR","ac_no":23,"ac_category":"GEN","st_name":"TRIPURA"},"geometry":{"type":"Polygon","coordinates":[[[91.37882,23.51904],[91.35894,23.52182],[91.35924,23.51003],[91.34988,23.50536],[91.34846,23.49657],[91.36517,23.4734],[91.35943,23.47267],[91.35829,23.46513],[91.34678,23.46873],[91.32674,23.46436],[91.32567,23.45174],[91.31785,23.43905],[91.31947,23.42532],[91.27653,23.42769],[91.27113,23.42152],[91.27885,23.4121],[91.27754,23.39727],[91.28312,23.37729],[91.29366,23.38036],[91.29432,23.37377],[91.28887,23.37084],[91.29672,23.35122],[91.31403,23.36074],[91.31101,23.34973],[91.29722,23.34066],[91.29156,23.32101],[91.31314,23.31453],[91.31495,23.30931],[91.29996,23.29355],[91.30168,23.28742],[91.31511,23.28375],[91.31218,23.27407],[91.3359,23.27684],[91.36846,23.29913],[91.38819,23.33511],[91.38669,23.35251],[91.41789,23.3723],[91.4164,23.38598],[91.38078,23.40223],[91.38353,23.42255],[91.37347,23.44325],[91.37906,23.46685],[91.38755,23.47677],[91.37899,23.48176],[91.38033,23.49791],[91.37459,23.50911],[91.37882,23.51904]]]}},{"type":"Feature","properties":{"ac_name":"SANTIRBAZAR","ac_no":36,"ac_category":"ST","st_name":"TRIPURA"},"geometry":{"type":"Polygon","coordinates":[[[91.62557,23.45928],[91.60615,23.45968],[91.60037,23.4495],[91.58727,23.44482],[91.58846,23.46476],[91.57535,23.46792],[91.57094,23.47869],[91.5575,23.47357],[91.57005,23.4429],[91.56805,23.42526],[91.56191,23.43731],[91.54154,23.43181],[91.53465,23.43662],[91.52737,23.4327],[91.5171,23.43565],[91.50773,23.42474],[91.48179,23.43049],[91.46518,23.42545],[91.46069,23.42281],[91.46535,23.41542],[91.46001,23.41346],[91.46558,23.39996],[91.47644,23.39043],[91.47481,23.37573],[91.46652,23.37233],[91.47001,23.36504],[91.48433,23.35585],[91.48248,23.35068],[91.49397,23.35628],[91.50236,23.34833],[91.50478,23.3399],[91.49835,23.33708],[91.5011,23.33189],[91.49616,23.3321],[91.49286,23.32112],[91.50183,23.31387],[91.51394,23.32224],[91.53581,23.32194],[91.53654,23.30945],[91.54358,23.30982],[91.54805,23.31709],[91.57875,23.31874],[91.57814,23.30866],[91.56243,23.28961],[91.59259,23.29125],[91.61664,23.28266],[91.63025,23.29082],[91.6361,23.30408],[91.64185,23.30495],[91.65743,23.32247],[91.67469,23.31986],[91.6675,23.30269],[91.67727,23.25671],[91.69068,23.24059],[91.68833,23.2297],[91.6947,23.21526],[91.69282,23.20889],[91.70407,23.1957],[91.71933,23.19672],[91.72373,23.18981],[91.73082,23.1991],[91.72519,23.21125],[91.72607,23.23761],[91.7205,23.24331],[91.71946,23.25718],[91.72304,23.2744],[91.73022,23.28105],[91.70938,23.30394],[91.71132,23.32794],[91.70316,23.35077],[91.68264,23.3583],[91.666,23.38767],[91.64228,23.39011],[91.62846,23.38201],[91.62482,23.38446],[91.6173,23.41632],[91.62577,23.42482],[91.6288,23.43582],[91.62557,23.45928]]]}},{"type":"Feature","properties":{"ac_name":"RAJNAGAR","ac_no":34,"ac_category":"SC","st_name":"TRIPURA"},"geometry":{"type":"Polygon","coordinates":[[[91.42187,23.43274],[91.41333,23.43709],[91.4111,23.42298],[91.38353,23.42255],[91.38078,23.40223],[91.4164,23.38598],[91.41789,23.3723],[91.38669,23.35251],[91.38819,23.33511],[91.36846,23.29913],[91.3359,23.27684],[91.31218,23.27407],[91.31705,23.25731],[91.32609,23.2536],[91.3203,23.2465],[91.32471,23.22533],[91.32494,23.16519],[91.33196,23.15649],[91.35078,23.10121],[91.36772,23.07562],[91.3901,23.06299],[91.40113,23.06325],[91.41127,23.06496],[91.41861,23.07224],[91.4039,23.09976],[91.40486,23.11214],[91.39903,23.1185],[91.39276,23.15204],[91.38553,23.16155],[91.38148,23.19592],[91.38853,23.20411],[91.38551,23.21383],[91.38861,23.22623],[91.40019,23.23112],[91.39809,23.24608],[91.40602,23.25409],[91.39909,23.26388],[91.40318,23.26599],[91.41068,23.25847],[91.41367,23.26193],[91.40858,23.28256],[91.41477,23.31831],[91.43051,23.32957],[91.42166,23.33785],[91.4244,23.35845],[91.44076,23.35545],[91.45603,23.3752],[91.46652,23.37233],[91.47481,23.37573],[91.47644,23.39043],[91.46558,23.39996],[91.46001,23.41346],[91.44566,23.41123],[91.43318,23.43036],[91.42187,23.43274]]]}},{"type":"Feature","properties":{"ac_name":"BELONIA","ac_no":35,"ac_category":"GEN","st_name":"TRIPURA"},"geometry":{"type":"Polygon","coordinates":[[[91.46652,23.37233],[91.45603,23.3752],[91.44076,23.35545],[91.4244,23.35845],[91.42166,23.33785],[91.43051,23.32957],[91.41477,23.31831],[91.40858,23.28256],[91.41318,23.28296],[91.4219,23.26127],[91.45041,23.26268],[91.45966,23.27976],[91.46857,23.27945],[91.47239,23.27183],[91.48772,23.27861],[91.49547,23.27267],[91.50527,23.27626],[91.52882,23.29151],[91.56243,23.28961],[91.57814,23.30866],[91.57875,23.31874],[91.54805,23.31709],[91.54358,23.30982],[91.53654,23.30945],[91.53581,23.32194],[91.51394,23.32224],[91.50183,23.31387],[91.49286,23.32112],[91.49616,23.3321],[91.5011,23.33189],[91.49835,23.33708],[91.50478,23.3399],[91.50236,23.34833],[91.49397,23.35628],[91.48248,23.35068],[91.48433,23.35585],[91.47001,23.36504],[91.46652,23.37233]]]}},{"type":"Feature","properties":{"ac_name":"JOLAIBARI","ac_no":38,"ac_category":"ST","st_name":"TRIPURA"},"geometry":{"type":"Polygon","coordinates":[[[91.6675,23.30269],[91.67469,23.31986],[91.65743,23.32247],[91.64185,23.30495],[91.6361,23.30408],[91.63025,23.29082],[91.61664,23.28266],[91.59259,23.29125],[91.56243,23.28961],[91.52882,23.29151],[91.50527,23.27626],[91.51373,23.26468],[91.53981,23.25767],[91.54784,23.23855],[91.54356,23.23575],[91.54406,23.22438],[91.55207,23.20928],[91.55994,23.20681],[91.55682,23.20076],[91.5638,23.1946],[91.56205,23.1814],[91.56737,23.17083],[91.61679,23.17556],[91.63491,23.18255],[91.63958,23.17632],[91.70407,23.1957],[91.69282,23.20889],[91.6947,23.21526],[91.68833,23.2297],[91.69068,23.24059],[91.67727,23.25671],[91.6675,23.30269]]]}},{"type":"Feature","properties":{"ac_name":"HRISHYAMUKH","ac_no":37,"ac_category":"GEN","st_name":"TRIPURA"},"geometry":{"type":"Polygon","coordinates":[[[91.50527,23.27626],[91.49547,23.27267],[91.48772,23.27861],[91.47239,23.27183],[91.46857,23.27945],[91.45966,23.27976],[91.45041,23.26268],[91.45416,23.259],[91.45173,23.24778],[91.45985,23.24712],[91.4677,23.23328],[91.4554,23.22081],[91.46091,23.21689],[91.47984,23.21965],[91.48476,23.2056],[91.47251,23.19909],[91.4743,23.19451],[91.5014,23.19092],[91.50455,23.18716],[91.49397,23.18084],[91.49105,23.15662],[91.51479,23.14497],[91.50405,23.13323],[91.50489,23.1281],[91.51421,23.12355],[91.51473,23.10803],[91.52404,23.09319],[91.5307,23.09045],[91.52627,23.08319],[91.53273,23.07006],[91.52723,23.06234],[91.53556,23.05797],[91.5498,23.07053],[91.55474,23.08166],[91.56486,23.08102],[91.56838,23.08601],[91.56716,23.11049],[91.57208,23.12315],[91.56249,23.13112],[91.56346,23.15165],[91.56063,23.16747],[91.56737,23.17083],[91.56205,23.1814],[91.5638,23.1946],[91.55682,23.20076],[91.55994,23.20681],[91.55207,23.20928],[91.54406,23.22438],[91.54356,23.23575],[91.54784,23.23855],[91.53981,23.25767],[91.51373,23.26468],[91.50527,23.27626]]]}},{"type":"Feature","properties":{"ac_name":"MANU","ac_no":39,"ac_category":"ST","st_name":"TRIPURA"},"geometry":{"type":"Polygon","coordinates":[[[91.72373,23.18981],[91.71933,23.19672],[91.70407,23.1957],[91.63958,23.17632],[91.63491,23.18255],[91.61679,23.17556],[91.56737,23.17083],[91.56063,23.16747],[91.56346,23.15165],[91.57238,23.14243],[91.5817,23.11756],[91.59262,23.11229],[91.58432,23.09981],[91.58828,23.08023],[91.58613,23.07116],[91.59516,23.06845],[91.59485,23.06055],[91.61013,23.05925],[91.5998,23.04518],[91.6026,23.03474],[91.62987,23.02957],[91.6546,23.05012],[91.66703,23.05108],[91.68803,23.07726],[91.70659,23.09242],[91.735,23.0956],[91.73286,23.1174],[91.73649,23.12408],[91.73263,23.13509],[91.73708,23.14475],[91.7321,23.15394],[91.73602,23.15786],[91.72833,23.16386],[91.72868,23.17432],[91.72243,23.17822],[91.72373,23.18981]]]}},{"type":"Feature","properties":{"ac_name":"SABROOM","ac_no":40,"ac_category":"GEN","st_name":"TRIPURA"},"geometry":{"type":"Polygon","coordinates":[[[91.58828,23.08023],[91.58432,23.09981],[91.59262,23.11229],[91.5817,23.11756],[91.57238,23.14243],[91.56346,23.15165],[91.56249,23.13112],[91.57208,23.12315],[91.56716,23.11049],[91.56838,23.08601],[91.56486,23.08102],[91.55474,23.08166],[91.5498,23.07053],[91.53556,23.05797],[91.53425,23.04045],[91.5487,23.03992],[91.54053,23.02496],[91.54673,23.01778],[91.5429,22.99851],[91.54566,22.99555],[91.55584,23.00294],[91.55524,22.98253],[91.5762,22.97076],[91.59243,22.97773],[91.60205,22.97085],[91.60766,22.96447],[91.6044,22.95867],[91.61386,22.94519],[91.61854,22.94495],[91.63561,22.96945],[91.65658,22.98123],[91.67162,22.97962],[91.69358,22.99077],[91.71282,22.98836],[91.72389,22.99511],[91.77097,23.04175],[91.76898,23.05294],[91.75203,23.04881],[91.74975,23.05151],[91.74065,23.07577],[91.73489,23.07777],[91.74245,23.09033],[91.735,23.0956],[91.70659,23.09242],[91.68803,23.07726],[91.66703,23.05108],[91.6546,23.05012],[91.62987,23.02957],[91.6026,23.03474],[91.5998,23.04518],[91.61013,23.05925],[91.59485,23.06055],[91.59516,23.06845],[91.58613,23.07116],[91.58828,23.08023]]]}}]}